name,mac address,encryption,lat,lon
Colba.NET,00:02:6F:34:56:BF,None,-179.776747,-178.843231
Audi_MMI_2661,00:06:C6:93:70:9E,WPA+AES-CCM WPA+PSK,-97.666332,-73.573682
Viametrics_351579056279332,00:07:80:3F:19:7F,WPA+AES-CCM WPA+PSK,-177.840567,-176.654387
None,00:09:5B:FE:A4:DA,WPA+PSK WPA+TKIP,45.605453,-73.553307
Turbobeacon9463,00:0A:EB:F7:13:72,WPA+AES-CCM WPA+PSK,45.605472,-73.533028
IRepair FREE WIFI,00:0C:42:BC:94:5C,None,-149.726739,-151.664131
GlobeSurferIII,00:0C:E3:6F:F6:3D,WPA+PSK WPA+TKIP,-169.250121,-145.157551
None,00:0E:58:23:63:DB,WPA+AES-CCM WPA+PSK,-97.668670,-73.576235
Video_Link,00:0E:8F:78:FF:0C,WPA+AES-CCM WPA+PSK,-179.703350,-179.150218
YANSE_CS,00:0E:C6:03:41:15,WPA+AES-CCM WPA+PSK,-169.249799,-73.574228
CIK5780,00:0E:F4:DC:A0:D9,WPA+AES-CCM WPA+PSK WPA+TKIP,45.610161,-73.544983
CIK0574,00:0E:F4:DD:B4:12,WPA+AES-CCM WPA+PSK WPA+TKIP,45.496097,-73.576981
Oriental Ark Hao Miao,00:0E:F4:DE:60:D0,WPA+AES-CCM WPA+PSK WPA+TKIP,45.498516,-73.574264
ZHONGCHENG,00:0E:F4:DF:B7:96,WPA+AES-CCM WPA+PSK WPA+TKIP,-149.728126,-151.665585
CIK7918,00:0E:F4:DF:B7:C2,WPA+AES-CCM WPA+PSK WPA+TKIP,-169.250603,-73.575085
CIK0312,00:0E:F4:DF:E8:C5,WPA+AES-CCM WPA+PSK WPA+TKIP,-126.194043,-159.429848
linksys1,00:0F:66:94:D7:54,WEP,-169.146031,-145.119590
helene,00:11:95:57:AB:11,WPA+PSK WPA+TKIP,-126.201916,-159.433573
HoTdOg,00:12:17:B6:B7:58,WPA+AES-CCM WPA+PSK WPA+TKIP,-126.190223,-159.440423
Hazan Wi-Fi,00:13:10:B1:9D:7A,WPA+AES-CCM WPA+PSK,-169.248025,-169.018211
Tabagie-Cote-Vertu,00:13:A3:6B:3D:24,WPA+PSK WPA+TKIP,-169.248025,-154.105130
JoBean,00:14:A5:0D:50:2A,WPA+PSK WPA+TKIP,-169.148126,-73.532791
nanatiti,00:14:BF:07:A2:53,WPA+PSK WPA+TKIP,-169.147164,-145.115076
Fleuriste Pour Vous Inc,00:14:BF:4A:A3:7D,WPA+AES-CCM WPA+PSK WPA+TKIP,-126.192803,-159.433902
CDDL_MTL,00:14:BF:4A:AB:00,WPA+AES-CCM WPA+PSK WPA+TKIP,-169.249666,-73.574196
SiscoWL,00:14:C2:B4:54:D0,WPA+PSK WPA+TKIP,45.610111,-73.544861
None,00:14:D1:AD:64:D8,WPA+AES-CCM WPA+PSK WPA+TKIP,-169.143035,-73.558437
Beleriand,00:14:D1:B1:41:5C,WPA+AES-CCM WPA+PSK,-169.142875,-73.533089
default_wds,00:14:D1:D6:69:A0,None,-169.250261,-73.574944
None,00:15:70:EE:F5:BC,WPA+PSK WPA+TKIP,-175.056087,-178.049634
None,00:15:70:EE:F5:BE,WPA+AES-CCM WPA+PSK,-179.013538,-171.190369
None,00:15:70:EE:F5:BF,WPA+AES-CCM WPA+PSK WPA+TKIP,-173.634818,-178.760333
MIFI2-P7EF,00:15:FF:5D:B4:7D,WPA+AES-CCM WPA+PSK,-179.762702,-178.696769
luclef2,00:16:B6:DA:A3:55,WPA+AES-CCM WPA+PSK,45.606975,-73.537674
Structube Wifi,00:17:C5:47:97:CF,WPA+AES-CCM WPA+PSK,-169.252356,-145.159962
LBC-WIFI,00:17:C5:BA:55:55,WPA+AES-CCM WPA+PSK WPA+TKIP,-126.302305,-159.476091
None,00:18:0A:22:5A:1E,WPA+AES-CCM WPA+PSK WPA+TKIP,-169.249301,-73.573734
None,00:18:0A:79:F9:AA,WPA+AES-CCM WPA+PSK WPA+TKIP,-152.730589,-172.688834
3 Brasseurs WIFI,00:18:0A:D4:2F:E0,None,-169.250926,-73.575733
3 Brasseurs WIFI,00:18:0A:D4:D0:80,None,-177.840899,-176.654972
Retail Wireless,00:18:0A:E6:E4:90,WPA+AES-CCM WPA+PSK WPA+TKIP,-178.589290,-176.282943
linksys,00:18:39:B2:FA:05,WPA+PSK WPA+TKIP,45.610893,-73.546654
Dancar,00:18:39:C4:E6:A7,WPA+AES-CCM WPA+PSK,-169.143027,-154.063245
SALMA,00:18:39:DB:16:AD,WPA+AES-CCM WPA+PSK,-169.146212,-127.223281
grapeamungus,00:18:E7:8D:44:55,WPA+AES-CCM WPA+PSK WPA+TKIP,-179.079911,-179.021815
JDUBOISLP_Network,00:18:E7:C5:D3:B0,WPA+AES-CCM WPA+PSK,-157.836273,-163.964011
Majd,00:18:E7:C5:D7:7C,WPA+AES-CCM WPA+PSK,-97.669815,-73.577505
danny richard 1,00:18:E7:D0:5A:B8,WPA+AES-CCM WPA+PSK WPA+TKIP,45.601978,-73.535522
jules,00:18:E7:D1:1A:7C,WPA+PSK WPA+TKIP,-179.368043,-175.797461
KittyLudo,00:18:E7:F1:4B:48,WPA+AES-CCM WPA+PSK WPA+TKIP,45.608616,-73.541466
linksys MB,00:18:F8:D6:CD:29,WPA+PSK WPA+TKIP,-169.137323,-73.547089
TaxiLinQ_3582_00198824233A,00:19:88:24:23:3A,WPA+AES-CCM WPA+PSK,-169.248922,-73.573612
LinksysGB,00:1A:70:D1:76:34,WPA+AES-CCM WPA+PSK,45.599422,-73.533279
linksys_SES_44068,00:1A:70:E9:D4:AD,WPA+AES-CCM WPA+PSK WPA+TKIP,-169.151906,-73.535202
MontageMGM,00:1A:DD:BD:F8:81,WPA+AES-CCM WPA+PSK WPA+TKIP,-169.250322,-163.053413
3Coloc,00:1B:11:4F:96:BD,WPA+PSK WPA+TKIP,-97.564876,-73.532539
OSTEOFREAK,00:1B:63:2B:BF:2D,WPA+AES-CCM WPA+PSK,-169.136991,-73.547787
yobitch,00:1C:10:C0:40:0B,WPA+AES-CCM WPA+PSK WPA+TKIP,-97.555123,-73.545675
maison,00:1C:DF:AA:B9:B9,WPA+AES-CCM WPA+PSK WPA+TKIP,-156.516735,-174.591341
CASADOM,00:1C:DF:AA:DD:DB,WEP,-174.137717,-173.413803
Maya123,00:1C:F0:66:0C:96,WPA+AES-CCM WPA+PSK WPA+TKIP,45.601196,-73.532280
None,00:1C:F0:67:31:DC,WPA+AES-CCM WPA+PSK,-145.287376,-168.976614
Dare,00:1C:F0:B8:45:1B,WPA+AES-CCM WPA+PSK WPA+TKIP,-169.249599,-73.574215
Rachel,00:1C:F0:B9:77:23,WEP,-169.145944,-73.531609
Ben&nath,00:1C:F0:C0:9D:55,WPA+AES-CCM WPA+PSK WPA+TKIP,-169.146228,-145.118894
Unitelecom475,00:1D:5A:8E:F7:E1,WPA+AES-CCM WPA+PSK WPA+TKIP,45.610928,-73.546753
LQ004282Wa6b5C7KgBk24HeE,00:1D:73:18:27:9B,WPA+AES-CCM WPA+PSK,-169.151620,-154.064885
LQ030801Ny8p5D4QkZq9z2WY,00:1D:73:18:E1:A7,WPA+AES-CCM WPA+PSK,-178.126266,-176.514597
LQ055039Mn68Wmg9RCz74JpK,00:1D:73:3A:36:F7,WPA+AES-CCM WPA+PSK,-126.195353,-159.430465
LQ033061a7QEg3w6A9Kpn2W8,00:1D:73:3A:92:03,WPA+AES-CCM WPA+PSK,-169.248025,-169.018211
LQ028252c7H9Pok3A5Spg4NR,00:1D:73:3A:A6:E1,WPA+AES-CCM WPA+PSK,-177.614845,-179.554206
LQ073134d2W3AsFo78Kya5C4,00:1D:73:3A:A9:61,WPA+AES-CCM WPA+PSK,-179.723555,-178.329793
LQ006894j7XRo5x9AHb36Wdi,00:1D:73:3A:A9:6B,WPA+AES-CCM WPA+PSK,,
LQ034392c6X7QsRm45KbGw38,00:1D:73:3A:A9:C1,WPA+AES-CCM WPA+PSK,-179.760183,-179.697228
LQ003707i3Z2HkJd87Qqj5KR,00:1D:73:3A:A9:EB,WPA+AES-CCM WPA+PSK,-169.248025,-169.018211
LQ057984t9L2QgBq7b6GDd5m,00:1D:73:3A:D4:4B,WPA+AES-CCM WPA+PSK,-177.507578,-172.689123
LQ024143a4R6HeQg2r3YNp5s,00:1D:73:3A:D7:7B,WPA+AES-CCM WPA+PSK,,
LQ085408Jz37Rjf4BDy5c8HN,00:1D:73:3A:E2:91,WPA+AES-CCM WPA+PSK,-169.143662,-168.974346
LQ055055Hm62Qri5B7Cdf4YT,00:1D:73:3A:E3:95,WPA+AES-CCM WPA+PSK,-169.142496,-73.534473
LQ031310d4PLk9b5W6ZoJn27,00:1D:73:3A:EA:DB,WPA+AES-CCM WPA+PSK,-97.554535,-73.547099
LQ032497Pc5s7X2MaRk86DyN,00:1D:73:3A:F5:DB,WPA+AES-CCM WPA+PSK,-169.136055,-145.138185
LQ048464Sn6z5LDw9g7K8Aet,00:1D:73:3A:FC:91,WPA+AES-CCM WPA+PSK,-169.248025,-159.473839
McArthur,00:1D:7E:23:CC:0B,WEP,-169.145097,-73.531162
spouet,00:1D:7E:31:4B:70,WPA+AES-CCM WPA+PSK,45.603195,-73.531196
YANNICK-PC_Network,00:1E:2A:54:2D:4E,WPA+AES-CCM WPA+PSK,-169.144324,-73.530708
GUSS/UPA TD OFFICE,00:1E:58:06:13:17,WPA+AES-CCM WPA+PSK WPA+TKIP,45.495697,-73.577484
Craiova,00:1E:58:EB:23:85,WPA+AES-CCM WPA+PSK WPA+TKIP,-169.143260,-73.531782
None,00:1E:E5:1F:EB:10,WPA+AES-CCM WPA+PSK WPA+TKIP,-169.137323,-73.547096
WiFiCFAPub,00:1E:E5:1F:EB:11,WPA+AES-CCM WPA+PSK WPA+TKIP,-169.137324,-73.547100
MarjoPascal,00:1E:E5:35:BF:8F,WEP,45.607101,-73.537964
natalia79,00:1E:E5:37:D7:16,WPA+AES-CCM WPA+PSK,-169.142980,-73.558239
None,00:1E:E5:44:0D:0E,WPA+AES-CCM WPA+PSK WPA+TKIP,-97.569093,-73.535164
RobertoNET,00:1F:1F:3F:D6:4C,WPA+PSK WPA+TKIP,45.496773,-73.577492
BravoTelecom_10080,00:1F:9F:A3:B3:53,WPA+AES-CCM WPA+PSK WPA+TKIP,-169.144792,-73.558990
O SPA,00:1F:F3:07:25:B5,WPA+AES-CCM WPA+PSK,-169.250699,-73.575249
thesensorlab,00:1F:F3:F8:58:6B,WPA+AES-CCM WPA+PSK,45.496540,-73.576706
HoMe,00:21:29:6C:C9:9F,WPA+AES-CCM WPA+PSK,-169.147194,-145.115029
maison62,00:21:29:9B:5E:0C,WPA+PSK WPA+TKIP,-169.151183,-145.117223
linksys,00:21:29:A6:58:BE,WPA+PSK WPA+TKIP,45.606728,-73.537117
RHA,00:21:29:B8:57:71,WPA+AES-CCM WPA+PSK WPA+TKIP,45.596870,-73.534134
Banane Bleue,00:21:29:BB:CD:19,WPA+AES-CCM WPA+PSK WPA+TKIP,-169.142726,-73.533592
linksys,00:21:29:C5:6A:79,WPA+PSK WPA+TKIP,-97.560585,-73.531418
NegativeSpace,00:21:29:D0:FD:A9,WPA+AES-CCM WPA+PSK,-169.143053,-73.558582
miki123,00:21:29:D8:FC:72,WPA+AES-CCM WPA+PSK WPA+TKIP,45.603756,-73.558769
savannahgreen,00:21:29:DA:23:EE,WPA+AES-CCM WPA+PSK WPA+TKIP,-126.188837,-159.443590
MCB Dinning 49,00:21:29:E8:A0:70,None,-176.821313,-177.074380
MCB Dinning 48,00:21:29:E9:68:50,None,-156.519276,-174.592933
ConcordiaUniversity,00:22:55:74:EF:30,WPA+AES-CCM WPA+TKIP,,
None,00:22:55:74:EF:31,WEP,,
eduroam,00:22:55:74:EF:32,WPA+AES-CCM,,
ConcordiaGuest,00:22:55:74:EF:33,None,,
ConcordiaUniversity,00:22:55:74:F7:30,WPA+AES-CCM WPA+TKIP,,
None,00:22:55:74:F7:31,WEP,,
eduroam,00:22:55:74:F7:32,WPA+AES-CCM,,
ConcordiaGuest,00:22:55:74:F7:33,None,,
None,00:22:55:74:F7:81,WEP,,
eduroam,00:22:55:74:F7:82,WPA+AES-CCM,,
ConcordiaGuest,00:22:55:74:F7:83,None,,
ConcordiaUniversity,00:22:55:74:F7:E0,WPA+AES-CCM WPA+TKIP,,
None,00:22:55:74:F7:E1,WEP,,
eduroam,00:22:55:74:F7:E2,WPA+AES-CCM,,
ConcordiaGuest,00:22:55:74:F7:E3,None,,
None,00:22:55:DF:CF:B1,WEP,,
ConcordiaUniversity,00:22:55:DF:D1:40,WPA+AES-CCM WPA+TKIP,,
None,00:22:55:DF:D1:41,WEP,,
eduroam,00:22:55:DF:D1:42,WPA+AES-CCM,,
ConcordiaGuest,00:22:55:DF:D1:43,None,,
ConcordiaUniversity,00:22:55:DF:FA:D0,WPA+AES-CCM WPA+TKIP,,
None,00:22:55:DF:FA:D1,WEP,,
eduroam,00:22:55:DF:FA:D2,WPA+AES-CCM,,
ConcordiaGuest,00:22:55:DF:FA:D3,None,,
ConcordiaUniversity,00:22:55:E0:1A:80,WPA+AES-CCM WPA+TKIP,,
None,00:22:55:E0:1A:81,WEP,,
eduroam,00:22:55:E0:1A:82,WPA+AES-CCM,,
ConcordiaGuest,00:22:55:E0:1A:83,None,,
ConcordiaUniversity,00:22:55:E0:9C:D0,WPA+AES-CCM WPA+TKIP,-169.252418,-73.577274
None,00:22:55:E0:9C:D1,WEP,45.495937,-73.577370
ConcordiaGuest,00:22:55:E0:9C:D3,None,45.495937,-73.577370
ConcordiaGuest,00:22:55:E0:B1:02,None,45.496426,-73.577568
linksys,00:22:6B:5C:96:1F,WPA+PSK WPA+TKIP,-169.248025,-145.157282
Philippe,00:22:6B:5C:BA:AF,WPA+AES-CCM WPA+PSK WPA+TKIP,-126.200860,-159.433523
tigerofsweden,00:22:6B:8A:2A:24,WPA+AES-CCM WPA+PSK,-178.584911,-166.943348
ConcordiaUniversity,00:22:90:39:6C:80,WPA+AES-CCM WPA+TKIP,-169.251592,-73.577492
None,00:22:90:39:6C:81,WEP,,
eduroam,00:22:90:39:6C:82,WPA+AES-CCM,,
ConcordiaGuest,00:22:90:39:6C:83,None,,
ConcordiaUniversity,00:22:90:39:CB:00,WPA+AES-CCM WPA+TKIP,-157.949966,-163.997817
None,00:22:90:39:CB:01,WEP,-169.252548,-145.160239
eduroam,00:22:90:39:CB:02,WPA+AES-CCM,-126.302826,-159.476797
ConcordiaGuest,00:22:90:39:CB:03,None,-97.669710,-73.577466
ConcordiaUniversity,00:22:90:5D:E5:D0,WPA+AES-CCM WPA+TKIP,,
None,00:22:90:5D:E5:D1,WEP,,
eduroam,00:22:90:5D:E5:D2,WPA+AES-CCM,,
ConcordiaGuest,00:22:90:5D:E5:D3,None,,
ConcordiaUniversity,00:22:90:5D:E7:10,WPA+AES-CCM WPA+TKIP,-169.250832,-169.019267
eduroam,00:22:90:5D:E7:12,WPA+AES-CCM,45.497742,-73.575111
ConcordiaGuest,00:22:90:5D:E7:13,None,45.497742,-73.575111
ConcordiaUniversity,00:22:90:5D:E9:40,WPA+AES-CCM WPA+TKIP,,
None,00:22:90:5D:E9:41,WEP,,
eduroam,00:22:90:5D:E9:42,WPA+AES-CCM,,
ConcordiaGuest,00:22:90:5D:E9:43,None,,
None,00:22:90:5D:E9:B1,WEP,,
eduroam,00:22:90:5D:E9:B2,WPA+AES-CCM,,
ConcordiaGuest,00:22:90:5D:E9:B3,None,,
ConcordiaGuest,00:22:90:5D:E9:E3,None,45.495838,-73.577484
ConcordiaUniversity,00:22:90:5D:EB:A0,WPA+AES-CCM WPA+TKIP,,
None,00:22:90:5D:EB:A1,WEP,,
eduroam,00:22:90:5D:EB:A2,WPA+AES-CCM,,
ConcordiaGuest,00:22:90:5D:EB:A3,None,,
ConcordiaUniversity,00:22:90:5E:35:80,WPA+AES-CCM WPA+TKIP,,
None,00:22:90:5E:35:81,WEP,,
eduroam,00:22:90:5E:35:82,WPA+AES-CCM,,
ConcordiaGuest,00:22:90:5E:35:83,None,,
ConcordiaUniversity,00:22:90:5E:37:00,WPA+AES-CCM WPA+TKIP,,
None,00:22:90:5E:37:01,WEP,,
ConcordiaGuest,00:22:90:5E:37:03,None,,
ConcordiaUniversity,00:22:90:A1:34:90,WPA+AES-CCM WPA+TKIP,,
None,00:22:90:A1:34:91,WEP,,
eduroam,00:22:90:A1:34:92,WPA+AES-CCM,,
ConcordiaGuest,00:22:90:A1:34:93,None,,
ConcordiaUniversity,00:22:90:A1:36:20,WPA+AES-CCM WPA+TKIP,,
None,00:22:90:A1:36:21,WEP,,
eduroam,00:22:90:A1:36:22,WPA+AES-CCM,,
ConcordiaGuest,00:22:90:A1:36:23,None,,
None,00:22:90:A1:36:52,WEP,,
eduroam,00:22:90:A1:36:53,WPA+AES-CCM,,
ConcordiaGuest,00:22:90:A1:36:54,None,,
ConcordiaUniversity,00:22:90:A1:36:80,WPA+AES-CCM WPA+TKIP,,
None,00:22:90:A1:36:81,WEP,,
ConcordiaGuest,00:22:90:A1:36:83,None,,
ConcordiaUniversity,00:22:90:A1:37:20,WPA+AES-CCM WPA+TKIP,,
None,00:22:90:A1:37:21,WEP,,
eduroam,00:22:90:A1:37:22,WPA+AES-CCM,,
ConcordiaGuest,00:22:90:A1:37:23,None,,
CAYA,00:22:A4:51:AE:61,WPA+PSK WPA+TKIP,-169.139616,-165.576795
tzoutzouk,00:22:B0:D4:F9:50,WEP,-138.466866,-134.895510
GOLDEN PHRNIX,00:23:51:70:F2:D1,WPA+PSK WPA+TKIP,-179.634548,-179.685450
None,00:23:68:4F:D7:18,WPA+PSK WPA+TKIP,45.495811,-73.577484
None,00:23:68:4F:D7:1A,WPA+AES-CCM WPA+PSK,-169.252485,-73.577442
None,00:23:68:8D:E9:00,WPA+PSK WPA+TKIP,-126.300566,-159.474253
wififofumipod,00:23:68:8D:E9:01,WPA+PSK WPA+PSK WPA+TKIP WPA+TKIP,-156.618077,-174.633014
BELLWIFI@MCDONALDS,00:23:68:8F:51:F0,None,-169.252409,-159.476516
dd-wrt,00:23:69:5C:0F:FF,WPA+AES-CCM WPA+PSK WPA+TKIP,-177.204398,-169.019085
R-SA3,00:23:69:5D:82:49,WEP,45.496616,-73.576530
2 girls 1 router,00:23:69:8A:EB:59,WPA+AES-CCM WPA+PSK,45.601566,-73.532074
Arpanetosaurus,00:23:69:C2:3C:56,WPA+AES-CCM WPA+PSK WPA+TKIP,-175.276761,-171.709137
Linksys_Val-David,00:23:69:E5:1A:36,WEP,-97.566229,-73.533307
SmartRG027c,00:23:6A:40:4B:7D,WPA+AES-CCM WPA+PSK WPA+TKIP,-97.563598,-73.535522
Primus-884b,00:23:6A:47:88:4D,WPA+AES-CCM WPA+PSK WPA+TKIP,-169.138334,-127.231766
ElectronicBoxcjj1,00:23:6A:5B:D0:42,WPA+AES-CCM WPA+PSK WPA+TKIP,,
HungryCat,00:23:6A:6F:FE:DB,WPA+AES-CCM WPA+PSK WPA+TKIP,-169.150032,-73.533894
SmartRG99fb,00:23:6A:72:99:FD,WPA+AES-CCM WPA+PSK WPA+TKIP,-169.148812,-168.976917
ElectronicBoxcf146,00:23:6A:72:9A:1E,WPA+AES-CCM WPA+PSK WPA+TKIP,-169.140497,-73.539753
SmartRG499a,00:23:6A:74:49:9C,WPA+AES-CCM WPA+PSK WPA+TKIP,-169.144952,-173.774041
AEI56654,00:23:6A:74:F1:25,WPA+AES-CCM WPA+PSK WPA+TKIP,-169.142708,-145.116442
ElectronicBoxbk134,00:23:6A:75:86:60,WPA+AES-CCM WPA+PSK WPA+TKIP,-169.149633,-145.116462
ElectronicBoxwf13,00:23:6A:75:C1:75,WPA+AES-CCM WPA+PSK WPA+TKIP,-177.741080,-176.613770
SmartRGfe14,00:23:6A:75:FE:16,WPA+AES-CCM WPA+PSK WPA+TKIP,-179.217559,-179.925092
SmartRG027c,00:23:6A:78:4E:E2,WPA+AES-CCM WPA+PSK WPA+TKIP,-175.286753,-171.705212
Distributel2410,00:23:6A:78:7E:CB,WPA+AES-CCM WPA+PSK WPA+TKIP,-126.195700,-159.430657
TransatTelecom680,00:23:6A:7E:83:E9,WPA+AES-CCM WPA+PSK WPA+TKIP,45.605465,-73.557747
SmartRG8063,00:23:6A:7F:80:65,WPA+AES-CCM WPA+PSK WPA+TKIP,-126.195920,-159.430776
SmartRGDA5D,00:23:6A:7F:DA:5F,WPA+AES-CCM WPA+PSK WPA+TKIP,-174.382566,-178.314294
SMARTRG123,00:23:6A:7F:F6:DC,WPA+AES-CCM WPA+PSK WPA+TKIP,-169.142728,-73.558571
Distributel7234,00:23:6A:81:54:53,WPA+AES-CCM WPA+PSK WPA+TKIP,45.605732,-73.533890
EBOX_MJ399,00:23:6A:D2:06:5B,WPA+AES-CCM WPA+PSK WPA+TKIP,-169.138776,-145.126535
Tapage1525,00:23:6A:EB:2F:85,WPA+AES-CCM WPA+PSK WPA+TKIP,-179.770889,-179.728725
eMVy,00:23:6A:ED:37:5B,WPA+AES-CCM WPA+PSK WPA+TKIP,-169.138814,-73.543672
Teksavvy8324,00:23:6A:F0:84:35,WPA+AES-CCM WPA+PSK WPA+TKIP,-169.145593,-145.114217
Acanac_02625,00:23:6A:F4:4B:E8,WPA+AES-CCM WPA+PSK,45.607185,-73.538200
gagnet19,00:23:CD:C7:53:4E,WPA+AES-CCM WPA+PSK WPA+TKIP,-178.051542,-178.458318
henry,00:24:01:38:26:EC,WPA+PSK WPA+TKIP,-169.139724,-145.124316
C-ANOUS-COURS-ARRIERE,00:24:01:73:AD:5D,WPA+AES-CCM WPA+PSK WPA+TKIP,-138.460147,-134.900988
dlink,00:24:01:74:69:E9,WPA+AES-CCM WPA+PSK WPA+TKIP,-169.138252,-127.231957
dlink,00:24:01:75:02:B3,WPA+AES-CCM WPA+PSK WPA+TKIP,-126.194932,-159.458121
OGILVY4,00:24:01:CE:62:4F,WPA+AES-CCM WPA+PSK WPA+TKIP,-179.987646,-177.369915
hebert,00:24:01:CE:ED:E1,WPA+PSK WPA+TKIP,-149.625534,-151.623110
dlink-net-77,00:24:01:CE:FF:71,WPA+PSK WPA+TKIP,-145.281779,-168.977371
Desjardins,00:24:01:DB:F4:6D,WPA+AES-CCM WPA+PSK WPA+TKIP,-97.560807,-73.530785
danny,00:24:01:DB:FA:57,WPA+AES-CCM WPA+PSK WPA+TKIP,-138.460453,-134.900391
GPPC_Net,00:24:01:F3:11:60,WPA+AES-CCM WPA+PSK WPA+TKIP,-169.141223,-165.573119
machin,00:24:01:F6:92:94,WPA+AES-CCM WPA+PSK,-169.142900,-73.557205
ThomsonB0391D,00:24:17:0A:33:6E,WPA+AES-CCM WPA+PSK WPA+TKIP,-169.149868,-154.064450
UnitelecomF5C,00:24:17:0D:5F:EA,WPA+AES-CCM WPA+PSK WPA+TKIP,-126.199429,-159.432708
BravoTelecom_8261,00:24:17:0D:5F:F3,WPA+AES-CCM WPA+PSK WPA+TKIP,-169.144798,-127.245948
UnitelecomLB65,00:24:17:25:47:FF,WPA+AES-CCM WPA+PSK WPA+TKIP,45.603569,-73.558990
ThomsonE0265E,00:24:17:3E:DB:C1,WPA+AES-CCM WPA+PSK WPA+TKIP,-169.143936,-154.089306
BravoTelecom_2692,00:24:17:6A:02:EA,WPA+AES-CCM WPA+PSK WPA+TKIP,-169.145036,-73.539200
Unitelecom667A,00:24:17:C5:66:65,WPA+AES-CCM WPA+PSK WPA+TKIP,-169.142103,-73.535730
Bravotelecom-Baakili,00:24:17:FF:2C:4C,WPA+PSK WPA+TKIP,45.604687,-73.558723
NETWORK,00:24:56:93:B2:89,WPA+AES-CCM WPA+PSK WPA+TKIP,-149.618929,-151.627722
ConcordiaUniversity,00:24:97:F2:88:10,WPA+AES-CCM WPA+TKIP,,
ConcordiaUniversity,00:24:97:F2:8D:60,WPA+AES-CCM WPA+TKIP,-169.252447,-173.793327
None,00:24:97:F2:8D:61,WEP,-169.252446,-145.160133
eduroam,00:24:97:F2:8D:62,WPA+AES-CCM,-169.252489,-127.264485
ConcordiaGuest,00:24:97:F2:8D:63,None,-126.302820,-159.476774
ConcordiaUniversity,00:24:97:F2:8D:C0,WPA+AES-CCM WPA+TKIP,,
None,00:24:97:F2:8D:C2,WEP,,
eduroam,00:24:97:F2:8D:C3,WPA+AES-CCM,,
ConcordiaGuest,00:24:97:F2:8D:C4,None,,
LQ005995w8FMm49Bpi5HGy62,00:24:A5:42:94:41,WPA+AES-CCM WPA+PSK,-169.151620,-145.117037
BELL887,00:25:3C:B0:63:F9,WEP,45.498219,-73.574791
RynerAleWifiEtPasToi2.4,00:25:9C:79:52:19,WPA+AES-CCM WPA+PSK WPA+TKIP,-169.250581,-145.157870
brittany,00:25:9C:EB:93:F7,WPA+AES-CCM WPA+PSK WPA+TKIP,-138.463900,-134.891963
NeverLAN,00:25:9C:F1:AD:CB,WPA+AES-CCM WPA+PSK WPA+TKIP,-169.150952,-159.433788
Prince,00:25:9C:F2:89:13,WPA+AES-CCM WPA+PSK WPA+TKIP,-97.557942,-73.539235
Forget,00:25:9C:FB:65:F9,WPA+PSK WPA+TKIP,-126.195344,-159.430471
Rlo,00:26:18:08:C7:4D,WPA+AES-CCM WPA+PSK,-179.880425,-178.759374
Unitelecom988E,00:26:44:52:76:37,WPA+AES-CCM WPA+PSK WPA+TKIP,-169.140104,-145.123392
ThomsonE41A86,00:26:44:DF:A7:91,WPA+AES-CCM WPA+PSK,-176.406304,-173.790397
BELL205,00:26:50:B4:AC:C1,WEP,45.497955,-73.575081
BELL925,00:26:50:E3:7D:99,WEP,-169.137334,-73.547081
11giraffes,00:26:51:AC:29:B0,WPA+PSK WPA+TKIP,-97.667937,-73.575534
BELL892,00:26:82:FA:D6:34,WPA+AES-CCM WPA+PSK,-169.151883,-159.434498
Home,00:26:82:FB:1E:A4,WEP,-97.562835,-73.537826
BELL695,00:26:82:FC:5E:74,WPA+AES-CCM WPA+PSK,-169.150304,-73.534065
BELL612,00:26:82:FC:72:24,WPA+AES-CCM WPA+PSK,-152.629377,-172.647598
BELL835,00:26:82:FC:F6:1C,WPA+AES-CCM WPA+PSK,45.596504,-73.535103
BELL519,00:26:82:FE:D7:2C,WPA+AES-CCM WPA+PSK,45.602680,-73.531479
None,00:27:0D:2E:FA:E0,WPA+AES-CCM WPA+PSK,-169.249708,-73.574226
MARQUES,00:27:19:CE:86:6C,WEP,-97.666551,-73.573748
None,00:30:44:1B:CE:87,WPA+AES-CCM WPA+PSK,45.496139,-73.577042
None,00:30:44:1B:CE:B7,WPA+AES-CCM WPA+PSK,,
rc1881,00:30:44:1E:34:29,WPA+AES-CCM WPA+PSK,-169.249571,-165.609181
CGF_Internet,00:35:1A:31:62:C0,WPA+AES-CCM WPA+PSK,45.605198,-73.558594
lebowski2,00:37:B7:E7:09:4E,WPA+AES-CCM WPA+PSK WPA+TKIP,-97.669389,-73.576960
BELL530,00:37:B7:E7:3B:9E,WPA+AES-CCM WPA+PSK,-169.151620,-154.064885
BELL436,00:37:B7:E7:C3:AE,WPA+AES-CCM WPA+PSK,,
BELL068,00:37:B7:E8:90:66,WPA+AES-CCM WPA+PSK,45.497600,-73.577614
BELL705,00:37:B7:E9:FF:36,WPA+AES-CCM WPA+PSK,-169.137445,-168.990495
Princess Sparkles,00:37:B7:EA:15:86,WPA+AES-CCM WPA+PSK,45.496376,-73.576859
BELL108,00:37:B7:EC:6A:5E,WPA+AES-CCM WPA+PSK,-179.098868,-179.963592
BELL336,00:37:B7:EC:6B:A6,WPA+AES-CCM WPA+PSK,-169.251551,-174.634432
BELL934,00:37:B7:ED:8B:C6,WPA+AES-CCM WPA+PSK,-169.146976,-145.114965
BELL487,00:37:B7:EF:5C:7E,WPA+AES-CCM WPA+PSK,-169.151480,-73.534187
BELL423,00:37:B7:F0:A6:CE,WPA+AES-CCM WPA+PSK,-152.619628,-172.658455
Berrimont,00:37:B7:F0:F1:3E,WPA+AES-CCM WPA+PSK,,
R,Slim,00:37:B7:F2:1F:DE,WPA+AES-CCM WPA+PSK,-169.250932,-127.262851
CHAUSSURES,00:37:B7:F2:21:2E,WPA+AES-CCM WPA+PSK,-97.666525,-73.573735
BELL476,00:37:B7:F4:A3:0C,WPA+AES-CCM WPA+PSK,-169.151620,-145.117037
BELL602,00:37:B7:F4:E5:F4,WPA+AES-CCM WPA+PSK,-138.458986,-134.903781
HM=STORE,00:37:B7:F5:59:14,WPA+AES-CCM WPA+PSK,-97.667830,-73.575111
None,00:3A:7D:0E:13:76,WPA+AES-CCM WPA+PSK WPA+TKIP,45.496540,-73.576683
AlcoaGuest,00:3A:7D:0E:13:77,None,45.496540,-73.576683
Succ-GS,00:90:7F:AD:6D:05,WPA+AES-CCM WPA+PSK WPA+TKIP,-178.586690,-166.943111
Night Vale,00:90:A9:0A:7F:31,WPA+AES-CCM WPA+PSK,-169.145481,-73.538200
nR-9d761db8,00:C0:CA:64:6E:1E,WPA+AES-CCM WPA+PSK,,
ConcordiaUniversity,00:F2:8B:96:C9:D0,WPA+AES-CCM,-169.251720,-73.576473
ConcordiaUniversity,00:F2:8B:9E:ED:70,WPA+AES-CCM,-169.251729,-73.576485
eduroam,00:F2:8B:9E:ED:71,WPA+AES-CCM,-169.251729,-73.576485
ConcordiaUniversity,00:F2:8B:AA:3B:60,WPA+AES-CCM,45.496227,-73.576942
eduroam,00:F2:8B:AA:3B:61,WPA+AES-CCM,-169.252082,-73.576900
ConcordiaUniversity,00:F2:8B:AB:66:80,WPA+AES-CCM,-97.668914,-73.576431
ConcordiaGuest,00:F2:8B:AB:66:82,None,45.496662,-73.576431
ConcordiaUniversity,00:F2:8B:BE:81:50,WPA+AES-CCM,-169.251649,-73.576401
eduroam,00:F2:8B:BE:81:51,WPA+AES-CCM,45.496716,-73.576401
ConcordiaGuest,00:F2:8B:BE:81:52,None,-169.251649,-73.576401
DIRECT-21SCX-3400,02:15:99:D5:D9:7B,WPA+AES-CCM WPA+PSK,-169.252178,-145.160220
None,02:18:4A:A2:19:01,None,-169.249143,-73.573616
Sdata,02:18:4A:A2:19:06,WPA+AES-CCM WPA+AES-CCM WPA+PSK WPA+PSK WPA+TKIP WPA+TKIP,-97.666379,-73.573618
HPCM1415-148163,02:21:61:85:AD:84,None,-156.617323,-174.632223
LCK,02:22:B0:9C:E2:7A,WPA+PSK WPA+TKIP,-169.248025,-171.187387
HPE710n.809D24,02:23:D3:16:8F:15,None,,
LCK-1,02:26:5A:4C:17:39,WPA+PSK WPA+TKIP,-145.387096,-169.018211
HPN911a.C4D63B,02:2B:4B:C1:BE:C0,None,,
HP02C626,02:2B:6B:C1:AB:BC,None,-169.250355,-171.187866
HPEFA3AC,02:2B:7B:FF:8C:F9,None,-156.618113,-174.633028
HPD110a.5922F8,02:2E:8E:18:D1:17,None,-126.302172,-159.476050
HP4F8DD9,02:2F:7F:56:CB:51,None,-149.729183,-151.666875
teoreso,02:30:44:1B:CE:87,None,45.496139,-73.577042
teoreso,02:30:44:1B:CE:B7,None,,
SurprisePizza,02:37:B7:EF:5C:7E,WPA+AES-CCM WPA+PSK,-169.151445,-127.221274
marie helene,02:37:B7:F4:E5:F4,WPA+AES-CCM WPA+PSK,-149.614761,-151.637376
VANHOUTTE,02:65:A3:AE:71:0E,WPA+AES-CCM WPA+PSK,-178.589133,-179.395472
None,02:65:A3:B0:B0:D6,WPA+AES-CCM WPA+PSK,-169.138116,-73.545212
GBA-GUEST,02:82:61:F7:FB:E6,WPA+AES-CCM WPA+PSK,-179.013019,-171.189428
basha,02:82:61:F8:0F:5E,WPA+AES-CCM WPA+PSK,-176.177002,-170.557341
SAAP,02:90:7F:B1:EC:23,WPA+AES-CCM WPA+PSK,45.496574,-73.576622
61A-guest,02:AA:4B:F0:57:37,None,-177.732439,-176.613622
IBWireless,02:BD:18:AA:43:9B,WPA+AES-CCM WPA+PSK,-169.252440,-175.300197
None,02:BD:18:AA:F6:44,WPA+AES-CCM WPA+PSK,-169.149069,-159.432680
Lab,02:BD:18:AA:F6:45,WPA+AES-CCM WPA+PSK,-169.149146,-174.591414
NUTS,02:BD:18:AA:F6:46,WPA+AES-CCM WPA+PSK,-169.149146,-163.011847
dlink-64F4-EXT,02:BE:F5:00:23:3D,WPA+AES-CCM WPA+PSK,-149.728330,-151.666019
sdw-9d761db8,02:C0:CA:64:6E:1F,WPA+AES-CCM WPA+PSK,,
print server 2826BC,02:EB:52:14:0E:16,None,-169.252506,-73.577362
BELL288-V,02:F2:01:F8:DD:7F,WPA+AES-CCM WPA+PSK,-169.137344,-73.547047
Billard1,02:F2:01:FB:34:6F,WPA+AES-CCM WPA+PSK,-169.138817,-127.230737
jovaco,04:18:D6:04:C7:FB,WPA+AES-CCM WPA+PSK WPA+TKIP,-169.144947,-145.140942
Apple Store,04:62:73:05:CF:30,None,-97.668041,-73.575549
None,04:62:73:05:CF:31,WPA+AES-CCM WPA+PSK,-97.668018,-73.575500
None,04:62:73:05:CF:33,WPA+AES-CCM,-169.250806,-73.575500
None,04:62:73:05:CF:39,WPA+AES-CCM WPA+PSK,45.497490,-73.575645
None,04:62:73:06:F1:61,WPA+AES-CCM WPA+PSK,45.497558,-73.575500
None,04:62:73:06:F1:63,WPA+AES-CCM,45.497558,-73.575500
None,04:62:73:06:F1:69,WPA+AES-CCM WPA+PSK,45.497558,-73.575500
carrytel30,04:8D:38:D1:E7:30,WPA+AES-CCM WPA+PSK WPA+TKIP,-169.149469,-165.568591
J7COMM-MERAKI,04:A1:51:15:DB:63,WPA+AES-CCM WPA+PSK,-169.251747,-73.577467
SHED-2.4GHZ,04:A1:51:17:4A:84,WPA+AES-CCM WPA+PSK,-169.249953,-73.574442
NETGEAR04,04:A1:51:2E:5B:BB,WPA+AES-CCM WPA+PSK,45.603340,-73.531128
NETGEAR10,04:A1:51:A1:86:C5,WPA+AES-CCM WPA+PSK,-169.147720,-145.115363
GOODFELLAS_2.4,04:A1:51:E2:EF:5E,WPA+AES-CCM WPA+PSK,-138.463071,-134.894315
Starbucks WiFi,04:BD:88:C4:7A:40,None,-156.618636,-174.633727
None,04:BD:88:C4:7A:41,WPA+AES-CCM,-138.572572,-134.932391
robert a,04:BF:6D:55:74:C0,WPA+AES-CCM WPA+PSK,-138.467701,-134.888334
VIDEOTRON2744,04:BF:6D:55:B1:58,WPA+AES-CCM WPA+PSK WPA+TKIP,-169.251925,-145.160272
VIDEOTRON4171,04:BF:6D:55:C7:A4,WPA+AES-CCM WPA+PSK,-169.137115,-73.547535
VIDEOTRON4486,04:BF:6D:55:CC:90,WPA+AES-CCM WPA+PSK WPA+TKIP,-179.910716,-179.515836
VIDEOTRON5123,04:BF:6D:55:D6:84,WPA+AES-CCM WPA+PSK,-178.481803,-166.927063
VIDEOTRON5126,04:BF:6D:55:D6:90,WPA+AES-CCM WPA+PSK WPA+TKIP,-149.629283,-151.625415
VIDEOTRON6278,04:BF:6D:55:E8:90,WPA+AES-CCM WPA+PSK,-145.286856,-168.976260
VIDEOTRON1950,04:BF:6D:56:17:00,WPA+AES-CCM WPA+PSK,-149.620897,-151.621416
VIDEOTRON5293,04:BF:6D:56:4B:3C,WPA+AES-CCM WPA+PSK,-126.196321,-159.430982
VIDEOTRON5390,04:BF:6D:56:4C:C0,WPA+AES-CCM WPA+PSK WPA+TKIP,-97.560927,-73.530472
VIDEOTRON8874,04:BF:6D:56:83:30,WPA+AES-CCM WPA+PSK,-179.375640,-175.794734
VIDEOTRON9053,04:BF:6D:56:85:FC,WPA+AES-CCM WPA+PSK WPA+TKIP,-152.623283,-172.649426
VIDEOTRON9092,04:BF:6D:56:86:98,WPA+AES-CCM WPA+PSK WPA+TKIP,45.610455,-73.545677
VIDEOTRON1193,04:BF:6D:56:A3:94,WPA+AES-CCM WPA+PSK,-169.148241,-73.532883
VIDEOTRON1756,04:BF:6D:56:AC:60,WPA+AES-CCM WPA+PSK,45.499298,-73.573547
VIDEOTRON4933,04:BF:6D:56:DE:04,WPA+AES-CCM WPA+PSK WPA+TKIP,-178.723625,-177.790211
VIDEOTRON1102,04:BF:6D:57:13:B0,WPA+AES-CCM WPA+PSK WPA+TKIP,,
VIDEOTRON1907,04:BF:6D:57:20:44,WPA+AES-CCM WPA+PSK,-169.146325,-73.535715
VIDEOTRON1494,04:BF:6D:57:7D:D0,WPA+AES-CCM WPA+PSK,-138.467782,-134.888378
VIDEOTRON1997,04:BF:6D:57:85:AC,WPA+AES-CCM WPA+PSK WPA+TKIP,-177.098393,-179.607532
VIDEOTRON5530,04:BF:6D:57:BC:E0,WPA+AES-CCM WPA+PSK WPA+TKIP,-169.138030,-159.444749
VIDEOTRON0032,04:BF:6D:58:38:F8,WPA+AES-CCM WPA+PSK,-97.557594,-73.539993
VIDEOTRON5581,04:BF:6D:58:8F:AC,WPA+AES-CCM WPA+PSK WPA+TKIP,-169.140045,-127.227828
VIDEOTRON0528,04:BF:6D:58:98:38,WPA+AES-CCM WPA+PSK,45.605900,-73.534607
VIDEOTRON0124,04:BF:6D:58:B4:E8,WPA+AES-CCM WPA+PSK,-169.142244,-73.535240
VIDEOTRON0395,04:BF:6D:58:B9:24,WPA+AES-CCM WPA+PSK WPA+TKIP,-169.140188,-159.439769
VIDEOTRON3672,04:BF:6D:58:EC:58,WPA+AES-CCM WPA+PSK,45.496097,-73.576981
VIDEOTRON0390,04:BF:6D:58:FF:10,WPA+AES-CCM WPA+PSK,-169.141354,-154.068419
VIDEOTRON3655,04:BF:6D:59:32:14,WPA+AES-CCM WPA+PSK WPA+TKIP,-152.622468,-172.651902
VIDEOTRON3006,04:BF:6D:59:46:DC,WPA+AES-CCM WPA+PSK WPA+TKIP,-169.250379,-73.575111
VIDEOTRON5143,04:BF:6D:59:68:40,WPA+AES-CCM WPA+PSK WPA+TKIP,-169.252413,-73.577282
VIDEOTRON0674,04:BF:6D:59:A6:00,WPA+AES-CCM WPA+PSK,-97.667715,-73.575012
VIDEOTRON0849,04:BF:6D:59:A8:BC,WPA+AES-CCM WPA+PSK WPA+TKIP,45.609264,-73.542915
VIDEOTRON1006,04:BF:6D:59:AB:30,WPA+AES-CCM WPA+PSK WPA+TKIP,-126.200688,-159.433436
VIDEOTRON2321,04:BF:6D:59:BF:BC,WPA+AES-CCM WPA+PSK,-169.146223,-159.435486
VIDEOTRON5597,04:BF:6D:59:F2:EC,WPA+AES-CCM WPA+PSK WPA+TKIP,-179.370901,-175.820093
VIDEOTRON5896,04:BF:6D:59:F7:98,WPA+AES-CCM WPA+PSK,-126.302043,-159.475808
VIDEOTRON6373,04:BF:6D:59:FF:0C,WPA+AES-CCM WPA+PSK,45.496620,-73.576515
VIDEOTRON6641,04:BF:6D:5A:03:3C,WPA+AES-CCM WPA+PSK,-97.561107,-73.558800
Limoche1,04:BF:6D:5A:1E:48,WPA+AES-CCM WPA+PSK,-97.667672,-73.575043
VIDEOTRON1209,04:BF:6D:5A:4A:9C,WPA+AES-CCM WPA+PSK WPA+TKIP,-176.547581,-177.206186
VIDEOTRON1221,04:BF:6D:5A:4A:CC,WPA+AES-CCM WPA+PSK,-97.563419,-73.531743
VIDEOTRON2230,04:BF:6D:5A:74:E0,WPA+AES-CCM WPA+PSK WPA+TKIP,-97.562894,-73.531474
VIDEOTRON0993,04:BF:6D:5A:98:8C,WPA+AES-CCM WPA+PSK,-152.620393,-172.656664
VIDEOTRON2394,04:BF:6D:5A:AE:70,WPA+AES-CCM WPA+PSK,-177.732289,-176.614143
VIDEOTRON0494,04:BF:6D:5A:F4:C8,WPA+AES-CCM WPA+PSK WPA+TKIP,-177.733677,-176.609938
SHABRI1546 ,04:BF:6D:5B:05:38,WPA+AES-CCM WPA+PSK,-169.250676,-169.018987
VIDEOTRON1582,04:BF:6D:5B:05:C8,WPA+AES-CCM WPA+PSK,45.497837,-73.574997
VIDEOTRON1611,04:BF:6D:5B:06:3C,WPA+AES-CCM WPA+PSK,-169.145170,-73.531196
ti lou 2.4,04:BF:6D:5B:41:58,WPA+AES-CCM WPA+PSK,-169.145800,-159.436779
VIDEOTRON6578,04:BF:6D:5B:53:D8,WPA+AES-CCM WPA+PSK WPA+TKIP,45.498047,-73.575096
adamsilk,04:BF:6D:5B:77:D0,WPA+AES-CCM WPA+PSK,-138.467245,-134.894611
VIDEOTRON9034,04:BF:6D:5B:7A:38,WPA+AES-CCM WPA+PSK WPA+TKIP,45.611401,-73.547844
VIDEOTRON9893,04:BF:6D:5B:87:A4,WPA+AES-CCM WPA+PSK,-169.149740,-73.533745
Ultimu Rectu,04:BF:6D:5B:B8:D0,WPA+AES-CCM WPA+PSK,-169.149456,-145.116355
VIDEOTRON4286,04:BF:6D:5B:DA:08,WPA+AES-CCM WPA+PSK,45.496620,-73.576515
VIDEOTRON9249,04:BF:6D:5B:FF:E4,WPA+AES-CCM WPA+PSK,-126.300746,-159.474410
VIDEOTRON4961,04:BF:6D:5C:59:24,WPA+AES-CCM WPA+PSK,-145.276443,-168.990689
G4B01g88,04:BF:6D:5C:59:50,WPA+AES-CCM WPA+PSK,45.600986,-73.532387
VIDEOTRON1113,04:BF:6D:5C:70:74,WPA+AES-CCM WPA+PSK WPA+TKIP,45.497711,-73.575165
VIDEOTRON3707,04:BF:6D:5C:98:FC,WPA+AES-CCM WPA+PSK WPA+TKIP,-169.144981,-73.539345
VIDEOTRON1347,04:BF:6D:5D:21:3C,WPA+AES-CCM WPA+PSK,-149.623620,-151.626583
None,06:18:0A:22:5A:1E,None,-169.249304,-145.156540
None,06:18:0A:79:F9:AA,WPA+AES-CCM WPA+PSK WPA+TKIP,-154.933081,-159.473518
Bofiq,06:18:0A:D4:2F:E0,WPA+AES-CCM WPA+PSK WPA+TKIP,-169.250917,-73.575729
Bofiq,06:18:0A:D4:D0:80,WPA+AES-CCM WPA+PSK WPA+TKIP,-176.656094,-177.247384
Extreme Guest,06:25:BC:88:5D:2B,WPA+AES-CCM WPA+PSK WPA+TKIP,45.609543,-73.543625
dstaff,06:27:22:FF:15:57,WPA+AES-CCM WPA+PSK WPA+TKIP,-169.248852,-165.608727
BELL112-V,06:64:D9:2F:0B:5C,WPA+AES-CCM WPA+PSK,-177.735661,-176.616807
BELL561-V,06:8A:AE:68:B1:CE,WPA+AES-CCM WPA+PSK,-138.468829,-134.888956
Il Panino (FREE/GRATUIT),06:A1:51:15:DB:64,None,-179.303971,-179.580943
OfficeGuest,06:A4:23:91:01:2E,WPA+AES-CCM WPA+PSK,-174.757326,-172.690261
BELL322-V,06:E9:DD:47:57:C2,WEP,45.599789,-73.533073
BELL261-V,06:E9:DD:4B:98:86,WPA+AES-CCM WPA+PSK,-169.146254,-145.118804
None,08:05:81:01:C3:27,WPA+AES-CCM WPA+PSK,-169.145730,-73.531498
None,08:05:81:01:DE:3F,WPA+AES-CCM WPA+PSK,-169.143570,-145.113625
None,08:05:81:03:2C:93,WPA+AES-CCM WPA+PSK,-169.144803,-73.531006
DenRoy,08:10:74:DA:B4:34,WPA+PSK WPA+TKIP,-169.144881,-73.558197
HP-Print-FC-LaserJet 1102,08:3E:8E:01:92:FC,None,-169.140382,-73.539993
ronsco,08:5B:0E:5F:FB:78,WPA+AES-CCM WPA+PSK,-169.252443,-73.577400
ronsco,08:5B:0E:5F:FB:88,WPA+AES-CCM WPA+PSK,-169.252532,-73.577347
MAC_WiFi,08:5B:0E:68:1A:7E,None,-178.587604,-176.281055
MAC_WiFi,08:5B:0E:68:57:4E,None,-179.476821,-175.836431
TDLTablet,08:5B:0E:E0:85:8A,WPA+AES-CCM WPA+PSK,,
TDLTablet,08:5B:0E:E0:88:1A,WPA+AES-CCM WPA+PSK,-169.248025,-73.574493
ASUS,08:60:6E:C0:E2:18,WPA+AES-CCM WPA+PSK WPA+TKIP,-149.620977,-151.621157
Basica,08:86:3B:06:60:12,WPA+AES-CCM WPA+PSK,45.596504,-73.535103
AirCard-CCF0,08:BD:43:30:CC:F0,WPA+AES-CCM WPA+PSK,-169.151243,-73.534428
None,08:BD:43:BE:07:74,WPA+AES-CCM WPA+PSK,,
piairTest,08:D0:9F:8F:C8:90,WPA+AES-CCM WPA+PSK,45.496471,-73.576790
VER-V,0A:18:0A:7F:DB:50,WPA+AES-CCM WPA+PSK,-154.933349,-159.473774
STATION,0A:18:0A:D4:2F:E0,WPA+AES-CCM WPA+PSK WPA+TKIP,-169.250911,-73.575710
STATION,0A:18:0A:D4:D0:80,WPA+AES-CCM WPA+PSK WPA+TKIP,-177.840861,-176.654929
jovacoguest,0A:18:D6:04:C7:FB,WPA+AES-CCM WPA+PSK,45.603443,-73.558144
YouvilleCC,0A:18:D6:A9:6B:00,WPA+AES-CCM WPA+PSK WPA+TKIP,-169.249559,-167.526526
WIFIConference,0A:18:D6:C7:35:27,WPA+AES-CCM WPA+PSK,45.605453,-73.553307
Deville Guest,0A:27:22:FF:15:57,WPA+AES-CCM WPA+PSK WPA+TKIP,-145.387610,-169.017707
spyware.guests,0A:86:3B:8C:2B:7B,WPA+AES-CCM WPA+PSK WPA+TKIP,45.612617,-73.550621
costarica3,0A:A6:C6:7E:42:CE,WPA+AES-CCM WPA+PSK,-126.194992,-159.458277
PLUS!,0C:51:01:E8:B1:0A,WPA+AES-CCM WPA+PSK,45.497436,-73.575752
ConcordiaUniversity,0C:68:03:AE:1E:20,WPA+AES-CCM,-173.821323,-174.098041
eduroam,0C:68:03:AE:1E:21,WPA+AES-CCM,-179.478513,-175.838615
ConcordiaGuest,0C:68:03:AE:1E:22,None,-169.252127,-165.612498
None,0C:68:03:E4:C1:F0,WPA+AES-CCM WPA+PSK,-174.754394,-172.689123
None,0C:68:03:E4:E0:60,WPA+AES-CCM WPA+PSK,-178.121925,-176.511726
piairTest,0C:85:25:33:BC:50,WPA+AES-CCM WPA+PSK,-145.290897,-168.978756
piair01,0C:85:25:33:BC:51,WPA+AES-CCM,-169.151842,-159.434423
piair04,0C:85:25:33:BC:52,WPA+AES-CCM WPA+PSK,45.596508,-73.535103
piair05,0C:85:25:33:BC:53,WPA+AES-CCM WPA+PSK,-145.290918,-168.978807
SLI-Net,0C:85:25:AB:85:60,WPA+AES-CCM,-126.298352,-159.473839
SLI-Visitors,0C:85:25:AB:85:61,WPA+AES-CCM WPA+PSK,-177.837960,-176.653709
SLI-Mobile,0C:85:25:AB:85:63,WPA+AES-CCM WPA+PSK,-138.569687,-134.931169
SUMMER-13ee84,0C:C8:1F:13:EE:84,None,-138.468341,-134.888679
Ver-I,0E:18:0A:7F:DB:50,WPA+AES-CCM WPA+PSK,-169.249970,-159.473861
WIFI PERICENTRE,0E:18:0A:D4:2F:E0,WPA+AES-CCM WPA+PSK WPA+TKIP,-169.250930,-73.575737
WIFI PERICENTRE,0E:18:0A:D4:D0:80,WPA+AES-CCM WPA+PSK WPA+TKIP,-177.204609,-169.019481
WIFIDirection,0E:18:D6:C7:35:27,WPA+AES-CCM WPA+PSK,45.605450,-73.554321
ConcordiaUniversity,10:05:CA:BA:29:60,WPA+AES-CCM,-176.657405,-177.249068
eduroam,10:05:CA:BA:29:61,WPA+AES-CCM,-169.252224,-145.160260
ConcordiaGuest,10:05:CA:BA:29:62,None,-169.251777,-159.476761
Ernest20WiFi,10:0D:7F:5D:3D:C0,WPA+AES-CCM WPA+PSK,-157.946861,-163.994411
River,10:0D:7F:63:AA:9A,WPA+AES-CCM WPA+PSK,45.601158,-73.532318
None,10:BF:48:E5:BF:68,WPA+AES-CCM WPA+PSK,-176.960696,-178.956742
Action Refugies Montreal 2G,10:C3:7B:41:FA:78,WPA+AES-CCM WPA+PSK,-157.949513,-163.997252
ARM Guest,10:C3:7B:41:FA:79,WPA+AES-CCM WPA+PSK,-169.252027,-159.476214
ASCQ-2.4Ghz,10:FE:ED:88:7F:52,WPA+AES-CCM WPA+PSK WPA+TKIP,-169.251888,-73.576771
Network-10feeda8352a,10:FE:ED:A8:35:2A,WPA+AES-CCM WPA+PSK WPA+TKIP,-169.151880,-73.535118
8024,10:FE:ED:B1:05:40,WPA+AES-CCM WPA+PSK,-179.889268,-177.330130
TP-LINK_CDB1D4,10:FE:ED:CD:B1:D4,WPA+AES-CCM WPA+PSK,-97.563709,-73.535164
None,12:18:0A:81:A7:02,WPA+AES-CCM WPA+PSK WPA+TKIP,45.498135,-73.574883
GAV Internal,12:18:0A:D4:2F:E0,WPA+AES-CCM WPA+PSK WPA+TKIP,-169.250921,-73.575733
GAV Internal,12:18:0A:D4:D0:80,WPA+AES-CCM WPA+PSK WPA+TKIP,-169.250889,-159.475018
WIFIPublic,12:18:D6:C7:34:0C,WPA+AES-CCM WPA+PSK,-156.510659,-174.611870
WIFIPublic,12:18:D6:C7:35:27,WPA+AES-CCM WPA+PSK,45.605457,-73.554970
HP-Print-c4-LaserJet 200,14:2D:27:29:1B:C4,None,,
HP-Print-BB-LaserJet Pro MFP,14:2D:27:53:C8:BB,None,-169.250931,-169.019476
Canelle,14:91:82:34:0B:33,WPA+AES-CCM WPA+PSK WPA+TKIP,45.606884,-73.558533
Chez,14:91:82:36:83:EE,WPA+AES-CCM WPA+PSK WPA+TKIP,-169.146277,-165.570938
PL,14:91:82:37:23:6E,WPA+AES-CCM WPA+PSK,-169.147236,-127.219415
Linksys00349,14:91:82:B8:D6:66,WPA+AES-CCM WPA+PSK,-145.391284,-169.020778
Linksys07779,14:91:82:C4:2C:6F,WPA+AES-CCM WPA+PSK,45.604435,-73.541908
wlnsam,14:91:82:C4:57:C3,WPA+AES-CCM WPA+PSK WPA+TKIP,-169.249206,-127.260790
None,14:CC:20:47:BB:08,WPA+AES-CCM WPA+PSK WPA+TKIP,-179.475417,-175.834941
TPLINK2,14:CC:20:FB:F4:AA,WPA+AES-CCM WPA+PSK WPA+TKIP,-178.767299,-178.238018
Chez-guest,16:91:82:34:83:EE,None,-149.623707,-151.626195
Aro-360D Concordia,16:CC:20:69:F9:AA,WPA+AES-CCM WPA+PSK,,
Aloosh,18:1E:78:01:58:1E,WPA+AES-CCM WPA+PSK,45.496139,-73.577042
BELL964,18:1E:78:01:8E:86,WPA+AES-CCM WPA+PSK,-169.149499,-159.432938
MR. Gao,18:1E:78:01:E9:A6,WPA+AES-CCM WPA+PSK,,
wolverine77,18:1E:78:02:BC:F6,WPA+PSK WPA+TKIP,45.605072,-73.558708
maclcm01,18:1E:78:02:DE:DE,WPA+AES-CCM WPA+PSK WPA+TKIP,,
BELL181,18:1E:78:03:81:F6,WPA+AES-CCM WPA+PSK,-169.138814,-159.442999
BELL224,18:1E:78:04:C3:5E,WPA+AES-CCM WPA+PSK,-169.137338,-127.234151
BELL319,18:1E:78:07:E7:36,WPA+AES-CCM WPA+PSK,-169.251569,-171.189228
BELL655,18:1E:78:08:0C:56,WPA+AES-CCM WPA+PSK,-126.193478,-159.431510
BELL654,18:1E:78:08:82:2E,WPA+AES-CCM WPA+PSK,-179.878540,-170.175145
SML Montreal,18:1E:78:0A:A7:7E,WPA+AES-CCM WPA+PSK,-177.201669,-178.562583
BELL024,18:1E:78:0A:AC:46,WPA+AES-CCM WPA+PSK,45.497589,-73.575409
BELL479,18:1E:78:0B:89:0E,WPA+AES-CCM WPA+PSK,,
None,18:33:9D:3E:85:B2,WPA+AES-CCM,45.497665,-73.575249
BELL999,18:62:2C:D6:6E:02,WPA+AES-CCM WPA+PSK,45.602577,-73.537460
BELL397,18:62:2C:D7:ED:EA,WPA+AES-CCM WPA+PSK,45.601868,-73.535164
BELL129,18:62:2C:D8:B3:2A,WPA+AES-CCM WPA+PSK,45.604382,-73.558685
Altima-12948,18:62:2C:DA:0E:EA,WPA+AES-CCM WPA+PSK WPA+TKIP,45.602081,-73.535828
SHAMMAH,18:62:2C:DA:D5:D2,WPA+AES-CCM WPA+PSK,45.604534,-73.530487
BELL518,18:62:2C:DE:29:0A,WPA+AES-CCM WPA+PSK,45.599789,-73.533073
maison ,18:62:2C:DF:FD:CF,WPA+AES-CCM WPA+PSK,-126.195481,-159.438300
BELL484,18:62:2C:E1:05:DB,WPA+AES-CCM WPA+PSK,45.604412,-73.558701
TransatTelecom975,18:62:2C:E1:15:AB,WPA+AES-CCM WPA+PSK,-169.143279,-154.062393
BMOguest,18:64:72:BC:44:00,None,-179.725125,-178.329465
Bdevice,18:64:72:BC:44:01,WPA+AES-CCM WPA+PSK,-145.388564,-169.017825
Bmobile,18:64:72:BC:44:02,WPA+AES-CCM,-126.299912,-159.473513
BravoTelecom_14557,18:A6:F7:3A:03:AC,WPA+AES-CCM WPA+PSK,-97.566482,-73.533468
TP-LINK_12B4,18:A6:F7:3A:12:B4,WPA+AES-CCM WPA+PSK,-175.387697,-177.883769
YafusHome,18:A6:F7:45:8E:C4,WPA+AES-CCM WPA+PSK,,
BravoTelecom_12263,18:A6:F7:9B:63:FA,WPA+AES-CCM WPA+PSK,-169.148942,-73.533279
CSDM,18:B1:69:1C:CF:36,WPA+AES-CCM WPA+PSK WPA+TKIP,-97.568855,-73.534917
HP-Print-52-LaserJet M1217,18:F4:6A:44:EE:52,None,45.497471,-73.575706
None,1A:18:0A:04:8E:34,WPA+AES-CCM WPA+PSK WPA+TKIP,45.497448,-73.575729
REOL3,1C:1D:86:9E:FD:D0,WPA+AES-CCM,-173.819536,-174.095539
REOL4,1C:1D:86:9E:FD:D1,WEP,-179.476449,-175.836085
M Club,1C:5F:2B:45:CE:F0,WPA+AES-CCM WPA+PSK WPA+TKIP,45.498157,-73.574860
SPI69,1C:7E:E5:2E:D0:96,WPA+PSK WPA+TKIP,-169.139242,-73.542603
VIDEOTRON4201,1C:7E:E5:35:80:22,WPA+AES-CCM WPA+PSK,45.600235,-73.532822
jsegura,1C:7E:E5:37:91:9E,WPA+AES-CCM WPA+PSK WPA+TKIP,-169.138204,-73.544983
Ludozzplace,1C:7E:E5:37:95:64,WPA+AES-CCM WPA+PSK WPA+TKIP,-126.189951,-159.441134
Tabarnac69,1C:7E:E5:37:A1:C6,WPA+PSK WPA+TKIP,-126.191882,-159.436677
nirvana,1C:7E:E5:37:DD:12,WEP,-169.139161,-127.229877
VIDEOTRON3676,1C:7E:E5:3A:F0:00,WPA+AES-CCM WPA+PSK,-169.143303,-73.531643
VIDEOTRON1311,1C:7E:E5:3B:05:F9,WPA+AES-CCM WPA+PSK,-169.150156,-145.116758
dlink,1C:7E:E5:45:5A:3B,WPA+PSK WPA+TKIP,-138.467846,-134.893025
VIDEOTRON9840,1C:7E:E5:F6:DA:EC,WPA+AES-CCM WPA+PSK,-169.150056,-73.533928
VIDEOTRON2894,1C:7E:E5:F7:A4:2E,WPA+AES-CCM WPA+PSK,-169.144798,-73.558994
VIDEOTRON5276,1C:7E:E5:F8:94:D3,WPA+AES-CCM WPA+PSK,-97.555607,-73.544517
VIDEOTRON4485,1C:7E:E5:F8:B2:7F,WPA+AES-CCM WPA+PSK,45.609264,-73.542915
OCCNetworkV,1C:7E:E5:F9:0D:F6,WPA+AES-CCM WPA+PSK,-169.249233,-73.573666
VIDEOTRON2547,1C:7E:E5:F9:3E:83,WPA+AES-CCM WPA+PSK,45.602589,-73.531517
VIDEOTRON8544,1C:7E:E5:F9:51:6A,WPA+AES-CCM WPA+PSK,-126.198897,-159.432384
VIDEOTRON2492,1C:7E:E5:F9:74:2F,WPA+AES-CCM WPA+PSK,-169.145730,-73.531498
VIDEOTRON3190,1C:7E:E5:F9:9B:C8,WPA+AES-CCM WPA+PSK,-97.560328,-73.558716
VIDEOTRON9975,1C:7E:E5:F9:9D:3F,WPA+AES-CCM WPA+PSK,-97.558586,-73.537710
VIDEOTRON5023,1C:7E:E5:F9:AC:E1,WPA+AES-CCM WPA+PSK,45.605480,-73.558228
VIDEOTRON2238,1C:7E:E5:F9:D8:19,WPA+AES-CCM WPA+PSK,-169.144805,-73.558979
VIDEOTRON2110,1C:7E:E5:FA:6E:25,WPA+AES-CCM WPA+PSK,45.596447,-73.535255
VIDEOTRON0327,1C:7E:E5:FA:C0:ED,WPA+AES-CCM WPA+PSK,-126.189749,-159.441521
REOL6,1C:87:2C:6B:BF:C0,WPA+AES-CCM WPA+PSK,-169.250324,-169.018644
Mon Reseau,1C:AF:F7:D6:39:7D,WPA+AES-CCM WPA+PSK WPA+TKIP,-157.836385,-163.963722
dou,1C:AF:F7:DE:CB:1F,WEP,-176.549951,-177.202644
weirdos,1C:B7:2C:7A:E1:84,WPA+AES-CCM WPA+PSK,45.603889,-73.530800
None,1C:E6:C7:04:EA:80,WPA+AES-CCM WPA+PSK,-169.251331,-73.576061
SEclient,1C:E6:C7:04:EA:81,None,45.496540,-73.576683
None,1C:E6:C7:04:EA:82,WPA+AES-CCM,-169.251607,-73.576407
None,1C:E6:C7:04:EA:85,WPA+AES-CCM,-169.251932,-73.576796
None,1C:E6:C7:04:EA:86,WPA+AES-CCM WPA+PSK,-169.251884,-73.576752
None,1C:E6:C7:04:EA:87,WPA+AES-CCM WPA+PSK,-97.669151,-73.576818
mohtou,20:0C:C8:15:1D:64,WPA+AES-CCM WPA+PSK,45.612598,-73.550636
ConcordiaUniversity,20:3A:07:49:E5:A0,WPA+AES-CCM,-126.302295,-159.476819
eduroam,20:3A:07:49:E5:A1,WPA+AES-CCM,-169.252063,-145.160294
ConcordiaGuest,20:3A:07:49:E5:A2,None,-169.252263,-73.577517
eduroam,20:3A:07:84:15:42,WPA+AES-CCM,45.496029,-73.577042
None,20:4E:7F:C6:49:7E,WPA+AES-CCM WPA+PSK,45.498791,-73.574219
helloworld,20:AA:4B:3B:14:31,WPA+AES-CCM WPA+PSK,-169.145826,-73.537373
Cisco41778,20:AA:4B:3D:4F:80,WPA+AES-CCM WPA+PSK,-149.627842,-151.624427
Airoldi 2.4,20:AA:4B:74:55:6A,WPA+AES-CCM WPA+PSK,-97.667693,-73.575035
None,20:AA:4B:75:84:40,WPA+AES-CCM WPA+PSK WPA+TKIP,45.495796,-73.577469
Scorpion Scribe,20:AA:4B:D9:6A:56,WPA+AES-CCM WPA+PSK WPA+TKIP,-169.141718,-159.436238
Scorpion Scribe-visiteur,20:AA:4B:D9:6A:57,None,-169.141718,-159.436238
Cisco65696,20:AA:4B:DE:51:74,WPA+AES-CCM WPA+PSK,-169.137327,-127.234192
Ismael Daniel,20:AA:4B:E1:0F:0E,WPA+AES-CCM WPA+PSK WPA+TKIP,45.612823,-73.551163
61A,20:AA:4B:F0:57:36,None,-178.479361,-166.903365
LaLancee,20:C9:D0:1C:3E:15,WPA+AES-CCM WPA+PSK WPA+TKIP,-169.149669,-127.220781
LaLancee,20:C9:D0:1C:C3:9F,WPA+AES-CCM WPA+PSK WPA+TKIP,-169.149313,-73.533485
LaLancee,20:C9:D0:1F:18:39,WPA+AES-CCM WPA+PSK WPA+TKIP,-145.289096,-168.977599
LaLancee,20:C9:D0:1F:DC:55,WPA+AES-CCM WPA+PSK WPA+TKIP,-152.630787,-172.648445
eMVy2,20:C9:D0:21:6F:89,WPA+AES-CCM WPA+PSK WPA+TKIP,-169.138741,-73.543806
Rene Wi-Fi Network,20:C9:D0:23:AD:ED,WPA+AES-CCM WPA+PSK,-169.147294,-73.532345
upperground,20:C9:D0:A3:B6:1C,WPA+AES-CCM WPA+PSK,-145.388346,-169.017474
CSSS,20:D9:E7:0B:1C:75,WPA+AES-CCM WPA+PSK,-179.472957,-179.410931
WiFiSam,20:E5:2A:65:AD:60,WPA+AES-CCM WPA+PSK,45.610508,-73.545784
K1500-ZELB1001,22:34:37:E8:32:01,None,-169.151863,-73.535107
CDDL_Guest,22:4E:7F:C6:49:7F,WPA+AES-CCM WPA+PSK,45.498791,-73.574219
STCATHYS,24:A4:3C:04:91:FE,WPA+AES-CCM WPA+PSK,45.495945,-73.577240
STCATHYS,24:A4:3C:04:BB:A6,WPA+AES-CCM WPA+PSK,-154.935885,-159.476710
Anton and James,24:A4:3C:B2:21:57,WPA+AES-CCM WPA+PSK,-169.248607,-159.473292
ConcordiaUniversity,24:B6:57:42:38:B0,WPA+AES-CCM WPA+TKIP,-169.251009,-159.476867
None,24:B6:57:42:38:B1,WEP,-126.301715,-159.476874
eduroam,24:B6:57:42:38:B2,WPA+AES-CCM,-169.251113,-73.577509
ConcordiaGuest,24:B6:57:42:38:B3,None,-169.251193,-73.577564
ConcordiaUniversity,24:B6:57:43:02:60,WPA+AES-CCM WPA+TKIP,-176.179705,-170.560593
None,24:B6:57:43:02:61,WEP,-169.251996,-73.577416
eduroam,24:B6:57:43:02:62,WPA+AES-CCM,45.497017,-73.577316
ConcordiaGuest,24:B6:57:43:02:63,None,-169.252624,-73.577473
Loews Lobby,24:C9:A1:1A:67:08,None,-169.250417,-73.575062
Resident,26:D9:E7:0B:1C:75,WPA+AES-CCM WPA+PSK,-179.918987,-179.413671
SHEENA,28:16:2E:72:0C:B9,WPA+AES-CCM WPA+PSK WPA+TKIP,45.499352,-73.573547
BELL359,28:16:2E:7D:44:D9,WEP,45.607208,-73.558395
BELL686,28:16:2E:96:7E:F9,WEP,-169.143590,-73.530735
None,28:34:A2:E9:A0:A0,WPA+AES-CCM WPA+PSK,-154.835063,-159.433594
HP-Print-6A-ENVY 4500 series,28:80:23:EF:A7:6A,None,-169.250417,-73.575062
HP-Print-65-Deskjet 3520 series,28:92:4A:5B:EA:65,None,45.604622,-73.530472
HP-Print-71-Deskjet 3520 series,28:92:4A:63:46:71,WPA+AES-CCM WPA+PSK,-138.467272,-134.894537
HP-Print-FC-Officejet Pro 8600,28:92:4A:C2:CA:FC,WPA+AES-CCM WPA+PSK,45.497444,-73.575760
None,28:93:FE:4E:BC:61,WEP,,
ConcordiaGuest,28:93:FE:4E:BC:63,None,,
ConcordiaUniversity,28:93:FE:4F:18:A0,WPA+AES-CCM WPA+TKIP,,
None,28:93:FE:4F:18:A1,WEP,,
eduroam,28:93:FE:4F:18:A2,WPA+AES-CCM,,
ConcordiaGuest,28:93:FE:4F:18:A3,None,,
RCTM Mac Mini,28:CF:E9:01:8E:FB,WPA+AES-CCM WPA+PSK,-176.657525,-177.248736
None,2A:5B:0E:68:1A:7E,WPA+AES-CCM,-179.476779,-175.836393
None,2A:5B:0E:68:57:4E,WPA+AES-CCM,-177.204424,-169.019148
STCMAC,2A:A4:3C:04:BB:A6,WPA+AES-CCM WPA+PSK,-169.252452,-165.612329
YouvilleCC,2A:A4:3C:63:26:AF,WPA+AES-CCM WPA+PSK WPA+TKIP,-169.249775,-169.017991
IQ724,2A:A4:3C:63:EA:BD,WPA+AES-CCM WPA+PSK WPA+TKIP,-174.755808,-178.194969
IQ724,2A:A4:3C:63:EB:11,WPA+AES-CCM WPA+PSK WPA+TKIP,-169.249713,-159.473616
Telemedic,2A:D9:E7:0B:1C:75,WPA+AES-CCM WPA+PSK,-179.548514,-179.654357
WhiteHaven2,2C:30:33:49:34:75,WPA+AES-CCM WPA+PSK,-176.176994,-170.557303
MarjoPascal_EXT,2C:30:33:9E:D3:8C,WEP,-138.462978,-134.894520
BELL919,2C:39:96:3E:D7:72,WPA+AES-CCM WPA+PSK,-149.623191,-151.627814
Draxxus,2C:39:96:3F:CA:4A,WPA+AES-CCM WPA+PSK,-97.562699,-73.538183
BELL465,2C:39:96:40:BE:32,WPA+AES-CCM WPA+PSK,-169.146212,-165.571216
BELL482,2C:39:96:43:58:12,WPA+AES-CCM WPA+PSK,-174.132541,-173.427483
None,2C:39:96:46:3F:FA,WPA+AES-CCM WPA+PSK WPA+TKIP,,
BELL378,2C:39:96:47:AA:CA,WPA+AES-CCM WPA+PSK,-152.619804,-172.658036
BELL019,2C:39:96:47:D0:02,WPA+AES-CCM WPA+PSK,-178.091548,-171.957050
None,2C:3F:38:2A:B4:91,WEP,,
ConcordiaUniversity,2C:3F:38:2A:B7:20,WPA+AES-CCM WPA+TKIP,,
None,2C:3F:38:2A:B7:21,WEP,,
eduroam,2C:3F:38:2A:B7:22,WPA+AES-CCM,,
ConcordiaGuest,2C:3F:38:2A:B7:23,None,,
None,2C:3F:38:2A:CA:C1,WEP,,
eduroam,2C:3F:38:2A:CA:C2,WPA+AES-CCM,,
ConcordiaUniversity,2C:3F:38:2A:CE:70,WPA+AES-CCM WPA+TKIP,,
None,2C:3F:38:2A:CE:71,WEP,,
eduroam,2C:3F:38:2A:CE:72,WPA+AES-CCM,,
ConcordiaGuest,2C:3F:38:2A:CE:73,None,,
ConcordiaUniversity,2C:3F:38:2A:D3:10,WPA+AES-CCM WPA+TKIP,-138.573544,-134.934196
None,2C:3F:38:2A:D3:11,WEP,-169.251889,-73.577555
eduroam,2C:3F:38:2A:D3:12,WPA+AES-CCM,-169.251623,-73.577515
ConcordiaGuest,2C:3F:38:2A:D3:13,None,-169.251346,-73.577551
ConcordiaUniversity,2C:3F:38:2A:FD:D0,WPA+AES-CCM WPA+TKIP,,
None,2C:3F:38:2A:FD:D1,WEP,,
eduroam,2C:3F:38:2A:FD:D2,WPA+AES-CCM,,
eduroam,2C:3F:38:30:0A:D2,WPA+AES-CCM,45.495903,-73.577446
ConcordiaUniversity,2C:3F:38:30:21:C0,WPA+AES-CCM WPA+TKIP,,
None,2C:3F:38:30:21:C1,WEP,,
eduroam,2C:3F:38:30:21:C2,WPA+AES-CCM,,
ConcordiaGuest,2C:3F:38:30:21:C3,None,,
ConcordiaUniversity,2C:3F:38:30:42:C0,WPA+AES-CCM WPA+TKIP,-169.250836,-159.476917
None,2C:3F:38:30:42:C1,WEP,-169.250854,-73.577560
eduroam,2C:3F:38:30:42:C2,WPA+AES-CCM,-169.250854,-73.577560
ConcordiaGuest,2C:3F:38:30:42:C3,None,-97.668036,-73.577578
HP-Print-41-Deskjet 2540 series,2C:44:FD:C3:DB:41,WPA+AES-CCM WPA+PSK,-169.138632,-159.443372
None,2C:54:2D:30:A7:10,WPA+AES-CCM WPA+PSK WPA+TKIP,-169.250932,-73.575760
None,2C:54:2D:30:A7:11,WPA+AES-CCM WPA+PSK WPA+TKIP,-97.668143,-73.575760
None,2C:54:2D:30:A7:12,WPA+AES-CCM WPA+PSK WPA+TKIP,-169.250929,-127.262851
None,2C:54:2D:30:A7:13,None,-169.250928,-145.158548
steve2.4G,2C:56:DC:55:C0:68,WPA+AES-CCM WPA+PSK,-169.151864,-73.535126
ASUS,2C:56:DC:55:DD:08,WPA+AES-CCM WPA+PSK,,
HP-Print-E7-Deskjet 2540 series,2C:59:E5:CA:3A:E7,WPA+AES-CCM WPA+PSK,45.604889,-73.531082
NURU,2C:B0:5D:2E:16:0D,WPA+AES-CCM WPA+PSK,-178.387982,-178.663932
BELL616,2C:E4:12:7E:42:CF,WPA+AES-CCM WPA+PSK,-97.557028,-73.541308
DANLES,2C:E4:12:82:28:AD,WPA+AES-CCM WPA+PSK,45.605453,-73.554214
BELL658,2C:E4:12:87:AB:97,WPA+AES-CCM WPA+PSK,-169.137977,-73.545502
BELL128,2C:E4:12:8F:28:B5,WPA+AES-CCM WPA+PSK,-169.144340,-145.113507
BELL831,2C:E4:12:92:8B:45,WPA+AES-CCM WPA+PSK,-169.144940,-171.171178
BELL789,2C:E4:12:94:70:AD,WPA+AES-CCM WPA+PSK,-169.140550,-73.539627
BELL005,2C:E4:12:A2:9E:CF,WPA+AES-CCM WPA+PSK,-169.143856,-73.530495
BELL091,2C:E4:12:A7:1A:03,WPA+AES-CCM WPA+PSK,-126.199754,-159.432880
None,2C:E4:12:A7:52:7B,WPA+AES-CCM WPA+PSK,-97.565143,-73.532707
Sheraton,2C:E6:CC:6A:76:58,None,-157.947493,-163.995007
None,2C:E6:CC:A6:2C:A8,WPA+AES-CCM WPA+PSK WPA+TKIP,45.498573,-73.574173
None,2C:E6:CC:A6:4D:88,WPA+AES-CCM WPA+PSK WPA+TKIP,-169.249818,-73.574203
None,2C:E6:CC:A6:79:88,WPA+AES-CCM WPA+PSK WPA+TKIP,45.498547,-73.574203
None,2C:E6:CC:A6:7B:A8,WPA+AES-CCM WPA+PSK WPA+TKIP,45.498547,-73.574203
None,2C:E6:CC:AA:87:E8,WPA+AES-CCM WPA+PSK WPA+TKIP,45.498722,-73.574203
None,2C:E6:CC:AA:93:C8,WPA+AES-CCM WPA+PSK WPA+TKIP,-169.249818,-73.574203
None,2C:E6:CC:AA:97:08,WPA+AES-CCM WPA+PSK WPA+TKIP,45.498573,-73.574173
None,2C:E6:CC:AA:A9:58,WPA+AES-CCM WPA+PSK WPA+TKIP,45.498524,-73.574234
None,2C:E6:CC:E6:2C:A8,WPA+AES-CCM WPA+PSK,45.498573,-73.574173
None,2C:E6:CC:E6:53:98,WPA+AES-CCM WPA+PSK,45.498547,-73.574203
None,2C:E6:CC:E6:73:68,WPA+AES-CCM WPA+PSK,45.498524,-73.574234
None,2C:E6:CC:EA:93:C8,WPA+AES-CCM WPA+PSK,45.498547,-73.574203
HP015F05,2E:2A:1D:5E:15:09,None,-169.151140,-145.117276
WhiteHaven-Guest,2E:30:33:49:34:76,WPA+AES-CCM WPA+PSK,-175.756992,-177.694498
NETGEAR28-arlo_246972,2E:30:33:49:34:77,WPA+AES-CCM WPA+PSK,-179.204673,-178.814931
Draxxus2,2E:39:96:3F:CA:4A,WPA+AES-CCM WPA+PSK,-169.145481,-73.538200
IQ-Visiteur,2E:A4:3C:63:EA:BD,WPA+AES-CCM WPA+PSK WPA+TKIP,-172.889292,-175.488499
IQ-Visiteur,2E:A4:3C:63:EB:11,WPA+AES-CCM WPA+PSK WPA+TKIP,-169.249606,-127.261203
BELL784V,2E:E4:12:8E:B5:05,WPA+PSK WPA+TKIP,45.603573,-73.558990
iPhone de Cheikh,2E:F0:A2:60:22:3B,WPA+AES-CCM WPA+PSK,,
CUSP,30:46:9A:96:9A:3E,WPA+AES-CCM WPA+PSK,-169.251676,-154.108080
ASUS2G,30:85:A9:39:A2:F8,WPA+AES-CCM WPA+PSK,-149.619699,-151.625453
HP-Print-C1-ENVY 4500 series,30:8D:99:2A:57:C1,None,-169.144931,-73.539459
HP-Print-9A-Officejet 4630,30:8D:99:84:76:9A,WPA+AES-CCM WPA+PSK,-97.569098,-73.535159
DIRECT-7E-HP ENVY 5540 series,30:8D:99:D6:98:7F,WPA+AES-CCM WPA+PSK,-126.188760,-159.443769
TNCAP4D1C84,30:91:8F:4D:1C:84,WPA+AES-CCM WPA+PSK,45.605465,-73.558266
TNCAP52F49A,30:91:8F:52:F4:9A,WPA+AES-CCM WPA+PSK,-154.827780,-159.430074
TNCAP593BCC,30:91:8F:59:3B:CC,WPA+AES-CCM WPA+PSK,-169.146228,-145.118901
TNCAP8DA68F,30:91:8F:8D:A6:8F,WEP,-169.248973,-127.260669
TNCAP8DBC17,30:91:8F:8D:BC:17,WPA+AES-CCM WPA+PSK WPA+TKIP,-169.144890,-145.141449
TNCAPCF7483,30:91:8F:CF:74:83,WPA+AES-CCM WPA+PSK,-169.143615,-73.558838
medardson_optout,30:B5:C2:38:05:74,WPA+AES-CCM WPA+PSK WPA+TKIP,45.612625,-73.550621
brava1,30:B5:C2:9A:62:8E,WPA+AES-CCM WPA+PSK,45.603638,-73.559021
double011,30:B5:C2:A6:1C:FC,WPA+AES-CCM WPA+PSK,-169.144919,-174.589118
maison,30:B5:C2:E2:A7:32,WPA+AES-CCM WPA+PSK,-169.141114,-159.437755
KEY WEST,30:B5:C2:EA:1E:AC,WPA+AES-CCM WPA+PSK,-97.668134,-73.575727
DIG,32:A4:3C:63:EA:BD,WPA+AES-CCM WPA+PSK WPA+TKIP,-175.565529,-174.631993
DIG,32:A4:3C:63:EB:11,WPA+AES-CCM WPA+PSK WPA+TKIP,-169.249621,-159.473540
*omeg@3_EXT,32:B0:5D:80:F0:AA,WPA+AES-CCM WPA+PSK,45.606396,-73.536224
DIRECT-HKC460 Series,32:CD:A7:29:D7:8A,WPA+AES-CCM WPA+PSK,-97.668940,-73.576487
DIRECT-rGM288x Series,32:CD:A7:C0:E0:78,WPA+AES-CCM WPA+PSK,45.497066,-73.577370
Dieudonne03,34:36:3B:BC:A4:E6,WPA+AES-CCM WPA+PSK,-169.149519,-127.220694
HP-Print-76-Officejet Pro 8610,34:64:A9:63:87:76,None,-138.464967,-134.888331
HP-Print-33-Officejet Pro 8610,34:64:A9:66:15:33,None,-169.147720,-73.532520
HP-Print-F9-ENVY 4500 series,34:64:A9:85:4D:F9,WPA+AES-CCM WPA+PSK,-169.151792,-171.147988
HP-Print-A8-Color LaserJet Pro,34:68:95:A4:24:A8,None,-157.949875,-163.997591
None,34:6F:90:34:A0:50,WPA+AES-CCM,-169.250462,-159.474367
None,34:6F:90:34:A0:51,WPA+AES-CCM WPA+PSK,-152.731439,-172.689763
BELL453,34:8A:AE:5E:C6:62,WPA+AES-CCM WPA+PSK,,
BELL520,34:8A:AE:5F:5B:6A,WPA+AES-CCM WPA+PSK,,
BELL641,34:8A:AE:63:B8:F2,WPA+AES-CCM WPA+PSK,-97.554764,-73.546463
BELL879,34:8A:AE:66:94:86,WPA+AES-CCM WPA+PSK,-169.143140,-73.532196
BELL686,34:8A:AE:66:9C:FE,WPA+AES-CCM WPA+PSK,-173.915757,-178.518922
BELL016,34:8A:AE:66:E8:EA,WPA+AES-CCM WPA+PSK,-97.559627,-73.534721
BELL758,34:8A:AE:66:FA:2A,WPA+AES-CCM WPA+PSK,-169.149869,-145.116595
BELL572,34:8A:AE:67:79:4A,WPA+AES-CCM WPA+PSK,-169.138204,-73.544983
BELL873,34:8A:AE:68:8A:BE,WPA+AES-CCM WPA+PSK,-97.554962,-73.546020
BELL294,34:8A:AE:68:8C:EE,WPA+AES-CCM WPA+PSK,45.596870,-73.534134
BELL561.2.4,34:8A:AE:68:B1:CE,WPA+AES-CCM WPA+PSK WPA+TKIP,-169.147169,-73.532280
BELL360,34:8A:AE:68:C6:DE,WPA+AES-CCM WPA+PSK,-138.460465,-134.900370
BELL961,34:8A:AE:68:D1:06,WPA+AES-CCM WPA+PSK,-169.138839,-73.543587
BELL644,34:8A:AE:69:04:E6,WPA+AES-CCM WPA+PSK,-97.565770,-73.533048
BELL968,34:8A:AE:69:28:9E,WPA+AES-CCM WPA+PSK,-145.286668,-168.976219
BELL297,34:8A:AE:69:57:36,WPA+AES-CCM WPA+PSK,-169.151899,-73.535183
BELL272,34:8A:AE:69:58:FE,WPA+AES-CCM WPA+PSK,-169.151881,-165.570154
BELL609,34:8A:AE:6A:B9:F6,WPA+AES-CCM WPA+PSK,-169.145959,-172.651580
BELL517,34:8A:AE:6B:79:56,WPA+AES-CCM WPA+PSK,-126.191446,-159.437754
MetroBU,34:8A:AE:FB:BE:AE,WPA+AES-CCM WPA+PSK,,
BELL631,34:8A:AE:FC:1F:C6,WPA+AES-CCM WPA+PSK,,
BELL735,34:8A:AE:FC:CA:DE,WPA+AES-CCM WPA+PSK,45.499454,-73.573616
Big1,34:97:F6:61:77:E8,WPA+AES-CCM WPA+PSK,-169.145662,-154.062101
xcomglobalB6C4,34:BA:9A:3C:B6:C4,WPA+AES-CCM WPA+PSK WPA+TKIP,,
None,34:BD:C8:E2:9D:40,WPA+AES-CCM WPA+PSK,-169.249953,-127.261581
None,34:BD:C8:E2:9D:41,WPA+AES-CCM WPA+TKIP,-126.300267,-159.473804
None,34:BD:C8:E2:9D:42,WPA+AES-CCM,-138.571654,-134.931232
None,34:BD:C8:E2:9D:43,WPA+AES-CCM WPA+PSK WPA+TKIP,-145.389002,-169.018159
None,34:BD:C8:E2:9D:44,WPA+AES-CCM,-169.249966,-73.574514
None,34:BD:C8:E2:9D:45,WPA+AES-CCM WPA+PSK,-169.249920,-73.574425
None,34:BD:C8:E2:9D:46,WPA+AES-CCM,-169.249949,-73.574469
None,34:BD:C8:E2:9D:47,WPA+AES-CCM,-169.249953,-145.157270
None,34:BD:C8:E2:9D:48,WPA+AES-CCM,-169.249940,-145.157264
BELL843,34:EF:44:1F:1E:01,WEP,-149.726777,-151.664123
cordonnerie,34:EF:44:23:6B:D9,WPA+AES-CCM WPA+PSK,45.500340,-73.574493
BELL-903v,34:EF:44:5D:04:59,WPA+PSK WPA+TKIP,-97.558078,-73.538963
DIG-Visiteur,36:A4:3C:63:EA:BD,WPA+AES-CCM WPA+PSK WPA+TKIP,-169.249376,-169.017674
None,38:20:56:D4:00:A0,WPA+AES-CCM,45.499020,-73.573921
Bureau 2.4GHZ,38:2C:4A:5C:96:F8,WPA+AES-CCM WPA+PSK,-169.250884,-159.475018
Mikes Crescent 2.4GHZ,38:2C:4A:5C:96:F9,WPA+AES-CCM WPA+PSK,-149.728288,-151.665947
ASUS451268,38:2C:4A:99:2A:68,WPA+AES-CCM WPA+PSK,-126.192962,-159.433259
HP-Print-D0-Officejet Pro 8610,38:63:BB:78:54:D0,WPA+AES-CCM WPA+PSK,-169.143591,-163.009265
None,3A:5B:0E:68:1A:7E,WPA+AES-CCM,-178.587626,-166.944207
None,3A:5B:0E:68:57:4E,WPA+AES-CCM,-169.250738,-165.610361
Tiger. Wi-Fi Network,3C:15:C2:F3:09:0C,WPA+AES-CCM WPA+PSK,45.500340,-73.574493
R\303\251seau Wi-Fi de Michel,3C:15:C2:F3:9A:1C,WPA+AES-CCM WPA+PSK,-156.508922,-174.596267
bosondehiggs,3C:1E:04:11:07:C8,WPA+AES-CCM WPA+PSK WPA+TKIP,-126.199041,-159.432448
HP-Print-64-Deskjet 2540 series,3C:A8:2A:99:FD:64,WPA+AES-CCM WPA+PSK,-97.563392,-73.536372
None,3C:CE:73:C4:3E:01,WEP,,
eduroam,3C:CE:73:C4:3E:02,WPA+AES-CCM,,
ConcordiaGuest,3C:CE:73:C4:3E:03,None,,
BELL538,3C:EA:4F:1C:5B:31,WEP,-173.361875,-174.592593
BELL505,3C:EA:4F:D7:D4:A9,WEP,-169.249395,-73.574091
Mei Restaurant,40:16:9F:D0:C5:CA,WPA+AES-CCM WPA+PSK,45.496097,-73.576981
ophelispho,40:3C:FC:03:79:41,WPA+AES-CCM WPA+PSK,-97.569093,-73.535154
BELL313,40:65:A3:5F:CD:D6,WPA+AES-CCM WPA+PSK WPA+TKIP,-138.573397,-134.933188
BELL667,40:65:A3:60:3B:EE,WPA+AES-CCM WPA+PSK,-138.466522,-134.914965
BELL904,40:65:A3:60:3C:6E,WPA+AES-CCM WPA+PSK,-169.248025,-154.105130
BELL917,40:65:A3:60:A2:2E,WPA+AES-CCM WPA+PSK,,
BELL988,40:65:A3:61:D3:C6,WPA+AES-CCM WPA+PSK,,
Empire_State,40:65:A3:61:D5:9E,WPA+AES-CCM WPA+PSK,-126.199981,-159.433027
BELL557,40:65:A3:62:2C:EE,WPA+AES-CCM WPA+PSK,-169.250458,-159.474401
Pow!,40:65:A3:62:6B:26,WPA+AES-CCM WPA+PSK,-179.990810,-179.992448
centre de service,40:65:A3:62:84:06,WPA+AES-CCM WPA+PSK,-169.143597,-73.530766
lintervalle STC,40:65:A3:62:C7:2E,WPA+AES-CCM WPA+PSK,45.497471,-73.575706
FT,40:65:A3:63:B5:56,WPA+PSK WPA+TKIP,-97.669057,-73.576642
BELL135,40:65:A3:64:0F:1E,WPA+AES-CCM WPA+PSK,-169.250962,-172.690420
BELL437,40:65:A3:65:4F:DE,WPA+AES-CCM WPA+PSK,-169.146094,-159.431034
BELL472,40:65:A3:65:53:F6,WPA+AES-CCM WPA+PSK,-169.143216,-145.114719
BBRI,40:65:A3:66:7F:D6,WPA+AES-CCM WPA+PSK WPA+TKIP,-173.633295,-178.758148
SEO EXPERT,40:65:A3:66:82:5E,WPA+AES-CCM WPA+PSK WPA+TKIP,-97.666295,-73.573636
amusement,40:65:A3:67:10:36,WPA+AES-CCM WPA+PSK,-169.250891,-169.019402
BELL606,40:65:A3:A8:D1:C6,WPA+AES-CCM WPA+PSK,-138.463323,-134.893731
BELL444,40:65:A3:A9:66:4E,WPA+AES-CCM WPA+PSK,-169.143584,-154.061426
BELL112,40:65:A3:A9:D6:F6,WPA+AES-CCM WPA+PSK,45.607437,-73.558334
BELL619,40:65:A3:A9:E7:E6,WPA+AES-CCM WPA+PSK,-154.829620,-159.435702
BELL423,40:65:A3:AD:99:56,WPA+AES-CCM WPA+PSK,-169.148265,-73.532896
BELL688,40:65:A3:AE:71:0E,WPA+AES-CCM WPA+PSK,-175.217482,-174.986403
BELL209,40:65:A3:AE:B9:26,WPA+AES-CCM WPA+PSK,-97.561724,-73.558825
BELL501,40:65:A3:AF:6A:7E,WPA+AES-CCM WPA+PSK,-126.195832,-159.437481
BELL580,40:65:A3:B0:42:3E,WPA+AES-CCM WPA+PSK,-126.195847,-159.430736
BELL005,40:65:A3:B0:43:06,WPA+AES-CCM WPA+PSK,-154.830518,-159.431585
None,40:65:A3:B0:B0:D6,WPA+AES-CCM WPA+PSK,-169.138070,-73.545326
AGADIR,40:65:A3:B0:DC:FE,WPA+AES-CCM WPA+PSK,-169.138419,-73.544458
BELL664,40:65:A3:B0:F8:36,WPA+PSK WPA+TKIP,-97.567013,-73.533760
BELL804,40:65:A3:B1:D3:16,WPA+AES-CCM WPA+PSK,45.603546,-73.558983
BELL063,40:C7:29:4F:D9:66,WPA+AES-CCM WPA+PSK,45.497471,-73.575706
extasieinc,40:C7:29:50:42:46,WPA+AES-CCM WPA+PSK,-169.143622,-159.430103
BELL955,40:C7:29:50:88:4E,WPA+AES-CCM WPA+PSK,45.500340,-73.574493
BELL132,40:C7:29:51:AD:26,WPA+AES-CCM WPA+PSK,-138.573405,-134.933217
BELL087,40:C7:29:EC:05:DE,WPA+AES-CCM WPA+PSK,-169.146329,-73.531818
BELL439,40:C7:29:EC:43:F6,WPA+AES-CCM WPA+PSK,45.603561,-73.531006
BELL160,40:C7:29:EE:16:F6,WPA+AES-CCM WPA+PSK,-179.369694,-175.791933
BELL930,40:C7:29:EE:41:26,WPA+AES-CCM WPA+PSK,-179.099170,-178.861073
BELL830,40:C7:29:EE:52:E6,WPA+AES-CCM WPA+PSK,-169.142452,-73.534630
BELL794,40:C7:29:EE:64:1E,WPA+AES-CCM WPA+PSK,-169.145685,-73.531479
BELL527,40:C7:29:EF:5D:7E,WPA+AES-CCM WPA+PSK,-169.144947,-163.036670
BELL595,40:C7:29:F2:D3:46,WPA+AES-CCM WPA+PSK,-169.138891,-73.543472
BELL507,40:C7:29:F2:F5:CE,WPA+AES-CCM WPA+PSK,,
BELL471,40:C7:29:F4:3F:A6,WPA+AES-CCM WPA+PSK,-126.189595,-159.441886
BELL759,40:C7:29:F8:77:76,WPA+AES-CCM WPA+PSK,-169.138796,-171.156601
BELL270,40:C7:29:FD:A7:16,WPA+AES-CCM WPA+PSK,-169.149249,-73.533447
BELL062,40:C7:29:FD:FC:86,WPA+AES-CCM WPA+PSK,-97.560803,-73.530779
BELL972,40:C7:29:FE:42:36,WPA+AES-CCM WPA+PSK,-177.091029,-168.990654
BELL657,40:C7:29:FE:CA:06,WPA+AES-CCM WPA+PSK,-169.137334,-73.547073
Mame,40:F2:01:E4:36:06,WPA+AES-CCM WPA+PSK,,
BELL759,40:F2:01:E4:47:6E,WPA+AES-CCM WPA+PSK,45.603569,-73.558990
BELL952,40:F2:01:E4:D0:1E,WPA+AES-CCM WPA+PSK,-138.459012,-134.903700
BELL760,40:F2:01:E4:F6:C9,WPA+AES-CCM WPA+PSK,-179.363426,-175.808227
BELL470,40:F2:01:E4:F9:69,WPA+AES-CCM WPA+PSK,-169.143650,-127.217737
BELL145,40:F2:01:E5:4F:41,WPA+AES-CCM WPA+PSK,-169.252186,-73.576904
Bemoth,40:F2:01:E8:DF:6F,WPA+AES-CCM WPA+PSK WPA+TKIP,-169.148728,-73.533157
BELL474,40:F2:01:E9:2B:DF,WPA+PSK WPA+TKIP,-145.288667,-168.977377
BELL715,40:F2:01:EA:80:2F,WPA+AES-CCM WPA+PSK,-149.623690,-151.626279
BELL487,40:F2:01:EB:E4:13,WPA+AES-CCM WPA+PSK,-169.144397,-127.217843
BELL194,40:F2:01:EC:21:13,WPA+AES-CCM WPA+PSK,-169.139992,-127.227952
Fred So,40:F2:01:EC:9D:23,WPA+AES-CCM WPA+PSK,-169.151318,-168.978483
BELL359,40:F2:01:EC:AA:93,WPA+AES-CCM WPA+PSK,-169.146218,-73.536167
BELL680,40:F2:01:ED:9A:D3,WPA+AES-CCM WPA+PSK,45.605015,-73.531494
BELL032,40:F2:01:ED:FD:6B,WPA+AES-CCM WPA+PSK,-169.151863,-159.434498
BELL180,40:F2:01:EE:99:83,WPA+AES-CCM WPA+PSK,-169.151839,-171.148000
BELL336,40:F2:01:EE:CC:A3,WPA+AES-CCM WPA+PSK,-156.505176,-174.604860
BELL648,40:F2:01:F1:3E:97,WPA+AES-CCM WPA+PSK,-152.630200,-172.648110
BELL001,40:F2:01:F2:50:F7,WPA+AES-CCM WPA+PSK,-149.617049,-151.632070
BELL552,40:F2:01:F2:B3:5F,WPA+AES-CCM WPA+PSK,-97.556835,-73.541740
BELL643,40:F2:01:F3:96:3F,WPA+AES-CCM WPA+PSK,-169.138829,-154.074256
BELL643,40:F2:01:F5:09:4F,WPA+AES-CCM WPA+PSK,-169.138846,-127.230676
BELL647,40:F2:01:F6:17:1F,WPA+AES-CCM WPA+PSK,-178.046513,-177.732301
welcome home,40:F2:01:F6:2E:D7,WPA+AES-CCM WPA+PSK,-97.560814,-73.530777
BELL685,40:F2:01:F7:78:57,WPA+AES-CCM WPA+PSK,45.496170,-73.577080
BELL484,40:F2:01:F7:FE:5F,WPA+AES-CCM WPA+PSK,,
BELL288,40:F2:01:F8:DD:7F,WPA+AES-CCM WPA+PSK,-97.554551,-73.547058
BELL693,40:F2:01:F9:D4:57,WPA+AES-CCM WPA+PSK,-169.149190,-73.533409
BELL223,40:F2:01:FA:27:B7,WPA+AES-CCM WPA+PSK,-126.189306,-159.442566
BELL689,40:F2:01:FB:99:27,WPA+AES-CCM WPA+PSK,-126.189011,-159.443273
BELL664,40:F2:01:FB:BF:C7,WPA+AES-CCM WPA+PSK,-169.145300,-159.437967
BELL663,40:F2:01:FB:EC:FF,WPA+AES-CCM WPA+PSK,45.603573,-73.558990
BELL628,40:F2:01:FB:F2:17,WPA+AES-CCM WPA+PSK,-169.150430,-73.534126
BELL038,40:F2:01:FB:F5:17,WPA+AES-CCM WPA+PSK,-169.147984,-145.115503
DIRECT-BF-HP Designjet Cand Mfg,42:A8:F0:88:91:BF,WPA+AES-CCM WPA+PSK,45.496155,-73.577072
HP-Print-EC-Officejet Pro 8600,44:1E:A1:E8:1B:EC,WPA+AES-CCM WPA+PSK,45.613895,-73.554146
SEclient,44:AD:D9:87:95:D1,None,45.497761,-73.575089
Wifi-Decision 1,44:D9:E7:FD:7B:4D,None,45.495872,-73.577469
BELL123,44:E9:DD:3E:84:5E,WPA+AES-CCM WPA+PSK,-169.252111,-73.576969
BELL238,44:E9:DD:3F:73:6E,WPA+AES-CCM WPA+PSK,-169.141012,-145.121426
BELL004,44:E9:DD:40:BD:66,WPA+AES-CCM WPA+PSK,-169.144794,-73.558990
BELL232,44:E9:DD:40:E5:2E,WPA+AES-CCM WPA+PSK,-169.137280,-73.547192
BELL679,44:E9:DD:41:1C:4E,WPA+AES-CCM WPA+PSK,-169.138691,-165.578922
BELL711,44:E9:DD:41:AF:B6,WPA+AES-CCM WPA+PSK,-169.145342,-145.114081
BELL077,44:E9:DD:42:48:EE,WPA+AES-CCM WPA+PSK,-169.134510,-73.554165
BELL634,44:E9:DD:43:48:86,WPA+AES-CCM WPA+PSK,45.605785,-73.534088
BELL406,44:E9:DD:43:6D:E6,WPA+AES-CCM WPA+PSK,-178.488763,-166.903988
BELL306,44:E9:DD:43:82:4E,WPA+AES-CCM WPA+PSK,-169.145624,-145.114231
BELL704,44:E9:DD:43:FB:40,WPA+AES-CCM WPA+PSK,-169.138347,-73.544632
BELL288,44:E9:DD:44:24:58,WPA+AES-CCM WPA+PSK,-169.148587,-154.063653
BELL258,44:E9:DD:45:7E:9A,WPA+AES-CCM WPA+PSK,45.596485,-73.535118
BELL098,44:E9:DD:45:9E:DA,WPA+AES-CCM WPA+PSK,-169.146387,-73.535522
Salim,44:E9:DD:45:B9:CA,WPA+AES-CCM WPA+PSK,-169.137220,-73.547310
BELL280,44:E9:DD:46:3E:CA,WPA+AES-CCM WPA+PSK,-152.629266,-172.647571
BELL814,44:E9:DD:46:7F:F2,WPA+AES-CCM WPA+PSK,-152.620481,-172.656481
BELL513,44:E9:DD:48:A0:82,WPA+AES-CCM WPA+PSK,-177.101466,-168.976635
BELL458,44:E9:DD:49:35:4A,WPA+AES-CCM WPA+PSK,-97.561955,-73.558935
BELL439,44:E9:DD:49:85:B2,WPA+AES-CCM WPA+PSK,-169.143811,-73.558722
BELL818,44:E9:DD:4A:00:D2,WPA+AES-CCM WPA+PSK,-169.144733,-73.558998
BELL340,44:E9:DD:4B:66:06,WPA+AES-CCM WPA+PSK,-169.144462,-73.540594
BELL185,44:E9:DD:4B:77:2E,WPA+AES-CCM WPA+PSK,45.607185,-73.538200
BELL261,44:E9:DD:4B:98:86,WPA+AES-CCM WPA+PSK,-169.146258,-145.118781
BELL287,44:E9:DD:4B:B6:56,WPA+AES-CCM WPA+PSK,-169.141544,-73.537329
BELL838,44:E9:DD:4C:37:BA,WPA+AES-CCM WPA+PSK,-156.513296,-174.596064
BELL536,44:E9:DD:4D:D6:72,WPA+AES-CCM WPA+PSK,-126.300621,-159.474361
bellstheo,44:E9:DD:4F:3C:DA,WPA+AES-CCM WPA+PSK,-169.138064,-127.232389
BELL061,44:E9:DD:4F:42:82,WPA+AES-CCM WPA+PSK,-169.141081,-165.573493
BELL411,44:E9:DD:4F:73:52,WPA+AES-CCM WPA+PSK,45.604027,-73.530716
BELL092,44:E9:DD:50:18:AA,WPA+AES-CCM WPA+PSK,-149.621065,-151.620972
BELL095,44:E9:DD:50:6E:E2,WPA+AES-CCM WPA+PSK,-169.144756,-159.458022
DIRECT-4405FFDA,46:D2:44:05:7F:DA,WPA+AES-CCM WPA+PSK,45.605251,-73.532303
AHT_GUEST,46:D9:E7:FA:40:8C,WPA+AES-CCM WPA+PSK,45.499103,-73.573700
D\303\251cision 1  Guest,46:D9:E7:FD:7B:4D,None,-97.668982,-73.576576
HP-Print-D5-Officejet Pro 8610,48:0F:CF:FA:B9:D5,WPA+AES-CCM WPA+PSK,45.601868,-73.535164
jh2,48:EE:0C:29:90:74,WPA+AES-CCM WPA+PSK WPA+TKIP,-178.479959,-166.901310
dlink-6680,48:EE:0C:2F:66:80,WPA+AES-CCM WPA+PSK WPA+TKIP,45.601360,-73.532204
TAG-Office,48:EE:0C:76:E1:E4,WPA+AES-CCM WPA+PSK WPA+TKIP,-145.389663,-169.018963
None,48:EE:0C:76:E1:EC,WPA+AES-CCM WPA+PSK WPA+TKIP,45.497475,-73.575683
helloworld,48:EE:0C:7C:BF:44,WPA+AES-CCM WPA+PSK WPA+TKIP,-97.562904,-73.537666
BlueHorse,48:F8:B3:16:21:B4,WPA+AES-CCM WPA+PSK WPA+TKIP,-169.143770,-145.113374
BlueHorse-guest,48:F8:B3:16:21:B6,None,-169.143817,-127.217587
Saint Conrad,48:F8:B3:47:BD:A6,WPA+AES-CCM WPA+PSK WPA+TKIP,-169.137277,-159.446511
Saint Conrad-visiteur,48:F8:B3:47:BD:A7,None,-152.618219,-172.661688
Cisco66785,48:F8:B3:53:D5:83,None,-169.252121,-73.576933
Cham,48:F8:B3:70:88:07,WPA+AES-CCM WPA+PSK WPA+TKIP,-169.249081,-145.156500
Maison3540,48:F8:B3:72:6F:B2,WPA+AES-CCM WPA+PSK,-172.778595,-175.458181
v8,48:F8:B3:73:B1:A0,WPA+AES-CCM WPA+PSK,-169.136991,-73.547787
Linksys07708,48:F8:B3:77:97:EA,WPA+AES-CCM WPA+PSK,-174.138939,-173.441778
onyxdm1,48:F8:B3:85:DA:11,WPA+AES-CCM WPA+PSK WPA+TKIP,45.602589,-73.531517
PirateFairies,48:F8:B3:91:19:EC,WPA+AES-CCM WPA+PSK,-169.141975,-73.536179
Linksys07653,48:F8:B3:BC:E8:6C,WPA+AES-CCM WPA+PSK WPA+TKIP,-169.140514,-145.122499
Linksysvitalit\303\251,48:F8:B3:D1:2F:70,WPA+AES-CCM WPA+PSK,-169.250563,-169.018852
zhongcheng1,48:F8:B3:F6:83:6A,WPA+AES-CCM WPA+PSK WPA+TKIP,-175.386319,-171.745896
None,4A:5B:0E:68:1A:7E,WPA+AES-CCM,-169.250718,-163.053801
None,4A:5B:0E:68:57:4E,WPA+AES-CCM,-179.476813,-175.836426
Interpaul-C,4A:D9:E7:BD:6C:B6,WPA+AES-CCM WPA+PSK,-138.573932,-134.933680
None,4A:F8:B3:77:97:EC,WPA+AES-CCM WPA+PSK,45.603569,-73.558990
None,4A:F8:B3:91:19:EE,WPA+AES-CCM WPA+PSK,-169.141969,-73.536224
Linksys07653-invit\303\251,4A:F8:B3:BC:E8:6D,None,-169.140514,-145.122499
Nutrivitalit\303\251-invit\303\251,4A:F8:B3:D1:2F:71,None,-157.947934,-163.995439
Carole,4C:17:EB:D9:F0:7B,WPA+AES-CCM WPA+PSK WPA+TKIP,45.613407,-73.552635
BELL210,4C:17:EB:DA:0B:BB,WPA+AES-CCM WPA+PSK,45.605392,-73.558235
Altima-12479,4C:17:EB:DB:F9:43,WPA+AES-CCM WPA+PSK WPA+TKIP,-126.199213,-159.432566
BELL741,4C:17:EB:DC:67:23,WPA+AES-CCM WPA+PSK,45.606831,-73.537384
BELL445,4C:17:EB:DC:78:3B,WPA+AES-CCM WPA+PSK,-145.287312,-168.976563
VIDEOTRON2100,4C:9E:FF:F7:ED:14,WPA+AES-CCM WPA+PSK,-97.567498,-73.534045
VIDEOTRON3020,4C:9E:FF:F7:FB:74,WPA+AES-CCM WPA+PSK WPA+TKIP,-145.287293,-168.976526
VIDEOTRON3325,4C:9E:FF:F8:00:38,WPA+AES-CCM WPA+PSK WPA+TKIP,-169.146661,-73.531994
damien521,4C:9E:FF:F8:4C:D8,WPA+AES-CCM WPA+PSK,-169.250927,-127.262828
VIDEOTRON3137,4C:9E:FF:F8:64:90,WPA+AES-CCM WPA+PSK WPA+TKIP,-177.841494,-176.655576
VIDEOTRON0875,4C:9E:FF:F8:94:3C,WPA+AES-CCM WPA+PSK,-156.506454,-174.601923
VIDEOTRON2021,4C:9E:FF:F8:A6:24,WPA+AES-CCM WPA+PSK,-177.203992,-169.018673
VIDEOTRON3046,4C:9E:FF:F8:B6:28,WPA+AES-CCM WPA+PSK,-169.146182,-73.536373
VIDEOTRON4005,4C:9E:FF:F8:C5:24,WPA+AES-CCM WPA+PSK WPA+TKIP,45.601868,-73.535164
VIDEOTRON5586,4C:9E:FF:F8:DD:D8,WPA+AES-CCM WPA+PSK WPA+TKIP,-169.148511,-165.568036
VIDEOTRON1173,4C:9E:FF:F9:1C:B8,WPA+AES-CCM WPA+PSK WPA+TKIP,-138.461277,-134.898455
VIDEOTRON4840,4C:9E:FF:F9:56:04,WPA+AES-CCM WPA+PSK WPA+TKIP,-169.139193,-145.125496
VIDEOTRON3321,4C:9E:FF:F9:BB:48,WPA+AES-CCM WPA+PSK WPA+TKIP,-126.192432,-159.435058
VIDEOTRON7132,4C:9E:FF:F9:F6:D4,WPA+AES-CCM WPA+PSK WPA+TKIP,-169.138070,-73.545326
VIDEOTRON7378,4C:9E:FF:F9:FA:AC,WPA+AES-CCM WPA+PSK WPA+TKIP,-97.559791,-73.534088
layt2.4,50:46:5D:5D:05:F8,WPA+AES-CCM WPA+PSK,-145.388155,-169.017333
Layt G,50:46:5D:5D:05:F9,WPA+AES-CCM WPA+PSK,-169.249087,-145.156416
NETGEAR68,50:6A:03:C6:5B:19,WPA+AES-CCM WPA+PSK,45.604278,-73.544266
ConcordiaUniversity,50:87:89:E3:58:90,WPA+AES-CCM,-169.252571,-73.577515
eduroam,50:87:89:E3:58:91,WPA+AES-CCM,45.496777,-73.577484
HUAWEI-E5377-4A97,50:A7:2B:A0:4A:97,WPA+AES-CCM WPA+PSK,45.499016,-73.573822
Bis_EXT,52:60:DE:E3:C4:2D,WPA+AES-CCM WPA+PSK,-169.250463,-169.018774
BELL942,54:64:D9:2E:32:FE,WPA+AES-CCM WPA+PSK,45.496250,-73.576920
BELL410,54:64:D9:2E:3B:FE,WPA+AES-CCM WPA+PSK,45.612610,-73.550713
BELL112,54:64:D9:2F:0B:5C,WPA+AES-CCM WPA+PSK,-179.371848,-175.798702
BELL014,54:64:D9:2F:8A:3C,WPA+AES-CCM WPA+PSK,-169.146669,-127.219090
BELL066,54:64:D9:31:64:FC,WPA+AES-CCM WPA+PSK,-169.146261,-145.118771
BELL192,54:64:D9:31:96:4C,WPA+AES-CCM WPA+PSK,,
BELL908,54:64:D9:32:6F:54,WPA+AES-CCM WPA+PSK,-179.377684,-175.795867
BELL274,54:64:D9:33:12:0C,WPA+AES-CCM WPA+PSK,45.599304,-73.533348
BELL369,54:64:D9:33:79:34,WPA+AES-CCM WPA+PSK,,
BELL257,54:64:D9:34:C0:BC,WPA+AES-CCM WPA+PSK,45.496155,-73.577065
BELL583,54:64:D9:35:28:C4,WPA+AES-CCM WPA+PSK,45.496075,-73.576996
BELL913,54:64:D9:36:88:10,WPA+AES-CCM WPA+PSK,-169.252195,-73.577080
BELL644,54:64:D9:37:04:40,WPA+AES-CCM WPA+PSK,-169.139127,-73.542866
BELL528,54:64:D9:37:BA:9F,WPA+AES-CCM WPA+PSK,45.613102,-73.551872
BELL081,54:64:D9:37:E3:A7,WPA+AES-CCM WPA+PSK,,
BELL956,54:64:D9:38:22:E7,WPA+AES-CCM WPA+PSK,45.610161,-73.544983
BELL107,54:64:D9:38:52:9F,WPA+AES-CCM WPA+PSK,-169.139554,-145.124692
BELL393,54:64:D9:38:BF:DF,WPA+AES-CCM WPA+PSK,-169.137931,-127.232723
BELL487,54:64:D9:38:DA:EF,WPA+AES-CCM WPA+PSK,-145.281002,-168.980045
BELL893,54:64:D9:38:DC:27,WPA+AES-CCM WPA+PSK,,
Xhouse,54:64:D9:38:ED:FF,WPA+AES-CCM WPA+PSK,,
BELL861,54:64:D9:39:6D:37,WPA+AES-CCM WPA+PSK,-169.144420,-159.430121
BELL293,54:64:D9:39:BC:1F,WPA+AES-CCM WPA+PSK,-157.838266,-163.959427
BELL868,54:64:D9:39:BD:6F,WPA+AES-CCM WPA+PSK,-145.276476,-168.990568
BELL322,54:64:D9:39:C2:87,WPA+AES-CCM WPA+PSK,-169.144747,-168.983603
BELL053,54:64:D9:39:D7:AF,WPA+AES-CCM WPA+PSK,-138.464449,-134.890067
BELL169,54:64:D9:EA:0C:6F,WPA+AES-CCM WPA+PSK,45.602421,-73.531609
BELL879,54:64:D9:EA:98:17,WPA+AES-CCM WPA+PSK,-145.287321,-168.976604
BELL346,54:64:D9:EB:AB:1F,WPA+AES-CCM WPA+PSK,-97.562058,-73.558571
BELL563,54:64:D9:EB:D6:F7,WPA+AES-CCM WPA+PSK,-178.479385,-166.903296
BELL202,54:64:D9:EC:25:5F,WPA+AES-CCM WPA+PSK,-169.145616,-73.531439
BELL462,54:64:D9:EC:78:9F,WPA+AES-CCM WPA+PSK,45.602825,-73.538055
BELL473,54:64:D9:EC:7B:3F,WPA+AES-CCM WPA+PSK,-145.284325,-168.982441
BELL857,54:64:D9:EC:A5:F7,WPA+AES-CCM WPA+PSK,45.601978,-73.535522
BELL007,54:64:D9:EC:F9:4F,WPA+AES-CCM WPA+PSK,-97.556961,-73.541466
BELL694,54:64:D9:ED:17:DF,WPA+AES-CCM WPA+PSK,-145.289593,-168.977891
BELL724,54:64:D9:ED:C7:DF,WPA+AES-CCM WPA+PSK,-138.464911,-134.888499
BELL642,54:64:D9:EE:06:25,WPA+AES-CCM WPA+PSK,-169.137351,-145.129809
BELL399,54:64:D9:EE:1D:95,WPA+AES-CCM WPA+PSK,45.606834,-73.558548
BELL175,54:64:D9:EE:71:75,WPA+AES-CCM WPA+PSK,45.613060,-73.554886
BELL920,54:64:D9:EE:DE:CD,WPA+AES-CCM WPA+PSK,-179.370210,-175.791799
BELL108,54:64:D9:EF:6D:BD,WPA+AES-CCM WPA+PSK,-138.472148,-134.890825
BELL332,54:64:D9:F0:12:31,WPA+AES-CCM WPA+PSK,-126.195865,-159.430745
Home Network 1,54:64:D9:F0:51:C9,WPA+AES-CCM WPA+PSK,-169.138857,-145.126332
BELL534,54:64:D9:F0:ED:19,WPA+AES-CCM WPA+PSK,45.601978,-73.535522
BELL047,54:64:D9:F0:EF:41,WPA+AES-CCM WPA+PSK,-126.195307,-159.430451
ALHAMD,54:64:D9:F1:3A:19,WPA+AES-CCM WPA+PSK,-169.148306,-127.219978
BELL511,54:64:D9:F1:3A:51,WPA+AES-CCM WPA+PSK,45.610161,-73.544983
BELL360,54:64:D9:F2:E0:19,WPA+AES-CCM WPA+PSK,45.602421,-73.531609
BELL577,54:64:D9:F3:04:81,WPA+AES-CCM WPA+PSK,-97.560501,-73.531687
BELL678,54:64:D9:F4:24:F1,WPA+AES-CCM WPA+PSK,-169.145186,-73.538883
BELL086,54:64:D9:F5:72:9A,WPA+AES-CCM WPA+PSK,45.612606,-73.550598
BELL923,54:64:D9:F6:D5:70,WPA+AES-CCM WPA+PSK,45.498371,-73.574600
DGlow,54:64:D9:F6:F7:A8,WPA+AES-CCM WPA+PSK,,
Bernard,54:64:D9:F7:C4:40,WPA+AES-CCM WPA+PSK,-97.560310,-73.532356
BELL485,54:64:D9:F8:9E:A7,WPA+AES-CCM WPA+PSK,-169.138512,-175.267213
eduroam,54:78:1A:64:7A:D1,WPA+AES-CCM,45.496830,-73.577438
Trefle-bleu,54:A0:50:6D:3D:76,WPA+AES-CCM WPA+PSK,-169.149960,-168.977565
VACV,54:A2:74:40:F3:90,WPA+AES-CCM WPA+PSK,-179.989449,-170.214113
VACVWIFICORP,54:A2:74:40:F3:91,WPA+AES-CCM,-169.252179,-169.020922
dlink-74D4,54:B8:0A:09:74:D4,WPA+AES-CCM WPA+PSK WPA+TKIP,-169.139614,-145.124564
geoffroy,54:B8:0A:10:47:DC,WPA+AES-CCM WPA+PSK WPA+TKIP,-169.146815,-145.114871
lplmnop,54:B8:0A:10:9C:82,WPA+AES-CCM WPA+PSK WPA+TKIP,-169.137830,-73.545847
dlink-BD9C,54:B8:0A:10:BD:9C,WPA+AES-CCM WPA+PSK WPA+TKIP,-169.137912,-145.128462
ZiD-0531,54:B8:0A:12:68:7E,WPA+AES-CCM WPA+PSK WPA+TKIP,45.612389,-73.550018
dlink-92A0,54:B8:0A:12:92:A0,WPA+AES-CCM WPA+PSK,,
Rouge_Network,54:B8:0A:1F:20:50,WPA+AES-CCM WPA+PSK WPA+TKIP,-97.560966,-73.530472
polveira,54:E4:3A:ED:25:F6,WPA+AES-CCM WPA+PSK,-169.144960,-127.226476
vif internet 230,54:E6:FC:D1:F8:F2,WPA+AES-CCM WPA+PSK WPA+TKIP,-173.048098,-175.048209
SAV,58:1F:AA:E9:10:75,WPA+AES-CCM WPA+PSK,-169.143590,-168.974494
DIRECT-0C-HP OfficeJet 4650,58:20:B1:88:74:0D,WPA+AES-CCM WPA+PSK,45.497860,-73.575012
laporte,58:6D:8F:09:30:53,WPA+AES-CCM WPA+PSK,45.603340,-73.531128
Doomsday,58:6D:8F:09:56:4B,WPA+AES-CCM WPA+PSK,45.607242,-73.538422
Sardine,58:6D:8F:19:54:44,WPA+AES-CCM WPA+PSK,-169.147254,-159.431660
Xacto4,58:6D:8F:31:50:39,WPA+AES-CCM WPA+PSK WPA+TKIP,45.605301,-73.532516
PommierViolet,58:6D:8F:4F:BE:63,WPA+AES-CCM WPA+PSK WPA+TKIP,45.605266,-73.558914
None,58:6D:8F:64:2E:FD,WPA+AES-CCM WPA+PSK WPA+TKIP,,
tango,58:6D:8F:70:8E:50,WPA+AES-CCM WPA+PSK,-169.147931,-73.532707
LOVECHICKEN,58:6D:8F:75:DB:3C,WPA+AES-CCM WPA+PSK WPA+TKIP,-145.282263,-168.975735
wedgies-guest,58:6D:8F:76:C5:27,None,45.498588,-73.574158
Kannon,58:6D:8F:81:D8:38,WPA+AES-CCM WPA+PSK WPA+TKIP,-169.143562,-145.113655
PEEL GSM_Internet,58:6D:8F:83:DD:C7,WPA+AES-CCM WPA+PSK,-176.406304,-173.790397
PEEL GSM_Internet-guest,58:6D:8F:83:DD:C9,None,-173.458778,-174.632547
WIFIJR2,58:6D:8F:BC:44:B9,WPA+AES-CCM WPA+PSK,45.600925,-73.532417
Clowns,58:6D:8F:CD:B1:5F,WPA+AES-CCM WPA+PSK,-169.144039,-73.530567
Clowns-guest,58:6D:8F:CD:B1:61,None,45.604271,-73.530586
manonetcarl,58:6D:8F:D2:FD:4E,WPA+AES-CCM WPA+PSK WPA+TKIP,-169.149962,-159.433202
manonetcarl-visiteur,58:6D:8F:D2:FD:4F,None,-152.630846,-172.648480
Cesar linksys,58:6D:8F:FA:24:18,WPA+AES-CCM WPA+PSK WPA+TKIP,45.607922,-73.539879
cordonnerie maxi,58:98:35:AE:CF:A8,WPA+AES-CCM WPA+PSK WPA+TKIP,-169.248025,-169.018211
LABMobile_WIFI,58:B6:33:17:AD:58,WPA+AES-CCM WPA+PSK WPA+TKIP,45.497818,-73.575005
ConcordiaUniversity,58:BF:EA:D9:A3:30,WPA+AES-CCM WPA+TKIP,,
None,58:BF:EA:D9:A3:31,WEP,,
eduroam,58:BF:EA:D9:A3:32,WPA+AES-CCM,,
ConcordiaGuest,58:BF:EA:D9:A3:33,None,,
None,5A:5B:0E:68:1A:7E,WPA+PSK WPA+TKIP,-156.618456,-174.633358
None,5A:5B:0E:68:57:4E,WPA+PSK WPA+TKIP,-177.840644,-176.654536
None,5C:0E:8B:3E:7C:80,WPA+PSK WPA+TKIP,-126.302739,-159.476870
None,5C:0E:8B:3E:7C:82,WPA+AES-CCM WPA+PSK,-169.252448,-73.577503
None,5C:0E:8B:3E:7C:83,WPA+AES-CCM WPA+PSK WPA+TKIP,-169.252338,-127.264593
None,5C:50:15:C8:4E:32,WPA+AES-CCM WPA+PSK,45.596581,-73.534973
piair05,5C:50:15:C8:4E:33,WPA+AES-CCM WPA+PSK,45.596581,-73.534973
piairTest,5C:50:15:D0:DE:C0,WPA+AES-CCM WPA+PSK,-169.151861,-145.117892
piair01,5C:50:15:D0:DE:C1,WPA+AES-CCM,-169.151861,-145.117892
None,5C:50:15:D0:DE:C2,WPA+AES-CCM WPA+PSK,-169.151861,-73.535103
piair05,5C:50:15:D0:DE:C3,WPA+AES-CCM WPA+PSK,-126.202189,-159.434450
piairTest,5C:50:15:D0:E1:E0,WPA+AES-CCM WPA+PSK,-169.151861,-73.535103
piair01,5C:50:15:D0:E1:E1,WPA+AES-CCM,-169.151861,-73.535103
None,5C:50:15:D0:E1:E2,WPA+AES-CCM WPA+PSK,,
piair05,5C:50:15:D0:E1:E3,WPA+AES-CCM WPA+PSK,-169.151861,-73.535103
HP-Print-EC-ENVY 4500 series,5C:B9:01:53:CA:EC,WPA+AES-CCM WPA+PSK,-149.726694,-151.664066
micha,5C:D9:98:5B:0A:D4,WPA+AES-CCM WPA+PSK WPA+TKIP,45.602589,-73.531517
dlink,5C:D9:98:5B:C7:04,WPA+AES-CCM WPA+PSK WPA+TKIP,-173.351708,-174.596823
patricia,5C:D9:98:5B:D4:DE,WPA+AES-CCM WPA+PSK,-169.149978,-127.220965
dlink,5C:D9:98:5F:DD:98,None,,
VIDEOTRON2061,5C:F4:AB:A8:13:68,WPA+AES-CCM WPA+PSK WPA+TKIP,-169.149740,-145.116515
VIDEOTRON0155,5C:F4:AB:A8:9C:B4,WPA+AES-CCM WPA+PSK,-169.250639,-73.575190
VIDEOTRON2419,5C:F4:AB:A8:C0:14,WPA+AES-CCM WPA+PSK WPA+TKIP,-145.285295,-168.979845
VIDEOTRON1550,5C:F4:AB:A8:E4:80,WPA+AES-CCM WPA+PSK WPA+TKIP,-169.146165,-145.114514
VIDEOTRON0939,5C:F4:AB:A9:0C:F4,WPA+AES-CCM WPA+PSK WPA+TKIP,-169.141969,-127.223315
VIDEOTRON1556,5C:F4:AB:A9:C4:A8,WPA+AES-CCM WPA+PSK WPA+TKIP,-138.472389,-134.891008
VIDEOTRON3105,5C:F4:AB:A9:DC:DC,WPA+AES-CCM WPA+PSK WPA+TKIP,-97.560868,-73.558695
VIDEOTRON3729,5C:F4:AB:A9:E6:9C,WPA+AES-CCM WPA+PSK,45.607815,-73.539627
VIDEOTRON4620,5C:F4:AB:A9:F4:88,WPA+AES-CCM WPA+PSK WPA+TKIP,-169.145813,-145.120189
VIDEOTRON7867,5C:F4:AB:AA:27:44,WPA+AES-CCM WPA+PSK WPA+TKIP,-169.138807,-73.543686
VIDEOTRON8084,5C:F4:AB:AA:2A:A8,WPA+AES-CCM WPA+PSK,-97.560489,-73.531723
VIDEOTRON2271,5C:F4:AB:AA:82:18,WPA+AES-CCM WPA+PSK WPA+TKIP,-97.560863,-73.530510
VIDEOTRON4965,5C:F4:AB:AA:AC:30,WPA+AES-CCM WPA+PSK WPA+TKIP,-169.144866,-73.558876
VIDEOTRON1755,5C:F4:AB:AB:10:08,WPA+AES-CCM WPA+PSK WPA+TKIP,45.605038,-73.558876
VIDEOTRON3067,5C:F4:AB:AB:24:88,WPA+AES-CCM WPA+PSK WPA+TKIP,-138.464135,-134.891239
Frankandvince,5C:F4:AB:AB:30:28,WPA+AES-CCM WPA+PSK WPA+TKIP,-97.668958,-73.576523
VIDEOTRON4145,5C:F4:AB:AB:35:60,WPA+AES-CCM WPA+PSK WPA+TKIP,45.605217,-73.558449
VIDEOTRON4711,5C:F4:AB:AB:3E:38,WPA+AES-CCM WPA+PSK,-169.144723,-73.558922
VIDEOTRON6355,5C:F4:AB:AB:57:E8,WPA+AES-CCM WPA+PSK,45.604214,-73.541313
VIDEOTRON3168,5C:F4:AB:AB:8A:E4,WPA+AES-CCM WPA+PSK WPA+TKIP,-169.149051,-145.116110
VIDEOTRON4114,5C:F4:AB:AB:99:AC,WPA+AES-CCM WPA+PSK,-126.194867,-159.458266
VIDEOTRON4166,5C:F4:AB:AB:9A:7C,WPA+AES-CCM WPA+PSK,-175.055259,-178.048222
VIDEOTRON1463,5C:F4:AB:AC:0C:80,WPA+AES-CCM WPA+PSK WPA+TKIP,-97.567959,-73.534279
PS4-6E05710B9AEF,60:5B:B4:20:D9:15,WPA+AES-CCM WPA+PSK,-126.188217,-159.445067
teksavvy_1315,60:A4:4C:67:08:E6,WPA+AES-CCM WPA+PSK,-169.250450,-145.157841
HP-Print-c3-LaserJet 100,60:D8:19:1B:04:C3,None,-138.572712,-134.932551
KillerPenguinsBridge,60:E3:27:3C:3C:C9,WPA+AES-CCM WPA+PSK,-97.669442,-73.577039
BravoTelecom-13381,60:E3:27:70:17:DA,WPA+AES-CCM WPA+PSK,-179.536038,-177.468711
SPACE_X_NASA_PLUTO_MARS,60:E3:27:A3:9F:30,WPA+AES-CCM WPA+PSK,-169.252294,-73.576988
BravoTelecom-12795,60:E3:27:A3:A0:F6,WPA+AES-CCM WPA+PSK,-169.137134,-73.547470
CPE,60:E3:27:F1:B7:6D,WPA+AES-CCM WPA+PSK,-169.147207,-165.567303
Xiaomi_903F,64:09:80:7C:90:40,WPA+AES-CCM WPA+PSK WPA+TKIP,-169.146217,-165.571200
HP-Print-52-Officejet 4630,64:51:06:64:76:52,None,-169.145775,-127.224577
mercidieu,64:66:B3:D1:B6:54,WPA+AES-CCM WPA+PSK WPA+TKIP,-169.146509,-73.535099
Infected Network2,64:70:02:63:0B:E0,WPA+AES-CCM WPA+PSK WPA+TKIP,45.599056,-73.533485
TP-LINK_B37C10,64:70:02:B3:7C:10,WPA+AES-CCM WPA+PSK,-169.148898,-127.220324
eduroam,64:A0:E7:28:7C:82,WPA+AES-CCM,,
None,64:A0:E7:90:5E:30,WPA+AES-CCM WPA+PSK,-169.249972,-127.261616
None,64:A0:E7:90:5E:31,WPA+AES-CCM WPA+TKIP,-145.389055,-169.018286
None,64:A0:E7:90:5E:32,WPA+AES-CCM,-169.249986,-145.157334
None,64:A0:E7:90:5E:33,WPA+AES-CCM WPA+PSK WPA+TKIP,-169.249943,-169.018185
None,64:A0:E7:90:5E:34,WPA+AES-CCM,-169.249933,-159.473805
None,64:A0:E7:90:5E:35,WPA+AES-CCM WPA+PSK,-169.249952,-145.157287
None,64:A0:E7:90:5E:36,WPA+AES-CCM,-126.300274,-159.473810
None,64:A0:E7:90:5E:37,WPA+AES-CCM,-169.249985,-159.473896
None,64:A0:E7:90:5E:38,WPA+AES-CCM,-138.571595,-134.931120
Table Tracker Wifi,64:A5:C3:6C:0F:E6,WPA+AES-CCM WPA+PSK,-169.252361,-173.793039
iPhone de Dtran,66:00:10:3C:28:0D,WPA+AES-CCM WPA+PSK,45.498985,-73.574089
SETUP,66:2A:2F:53:7C:99,None,-145.312566,-168.987148
BELL011,68:15:90:39:1E:AE,WPA+AES-CCM WPA+PSK,-154.827033,-159.430118
BELL355,68:15:90:39:4A:B6,WPA+AES-CCM WPA+PSK,-176.548948,-177.202302
BELL530,68:15:90:39:D2:F6,WPA+AES-CCM WPA+PSK,-169.145167,-73.538917
BELL501,68:15:90:3A:10:2E,WPA+AES-CCM WPA+PSK,-179.158957,-179.264085
BELL419,68:15:90:3B:1D:06,WPA+AES-CCM WPA+PSK,45.596500,-73.535110
BELL480,68:15:90:3C:91:6E,WPA+AES-CCM WPA+PSK,-154.829649,-159.431094
BELL740,68:15:90:3D:04:F6,WPA+AES-CCM WPA+PSK,-156.507982,-174.598364
Altima-13191,68:15:90:3E:96:52,WPA+AES-CCM WPA+PSK WPA+TKIP,-169.148027,-73.532761
BELL680,68:15:90:41:60:AA,WPA+AES-CCM WPA+PSK,-178.488052,-166.903432
BELL568,68:15:90:42:CA:2A,WPA+AES-CCM WPA+PSK,-169.146323,-145.114594
BELL374,68:15:90:43:62:BA,WPA+AES-CCM WPA+PSK,-169.137750,-73.546020
BELL312,68:15:90:44:01:2A,WPA+AES-CCM WPA+PSK,-126.188818,-159.443638
BELL698,68:15:90:44:27:CA,WPA+AES-CCM WPA+PSK,45.496628,-73.576500
iTero,68:7F:74:77:87:C2,WEP,45.497452,-73.575714
3E,68:86:A7:1D:ED:E0,WPA+AES-CCM WPA+TKIP,-126.302629,-159.476462
3EGuest,68:86:A7:1D:ED:E1,None,-169.252386,-73.577049
eduroam,68:86:A7:30:10:B1,WPA+AES-CCM,45.497600,-73.577614
ConcordiaUniversity,68:86:A7:56:21:10,WPA+AES-CCM,-173.463110,-174.635513
eduroam,68:86:A7:56:21:11,WPA+AES-CCM,-169.251482,-145.160230
ConcordiaGuest,68:86:A7:56:21:12,None,-138.573306,-134.934127
eduroam,68:BD:AB:67:D7:01,WPA+AES-CCM,,
DimitryGuest,6A:15:90:42:CA:2A,WPA+AES-CCM WPA+PSK,-145.285291,-168.975465
dlink-6EC7,6C:19:8F:C0:6E:C9,WPA+AES-CCM WPA+PSK WPA+TKIP,45.609264,-73.542915
Bob2,6C:19:8F:CF:CF:78,WPA+AES-CCM WPA+PSK WPA+TKIP,-179.364886,-175.804875
dlink-7B78,6C:19:8F:F2:7B:78,WPA+AES-CCM WPA+PSK WPA+TKIP,-169.141508,-73.537437
dlink-07F9,6C:19:8F:F3:07:F9,WPA+AES-CCM WPA+PSK WPA+TKIP,-145.285258,-168.980035
dlink-87EE,6C:19:8F:F3:87:EE,WPA+AES-CCM WPA+PSK WPA+TKIP,-169.145151,-73.538948
BELL711,6C:2E:85:EF:B7:11,WPA+AES-CCM WPA+PSK,-169.147714,-73.532478
BELL020,6C:2E:85:F0:BD:B9,WPA+AES-CCM WPA+PSK,45.599499,-73.533157
BELL747,6C:2E:85:F0:D5:A1,WPA+AES-CCM WPA+PSK,-169.137274,-73.547211
BELL134,6C:2E:85:F4:16:69,WPA+AES-CCM WPA+PSK,45.609123,-73.542603
Romanz,6C:40:08:8B:E9:6C,WPA+AES-CCM WPA+PSK,45.497478,-73.575676
None,6C:50:4D:B6:EE:25,WPA+AES-CCM,45.496517,-73.576744
None,6C:50:4D:B6:EE:27,WPA+AES-CCM WPA+PSK,45.496517,-73.576744
LUXY MEDIA ,6C:70:9F:E3:0F:A2,WPA+AES-CCM WPA+PSK,-169.251637,-159.475741
IC.VT,6C:70:9F:E5:48:F6,WPA+AES-CCM WPA+PSK,45.497429,-73.575737
Chocolat,6C:70:9F:EE:E2:12,WPA+AES-CCM WPA+PSK,-169.147884,-73.532677
dlink-7890,6C:72:20:11:78:90,WPA+AES-CCM WPA+PSK WPA+TKIP,-138.467839,-134.888405
dlink-27AC,6C:72:20:14:27:AC,WPA+AES-CCM WPA+PSK WPA+TKIP,-97.562840,-73.537816
VACV,6C:9C:ED:EC:1A:40,WPA+AES-CCM WPA+PSK,45.496250,-73.576920
VACVWIFICORP,6C:9C:ED:EC:1A:41,WPA+AES-CCM,-97.669396,-73.576973
NETGEAR99,6C:B0:CE:99:27:D8,WPA+AES-CCM WPA+PSK,-169.138610,-145.126845
TAZ,6C:B0:CE:9B:8C:FF,WPA+AES-CCM WPA+PSK,45.605213,-73.558510
NETGEAR96,6C:B0:CE:F0:28:1A,WPA+AES-CCM WPA+PSK,45.607651,-73.539276
HP-Print-4A-Officejet Pro 8610,6C:C2:17:1A:3E:4A,WPA+AES-CCM WPA+PSK,45.602196,-73.536438
HP-Print-90-Officejet Pro 8610,6C:C2:17:1A:B8:90,WPA+AES-CCM WPA+PSK,45.603367,-73.539284
HP-Print-E1-Officejet Pro 8620,6C:C2:17:1E:7A:E1,WPA+AES-CCM WPA+PSK,-169.138372,-73.544571
GuessSP,6C:F3:7F:1C:B9:62,WPA+AES-CCM WPA+PSK WPA+TKIP,-152.730800,-172.689028
GuessSP2,6C:F3:7F:1C:B9:63,WPA+AES-CCM WPA+PSK,-169.249917,-145.157211
S_access,6C:F3:7F:1C:B9:64,WPA+AES-CCM,-149.727330,-151.664717
dlink-9450,70:62:B8:2F:94:50,WPA+AES-CCM WPA+PSK WPA+TKIP,45.605289,-73.558304
dlink-98A0,70:62:B8:2F:98:A0,WPA+AES-CCM WPA+PSK WPA+TKIP,-169.145776,-73.531517
dlink-769C,70:62:B8:62:76:9C,WPA+AES-CCM WPA+PSK WPA+TKIP,-179.576374,-177.781653
mercredi,70:62:B8:9A:2D:BC,WPA+AES-CCM WPA+PSK WPA+TKIP,45.606884,-73.537491
maison,70:73:CB:B8:4D:DB,WPA+AES-CCM WPA+PSK,-169.145379,-73.538452
SLAYER,70:73:CB:BD:75:C9,WPA+AES-CCM WPA+PSK WPA+TKIP,-138.472989,-134.891245
HP-Print-84-LaserJet Pro M201dw,70:77:81:66:13:84,WPA+AES-CCM WPA+PSK,,
None,70:81:05:45:5F:91,WEP,,
eduroam,70:81:05:45:5F:94,WPA+AES-CCM,,
ConcordiaGuest,70:81:05:45:5F:95,None,,
Braindead,70:8B:CD:60:08:18,WPA+AES-CCM WPA+PSK,45.603962,-73.530746
JONAP01,70:8B:CD:AE:75:28,WPA+AES-CCM WPA+PSK,-138.465188,-134.887627
aL3Kz9453,70:8B:CD:EA:41:50,WPA+AES-CCM WPA+PSK,,
DIRECT-0a-HP M277 LaserJet,72:77:81:73:19:0A,WPA+AES-CCM WPA+PSK,-169.252668,-73.577484
cluster 2.4,74:03:BD:5E:91:20,WPA+AES-CCM WPA+PSK,45.498623,-73.574142
HR_Guest,74:A0:2F:83:E1:03,None,-97.667942,-73.575317
HR_Vendor,74:A0:2F:83:E1:04,WPA+AES-CCM WPA+PSK,45.497635,-73.575317
RSF-01,74:A0:2F:F0:B0:90,WPA+AES-CCM,,
None,74:A0:2F:F0:B0:91,WPA+AES-CCM WPA+PSK,,
RSF-I,74:A0:2F:F0:B0:92,WPA+AES-CCM WPA+PSK,,
STMnet,74:A0:2F:F0:B0:93,None,,
None,74:A2:E6:12:37:B0,WPA+AES-CCM WPA+TKIP,45.497581,-73.575455
La Prep - Guest,74:EA:3A:A9:E2:CE,WPA+AES-CCM WPA+PSK WPA+TKIP,45.498257,-73.574753
MON TP-LINK,74:EA:3A:B0:39:9C,WPA+AES-CCM WPA+PSK WPA+TKIP,-97.557197,-73.540871
EliteForex,74:EA:3A:EF:51:7A,WEP,-169.252169,-159.476349
ASUS,78:24:AF:7C:F0:08,WPA+AES-CCM WPA+PSK,-169.142986,-145.115530
Cure,78:24:AF:ED:6F:00,WPA+AES-CCM WPA+PSK,-126.300490,-159.474174
VIF WIFI,78:44:76:45:A7:17,WPA+AES-CCM WPA+PSK WPA+TKIP,45.603912,-73.540611
YAALTELECOM928,78:44:76:6F:87:5C,WPA+AES-CCM WPA+PSK WPA+TKIP,-176.554024,-177.204855
conXus784b87935ac2,78:4B:87:93:5A:C2,None,45.603390,-73.558144
london,78:54:2E:56:66:A0,WPA+AES-CCM WPA+PSK WPA+TKIP,-169.140960,-159.438102
BenoitJocelyne,78:54:2E:57:72:5E,WPA+AES-CCM WPA+PSK WPA+TKIP,-178.488556,-176.240784
georgesnoella,78:54:2E:EA:BE:84,WPA+AES-CCM WPA+PSK WPA+TKIP,-126.195523,-159.438195
cruze2015,78:61:7C:2E:2F:50,WPA+AES-CCM WPA+PSK WPA+TKIP,-169.150992,-73.534471
trax2015,78:61:7C:73:7D:56,WPA+AES-CCM WPA+PSK WPA+TKIP,-126.201651,-159.433640
VIF JLC,7C:B7:33:B0:F7:90,WPA+AES-CCM WPA+PSK WPA+TKIP,-169.146497,-73.535164
BW Europa,80:2A:A8:1A:E3:9B,None,45.498371,-73.574600
Fitclub24 Guest,80:2A:A8:44:C4:CC,WPA+AES-CCM WPA+PSK WPA+TKIP,-149.726741,-151.664141
TAG Inc.,80:2A:A8:57:EE:C2,WPA+AES-CCM WPA+PSK,-169.250568,-154.105827
None,80:2A:A8:81:05:59,WPA+AES-CCM WPA+PSK,-169.249498,-73.573998
Fundstream Wifi,80:2A:A8:84:28:BD,WPA+AES-CCM WPA+PSK,-169.248921,-127.260710
NETGEAR74,80:37:73:BB:5C:E0,WPA+AES-CCM WPA+PSK,-169.144644,-145.141594
ConcordiaUniversity,80:E0:1D:20:84:00,WPA+AES-CCM,-169.251722,-73.577492
CAPT606SPACE,80:E0:1D:9B:B7:80,WPA+AES-CCM WPA+TKIP,-169.249280,-145.156509
!5an5f11!,80:E0:1D:9B:B7:81,WPA+AES-CCM WPA+TKIP,-169.249230,-159.473025
SAQ_Wi-Fi,80:E0:1D:9B:B7:82,None,-154.932701,-159.473044
SAQ-Corpo,80:E0:1D:9B:B7:83,WPA+AES-CCM,-152.730153,-172.688343
CAPT606SPACE,80:E0:1D:BD:76:C0,WPA+AES-CCM WPA+TKIP,-97.666474,-73.573700
!5an5f11!,80:E0:1D:BD:76:C1,WPA+AES-CCM WPA+TKIP,-97.666426,-73.573659
SAQ_Wi-Fi,80:E0:1D:BD:76:C2,None,-169.249195,-73.573637
SAQ-Corpo,80:E0:1D:BD:76:C3,WPA+AES-CCM,45.499180,-73.573631
TEST-SP1,82:2A:A8:1A:DE:4F,WPA+AES-CCM WPA+PSK,45.498920,-73.574142
TAG Inc. - Guest,82:2A:A8:57:EE:C2,WPA+AES-CCM WPA+PSK,-177.840451,-176.654345
Fundstream Wifi,82:2A:A8:84:28:BD,WPA+AES-CCM WPA+PSK,-169.249122,-145.156533
DIRECT-9y-BRAVIA,82:56:F2:9C:85:6E,WPA+AES-CCM WPA+PSK,,
None,84:24:8D:C6:79:50,WPA+AES-CCM,45.499275,-73.573563
None,84:24:8D:C6:79:54,WPA+AES-CCM,45.499161,-73.573646
None,84:24:8D:CC:8E:E0,WPA+AES-CCM,-97.666332,-73.573621
None,84:24:8D:CC:8E:E2,WPA+AES-CCM,-169.249194,-73.573656
None,84:24:8D:CC:8E:E4,WPA+AES-CCM,-138.570848,-134.930323
None,84:24:8D:CC:8E:E5,WPA+AES-CCM WPA+PSK,-169.249013,-73.573578
None,84:24:8D:CC:D8:60,WPA+AES-CCM,-169.249147,-73.573585
None,84:24:8D:CC:D8:A0,WPA+AES-CCM,-169.249207,-159.473008
None,84:24:8D:CC:D8:A2,WPA+AES-CCM,-169.249238,-73.573692
None,84:24:8D:CC:D8:A4,WPA+AES-CCM,-97.666439,-73.573677
None,84:24:8D:CC:D8:A5,WPA+AES-CCM WPA+PSK,-169.249232,-73.573683
None,84:24:8D:CC:E4:F0,WPA+AES-CCM,-126.299250,-159.472954
None,84:24:8D:CC:E4:F2,WPA+AES-CCM,-169.248938,-73.573599
None,84:24:8D:CC:E4:F4,WPA+AES-CCM,-97.666174,-73.573583
None,84:24:8D:CC:E4:F5,WPA+AES-CCM WPA+PSK,-97.666141,-73.573606
None,84:24:8D:CC:E6:60,WPA+AES-CCM,45.499111,-73.573700
None,84:24:8D:CC:E6:62,WPA+AES-CCM,-169.249204,-73.573643
None,84:24:8D:CC:E6:65,WPA+AES-CCM WPA+PSK,45.499130,-73.573700
None,84:24:8D:CC:F1:D0,WPA+AES-CCM,-97.666432,-73.573662
None,84:24:8D:CC:F1:D2,WPA+AES-CCM,-126.299617,-159.473067
None,84:24:8D:CC:F1:D4,WPA+AES-CCM,-169.249257,-73.573700
None,84:24:8D:CC:F1:D5,WPA+AES-CCM WPA+PSK,-169.249257,-73.573700
None,84:24:8D:CC:FB:10,WPA+AES-CCM,45.499180,-73.573631
None,84:24:8D:CC:FB:15,WPA+AES-CCM WPA+PSK,-169.249202,-73.573650
None,84:24:8D:CC:FB:B5,WPA+AES-CCM WPA+PSK,45.499103,-73.573700
None,84:24:8D:CC:FC:25,WPA+AES-CCM WPA+PSK,-97.666434,-73.573672
None,84:24:8D:CD:07:20,WPA+AES-CCM,45.499180,-73.573631
None,84:24:8D:CD:07:22,WPA+AES-CCM,45.499180,-73.573631
None,84:24:8D:CD:07:24,WPA+AES-CCM,-169.249166,-73.573608
None,84:24:8D:CD:07:25,WPA+AES-CCM WPA+PSK,45.499180,-73.573631
None,84:24:8D:CD:07:60,WPA+AES-CCM,-169.249185,-73.573631
None,84:24:8D:CD:07:62,WPA+AES-CCM,-169.249196,-145.156431
None,84:24:8D:CD:07:64,WPA+AES-CCM,-138.570870,-134.930332
None,84:24:8D:CD:07:65,WPA+AES-CCM WPA+PSK,-138.570871,-134.930328
BELL476,84:A4:23:8E:55:C6,WPA+AES-CCM WPA+PSK,-169.250585,-169.018903
Unitelecom701,84:A4:23:90:49:86,WPA+AES-CCM WPA+PSK,-169.141126,-73.538361
Office,84:A4:23:91:01:2E,WPA+AES-CCM WPA+PSK,-169.250837,-174.633547
garagedc4734,84:A4:23:91:E3:36,WPA+AES-CCM WPA+PSK,-169.143651,-73.530510
BELL211,84:A4:23:92:C9:FE,WPA+AES-CCM WPA+PSK,-97.563044,-73.531548
BELL321,84:A4:23:93:2B:36,WPA+AES-CCM WPA+PSK,-145.281987,-169.001379
BELL513,84:A4:23:95:64:86,WPA+AES-CCM WPA+PSK,45.604763,-73.530777
BELL644,84:A4:23:95:65:AE,WPA+AES-CCM WPA+PSK,-177.097469,-168.974357
None,84:B5:9C:E4:D4:40,WPA+AES-CCM,45.605251,-73.532303
None,84:B5:9C:EB:65:00,WPA+AES-CCM,-169.149801,-73.533760
None,84:B5:9C:EB:65:02,WPA+AES-CCM,-169.149801,-73.533760
None,84:B5:9C:EB:65:04,None,-169.149801,-73.533760
None,84:B5:9C:EB:7E:40,WPA+AES-CCM,-169.150056,-73.533928
None,84:B5:9C:EB:7E:42,WPA+AES-CCM,-97.567268,-73.533928
None,84:B5:9C:EB:7E:44,None,-169.150056,-73.533928
None,84:B5:9C:EC:02:80,WPA+AES-CCM,-138.471911,-134.890698
None,84:B5:9C:EC:02:82,WPA+AES-CCM,-169.150212,-127.221093
None,84:B5:9C:EC:02:84,None,-169.150212,-127.221093
None,84:B5:9C:EC:25:C0,WPA+AES-CCM,-169.150103,-127.221024
None,84:B5:9C:EC:25:C2,WPA+AES-CCM,-126.200344,-159.433243
None,84:B5:9C:EC:25:C4,None,-169.150032,-73.533909
kone-office,84:B8:02:9E:34:72,WPA+AES-CCM,45.495891,-73.577545
ConcordiaUniversity,84:B8:02:D3:52:90,WPA+AES-CCM,45.497421,-73.577507
eduroam,84:B8:02:D3:52:91,WPA+AES-CCM,-169.251996,-73.577568
ConcordiaGuest,84:B8:02:D3:52:92,None,-97.668466,-73.577563
VIDEOTRON4428,84:C9:B2:D0:03:FC,WPA+AES-CCM WPA+PSK,-154.825907,-159.433919
VIDEOTRON1580,84:C9:B2:D0:53:1F,WPA+AES-CCM WPA+PSK,-169.251725,-165.611493
VIDEOTRON7977,84:C9:B2:D0:59:6A,WPA+AES-CCM WPA+PSK,-97.555194,-73.545522
VIDEOTRON1888,84:C9:B2:D0:A9:6E,WPA+AES-CCM WPA+PSK,-156.615769,-174.632547
SLMAISON,84:C9:B2:D0:CF:6F,WPA+AES-CCM WPA+PSK,-97.562840,-73.537811
VIDEOTRON8087,84:C9:B2:D1:5C:57,WPA+AES-CCM WPA+PSK,-145.281512,-168.978368
VIDEOTRON3740,84:C9:B2:D1:B7:A4,WPA+AES-CCM WPA+PSK,,
VIDEOTRON5550,84:C9:B2:D1:C0:35,WPA+AES-CCM WPA+PSK,-169.250426,-145.157855
AnjouPizza,84:C9:B2:D2:2A:64,WPA+AES-CCM WPA+PSK,-176.548785,-177.202282
VIDEOTRON3493,84:C9:B2:D2:2B:1E,WPA+AES-CCM WPA+PSK,-169.148774,-73.533184
VIDEOTRON2439,84:C9:B2:D2:50:14,WPA+AES-CCM WPA+PSK,-126.190181,-159.440542
VIDEOTRON7347,84:C9:B2:D2:B0:F5,WPA+AES-CCM WPA+PSK,-169.143602,-73.530777
VIDEOTRON4967,84:C9:B2:D2:EB:C9,WPA+AES-CCM WPA+PSK,-97.558873,-73.537056
None,84:C9:B2:D3:04:89,WPA+AES-CCM WPA+PSK,45.600433,-73.532707
VIDEOTRON1097,84:C9:B2:D3:08:DC,WPA+AES-CCM WPA+PSK,-97.563250,-73.531662
VIDEOTRON8420,84:C9:B2:D3:0E:B2,WPA+AES-CCM WPA+PSK,-97.559462,-73.535217
VIDEOTRON1677,84:C9:B2:D3:61:08,WPA+AES-CCM WPA+PSK,-169.139076,-73.542969
VIDEOTRON1899,84:C9:B2:D3:6D:8F,WPA+AES-CCM WPA+PSK,-169.150056,-73.533928
VIDEOTRON9122,84:C9:B2:D3:78:15,WPA+AES-CCM WPA+PSK,45.596500,-73.535110
VIDEOTRON2029,84:C9:B2:D3:8E:F8,WPA+AES-CCM WPA+PSK,-138.467961,-134.892460
VIDEOTRON9249,84:C9:B2:D4:13:61,WPA+AES-CCM WPA+PSK,-157.836280,-163.963996
CSPI-Internet,84:D4:7E:D3:B0:40,WPA+AES-CCM WPA+PSK,-169.136964,-73.547844
CSPI,84:D4:7E:D3:B0:41,WPA+AES-CCM,-169.136964,-73.547844
None,84:D4:7E:D3:B0:42,WPA+AES-CCM WPA+PSK,-169.136991,-73.547787
CSPI-Internet,84:D4:7E:D3:B0:A0,WPA+AES-CCM WPA+PSK,45.610996,-73.546959
CSPI-Internet,84:D4:7E:D3:B0:C0,WPA+AES-CCM WPA+PSK,-97.554339,-73.547485
CSPI,84:D4:7E:D3:B0:C1,WPA+AES-CCM,-169.137176,-73.547390
None,84:D4:7E:D3:B0:C2,WPA+AES-CCM WPA+PSK,-169.137176,-73.547390
CSPI,84:D4:7E:D3:CD:A1,WPA+AES-CCM,45.604626,-73.542351
CSPI-Internet,84:D4:7E:D3:CE:A0,WPA+AES-CCM WPA+PSK,45.604546,-73.543510
CSPI,84:D4:7E:D3:CF:21,WPA+AES-CCM,45.604599,-73.542290
CSPI-Internet,84:D4:7E:D4:1E:E0,WPA+AES-CCM WPA+PSK,-145.276423,-168.990724
CSPI,84:D4:7E:D4:1E:E1,WPA+AES-CCM,-169.137356,-159.446337
None,84:D4:7E:D4:1E:E2,WPA+AES-CCM WPA+PSK,-138.459002,-134.903721
CSPI-Internet,84:D4:7E:D4:20:40,WPA+AES-CCM WPA+PSK,-169.137290,-145.129963
CSPI,84:D4:7E:D4:20:41,WPA+AES-CCM,-169.137295,-145.129953
None,84:D4:7E:D4:20:42,WPA+AES-CCM WPA+PSK,-169.137295,-145.129953
Morin Relations Publiques,86:2A:A8:09:71:F2,WPA+AES-CCM WPA+PSK,-97.668827,-73.576401
Ki\303\252n\342\200\231s iMac,88:63:DF:97:4D:9D,WPA+AES-CCM WPA+PSK,-175.757813,-177.695344
BELL357,88:A6:C6:7A:E9:96,WPA+AES-CCM WPA+PSK,,
BELL534,88:A6:C6:7B:1A:16,WPA+AES-CCM WPA+PSK,45.605472,-73.556747
BELL673,88:A6:C6:7B:56:5E,WPA+AES-CCM WPA+PSK,,
BELL016,88:A6:C6:7B:85:B6,WPA+AES-CCM WPA+PSK,-97.667740,-73.575010
JARRAR,88:A6:C6:7B:BB:6E,WPA+AES-CCM WPA+PSK,,
BELL233,88:A6:C6:7B:D3:DE,WPA+AES-CCM WPA+PSK,45.601841,-73.531914
BELL592,88:A6:C6:7B:FD:D6,WPA+AES-CCM WPA+PSK,-145.288491,-168.977267
BELL401,88:A6:C6:7C:35:AE,WPA+AES-CCM WPA+PSK,-97.668926,-73.576459
Cuba,88:A6:C6:7E:42:CE,WPA+AES-CCM WPA+PSK,-169.144824,-145.141750
BELL892,88:A6:C6:7E:44:9E,WPA+AES-CCM WPA+PSK,45.598812,-73.533638
BELL547,88:A6:C6:7E:4E:AE,WPA+AES-CCM WPA+PSK,-156.510820,-174.590505
BELL703,88:A6:C6:7E:58:A6,WPA+AES-CCM WPA+PSK,-177.104706,-168.978210
BELL165,88:A6:C6:80:0D:76,WPA+AES-CCM WPA+PSK,45.607983,-73.539993
BELL411,88:A6:C6:81:0D:BE,WPA+AES-CCM WPA+PSK,45.605434,-73.558235
BELL282,88:A6:C6:81:0E:3E,WPA+AES-CCM WPA+PSK,-149.626666,-151.623743
LBC-Office,88:DC:96:02:54:B2,WPA+AES-CCM WPA+PSK WPA+TKIP,-169.252082,-73.576900
None,88:DC:96:2B:99:F4,None,-157.947921,-163.995444
None,88:DC:96:2B:99:F6,None,-173.018954,-179.066653
bfun,88:DC:96:30:03:D6,WPA+AES-CCM WPA+PSK,-169.136950,-73.547875
BECKS1,88:DC:96:31:5C:2A,WPA+AES-CCM WPA+PSK,-149.726997,-151.664408
None,88:DC:96:33:7D:0E,None,-169.144916,-159.457539
Ernest-Jonathan,88:DC:96:3B:3A:86,WPA+AES-CCM WPA+PSK WPA+TKIP,-175.053449,-178.046224
Gestion Sidev,88:DC:96:3B:3D:96,WPA+AES-CCM WPA+PSK,-169.252205,-171.189942
ConcordiaUniversity,88:F0:31:05:94:70,WPA+AES-CCM,-179.882958,-179.888542
eduroam,88:F0:31:05:94:71,WPA+AES-CCM,-169.252173,-73.577538
ConcordiaGuest,88:F0:31:05:94:72,None,-138.573527,-134.934166
ConcordiaUniversity,88:F0:31:D7:DE:40,WPA+AES-CCM,45.495891,-73.577545
eduroam,88:F0:31:D7:DE:41,WPA+AES-CCM,,
ConcordiaGuest,88:F0:31:D7:DE:42,None,,
ConcordiaGuest,88:F0:31:E1:6E:82,None,-169.251703,-73.577526
ConcordiaUniversity,88:F0:31:E6:BE:00,WPA+AES-CCM,-126.302198,-159.476781
eduroam,88:F0:31:E6:BE:01,WPA+AES-CCM,45.496773,-73.577492
ConcordiaGuest,88:F0:31:E6:BE:02,None,,
ConcordiaUniversity,88:F0:31:EB:65:00,WPA+AES-CCM,-156.619540,-174.635576
eduroam,88:F0:31:EB:65:01,WPA+AES-CCM,-138.573343,-134.934228
ConcordiaGuest,88:F0:31:EB:65:02,None,-169.251703,-159.476860
COS Free WiFi,8A:15:04:6F:D7:01,None None,-169.250730,-145.158106
OneTeam,8A:15:04:6F:D7:06,WPA+AES-CCM WPA+AES-CCM WPA+PSK WPA+PSK,-152.731619,-172.689935
None,8A:15:04:6F:D7:07,WPA+AES-CCM,-97.667916,-73.575266
None,8A:15:04:6F:D7:08,WPA+AES-CCM,-97.667916,-73.575266
ST-HUBERT,8A:15:04:A3:E4:10,None,-169.151872,-73.535122
GESTSTH,8A:15:04:A3:E4:11,WPA+AES-CCM WPA+PSK WPA+TKIP,-169.151864,-73.535122
None,8A:15:04:BE:3F:B0,WPA+AES-CCM,,
None,8A:15:04:BE:3F:B2,WPA+AES-CCM WPA+PSK,,
MVMT-ACCUEIL,8A:15:04:BE:3F:B3,None,,
Morin R. P. (visiteurs),8A:2A:A8:09:71:F2,WPA+AES-CCM WPA+PSK,-169.251636,-73.576401
Net Guy Concordia 2.4 guest,8A:D3:A3:5C:29:EB,WPA+AES-CCM WPA+PSK WPA+TKIP,,
BECKSGIRLS,8A:DC:96:31:5C:2A,WPA+AES-CCM WPA+PSK,-145.388591,-169.017805
BELL859,8C:10:D4:E2:06:5E,WPA+AES-CCM WPA+PSK,45.607651,-73.539276
BELL209,8C:10:D4:E3:16:0E,WPA+AES-CCM WPA+PSK,-169.141389,-73.537674
animal,8C:10:D4:E3:61:96,WPA+AES-CCM WPA+PSK,-169.148223,-168.976535
BELL398,8C:10:D4:E4:24:B6,WPA+AES-CCM WPA+PSK,-169.143970,-73.530746
BELL557,8C:10:D4:E4:A5:16,WPA+AES-CCM WPA+PSK,-149.621286,-151.621263
BELL896,8C:10:D4:E4:E3:26,WPA+AES-CCM WPA+PSK,-169.137220,-145.130098
BELL198,8C:10:D4:E5:4D:DE,WPA+AES-CCM WPA+PSK,45.610664,-73.556801
BELL893,8C:10:D4:E5:B2:0E,WPA+AES-CCM WPA+PSK,-169.145446,-127.225367
BELL435,8C:10:D4:E5:B9:AE,WPA+AES-CCM WPA+PSK,45.605301,-73.532516
BELL340,8C:10:D4:E5:DB:E6,WPA+AES-CCM WPA+PSK,45.604664,-73.530472
BELL475,8C:10:D4:E6:65:3E,WPA+AES-CCM WPA+PSK,-149.623646,-151.626471
BELL273,8C:10:D4:E7:89:16,WPA+AES-CCM WPA+PSK,-169.140481,-73.539782
BELL071,8C:10:D4:E8:34:D6,WPA+AES-CCM WPA+PSK,-169.143043,-73.532572
BELL705,8C:10:D4:EA:22:56,WPA+AES-CCM WPA+PSK,-169.146190,-73.536308
BELL873,8C:10:D4:EA:48:F6,WPA+AES-CCM WPA+PSK,-138.468585,-134.888822
MI-K100 VIP777,8C:21:0A:5E:2A:7C,WPA+AES-CCM WPA+PSK,-97.667087,-73.574310
Ocean,8E:15:44:CC:DE:70,None,-169.250378,-169.018728
AndroidAP,90:18:7C:E7:FD:A5,WPA+AES-CCM WPA+PSK,,
Z320,90:21:81:B1:75:8A,WPA+AES-CCM WPA+PSK,,
Ali's Wi-Fi Network,90:72:40:0D:FF:E0,WPA+AES-CCM WPA+PSK,45.496552,-73.577560
Wifi Tayah,90:72:40:0E:AD:F0,WPA+AES-CCM WPA+PSK,-97.667658,-73.575066
BELL585,90:72:82:F1:3A:86,WPA+AES-CCM WPA+PSK,,
BELL759,90:72:82:F1:3A:F6,WPA+AES-CCM WPA+PSK,45.607361,-73.538681
BELL670,90:72:82:F3:8B:C6,WPA+AES-CCM WPA+PSK,-169.149073,-154.063991
BELL257,90:72:82:F5:54:AE,WPA+AES-CCM WPA+PSK,-169.138795,-73.543709
BELL078,90:72:82:F5:56:4E,WPA+AES-CCM WPA+PSK,-169.144812,-145.141758
BELL270,90:72:82:F5:D4:EE,WPA+AES-CCM WPA+PSK,45.609123,-73.542603
BELL652,90:72:82:F5:E2:F6,WPA+AES-CCM WPA+PSK,-126.188001,-159.445543
BELL598,90:72:82:F5:F5:9E,WPA+AES-CCM WPA+PSK,45.611038,-73.547104
Nicole,90:72:82:F6:D6:4E,WPA+AES-CCM WPA+PSK,-169.146387,-73.535522
BELL284,90:72:82:F6:DA:86,WPA+AES-CCM WPA+PSK,-145.278753,-168.985350
BELL216,90:72:82:F6:EF:16,WPA+AES-CCM WPA+PSK,-169.149971,-145.116645
BELL638,90:72:82:F7:18:A6,WPA+AES-CCM WPA+PSK,-169.145620,-73.537840
BELL585,90:72:82:F7:82:3E,WPA+AES-CCM WPA+PSK,-169.138070,-73.545326
BELL731,90:72:82:F7:95:76,WPA+AES-CCM WPA+PSK,-97.568860,-73.534599
BELL225,90:72:82:F7:CC:DE,WPA+AES-CCM WPA+PSK,-97.556582,-73.542295
BELL587,90:72:82:F7:D2:AE,WPA+AES-CCM WPA+PSK,-169.144892,-127.245329
BELL572,90:72:82:F8:99:6E,WPA+AES-CCM WPA+PSK,-169.141679,-73.537018
BELL412,90:72:82:F8:A1:E6,WPA+AES-CCM WPA+PSK,-179.889206,-175.540496
BELL348,90:72:82:F8:D3:B6,WPA+AES-CCM WPA+PSK,-169.145624,-73.537826
BELL835,90:72:82:F8:F0:B6,WPA+AES-CCM WPA+PSK,-138.458923,-134.903894
OJPH,90:72:82:F9:1E:8E,WPA+AES-CCM WPA+PSK,45.496471,-73.576790
BELL662,90:72:82:F9:C4:E6,WPA+AES-CCM WPA+PSK,-169.138053,-145.128117
BELL151,90:72:82:FA:24:26,WPA+AES-CCM WPA+PSK,-169.135761,-73.550644
BELL061,90:72:82:FA:42:B6,WPA+AES-CCM WPA+PSK,45.496155,-73.577065
BELL730,90:72:82:FA:70:5E,WPA+AES-CCM WPA+PSK,-126.190604,-159.439576
BELL058,90:72:82:FA:B2:0E,WPA+AES-CCM WPA+PSK,-169.251469,-165.611308
BELL079,90:72:82:FC:C0:DE,WPA+AES-CCM WPA+PSK,-169.140607,-73.539513
BELL108,90:72:82:FD:3D:5E,WPA+AES-CCM WPA+PSK,45.596870,-73.534134
BELL192,90:72:82:FD:52:A6,WPA+AES-CCM WPA+PSK,-97.568841,-73.534673
BELL051,90:72:82:FD:78:EE,WPA+AES-CCM WPA+PSK,45.607109,-73.558411
BELL411,90:72:82:FD:79:2E,WPA+AES-CCM WPA+PSK,-126.188414,-159.456415
BELL889,90:72:82:FD:84:9E,WPA+AES-CCM WPA+PSK,-169.142259,-159.434541
BELL109,90:72:82:FD:B2:BE,WPA+AES-CCM WPA+PSK,-169.137316,-127.234203
BELL153,90:72:82:FD:E0:FE,WPA+AES-CCM WPA+PSK,-156.511325,-174.588840
BELL338,90:72:82:FE:10:66,WPA+AES-CCM WPA+PSK,45.496170,-73.577080
BELL789,90:72:82:FE:81:DE,WPA+AES-CCM WPA+PSK,-145.285250,-168.980066
BELL938,90:72:82:FE:83:BE,WPA+AES-CCM WPA+PSK,-97.563363,-73.531713
BELL682,90:72:82:FE:AE:AE,WPA+AES-CCM WPA+PSK,-97.557594,-73.539993
BELL627,90:72:82:FE:C3:B6,WPA+AES-CCM WPA+PSK,-177.737954,-176.611964
BELL794,90:72:82:FF:17:2E,WPA+AES-CCM WPA+PSK,-97.669181,-73.576836
BELL871,90:72:82:FF:33:76,WPA+AES-CCM WPA+PSK,,
BELL798,90:72:82:FF:44:A6,WPA+AES-CCM WPA+PSK,-169.147182,-159.431635
BELL915,90:72:82:FF:47:8E,WPA+AES-CCM WPA+PSK,-149.629294,-151.625448
BELL049,90:72:82:FF:58:F6,WPA+AES-CCM WPA+PSK,45.602985,-73.538452
Bell1807,90:72:82:FF:90:D6,WPA+AES-CCM WPA+PSK,,
BELL327,90:72:82:FF:BF:A6,WPA+AES-CCM WPA+PSK,45.612617,-73.550621
dlink-261C,90:8D:78:64:26:1C,WPA+AES-CCM WPA+PSK WPA+TKIP,45.604424,-73.558701
Serge2,90:8D:78:67:7D:80,WPA+AES-CCM WPA+PSK WPA+TKIP,45.602421,-73.531609
Nouveau Forum,90:94:E4:39:E5:6E,WPA+AES-CCM WPA+PSK WPA+TKIP,-169.250926,-73.575733
Mandi,90:94:E4:CD:0D:9A,WPA+AES-CCM WPA+PSK WPA+TKIP,-97.554867,-73.546242
VIDEOTRON2239,90:EF:68:7A:A8:64,WPA+AES-CCM WPA+PSK WPA+TKIP,-138.466806,-134.895649
VIDEOTRON4805,90:EF:68:7A:D0:7C,WPA+AES-CCM WPA+PSK WPA+TKIP,-169.135705,-73.550751
VIDEOTRON5137,90:EF:68:7A:D5:AC,WPA+AES-CCM WPA+PSK,45.599422,-73.533279
VIDEOTRON5159,90:EF:68:7A:D6:04,WPA+AES-CCM WPA+PSK,-126.200658,-159.433403
VIDEOTRON8235,90:EF:68:7B:06:14,WPA+AES-CCM WPA+PSK WPA+TKIP,-169.139904,-159.440425
VIDEOTRON9183,90:EF:68:7B:14:E4,WPA+AES-CCM WPA+PSK,-138.469671,-134.889410
dianne451,90:EF:68:7B:1B:44,WPA+AES-CCM WPA+PSK WPA+TKIP,45.600857,-73.532448
VIDEOTRON9859,90:EF:68:7B:1F:74,WPA+AES-CCM WPA+PSK,45.610397,-73.545563
VIDEOTRON9871,90:EF:68:7B:1F:A4,WPA+AES-CCM WPA+PSK WPA+TKIP,45.609543,-73.543625
VIDEOTRON0521,90:EF:68:7B:29:CC,WPA+AES-CCM WPA+PSK WPA+TKIP,45.602150,-73.536201
VIDEOTRON1149,90:EF:68:7B:66:7C,WPA+AES-CCM WPA+PSK WPA+TKIP,-169.146284,-73.535828
VIDEOTRON1654,90:EF:68:7B:6E:60,WPA+AES-CCM WPA+PSK WPA+TKIP,-169.150445,-73.534119
VIDEOTRON5105,90:EF:68:7B:A4:4C,WPA+AES-CCM WPA+PSK WPA+TKIP,45.609573,-73.543709
VIDEOTRON7136,90:EF:68:7B:C4:08,WPA+AES-CCM WPA+PSK WPA+TKIP,-169.145064,-145.121945
VIDEOTRON7958,90:EF:68:7B:D0:E0,WPA+AES-CCM WPA+PSK WPA+TKIP,-169.138820,-171.156542
Maxamehenri,90:EF:68:7B:DA:B0,WPA+AES-CCM WPA+PSK,-169.145755,-145.120322
VIDEOTRON9206,90:EF:68:7B:E4:60,WPA+AES-CCM WPA+PSK WPA+TKIP,-169.141115,-145.121195
VIDEOTRON2210,90:EF:68:7C:13:50,WPA+AES-CCM WPA+PSK WPA+TKIP,45.608478,-73.541100
Bishop 2.4ghz,90:EF:68:7C:5D:D4,WPA+AES-CCM WPA+PSK,-138.573388,-134.933173
VIDEOTRON0058,90:EF:68:7C:90:48,WPA+AES-CCM WPA+PSK,-97.558174,-73.558332
belkinMissa,90:EF:68:7C:B1:4C,WPA+AES-CCM WPA+PSK WPA+TKIP,45.608993,-73.542290
VIDEOTRON2300,90:EF:68:7C:B3:50,WPA+AES-CCM WPA+PSK WPA+TKIP,-169.147230,-73.532318
VIDEOTRON1763,90:EF:68:7D:78:98,WPA+AES-CCM WPA+PSK WPA+TKIP,45.598186,-73.534004
VIDEOTRON1401,90:EF:68:7D:AA:88,WPA+AES-CCM WPA+PSK WPA+TKIP,-169.252245,-73.577080
VIDEOTRON0639,90:EF:68:7D:AD:08,WPA+AES-CCM WPA+PSK WPA+TKIP,-145.276817,-168.989758
VIDEOTRON1886,90:EF:68:7D:C0:84,WPA+AES-CCM WPA+PSK,-145.283363,-168.974438
VIDEOTRON3955,90:EF:68:7D:E0:D8,WPA+AES-CCM WPA+PSK WPA+TKIP,45.613785,-73.554230
Ginette,90:F6:52:39:89:16,WPA+AES-CCM WPA+PSK,45.605217,-73.532158
GT-Wifi,90:F6:52:E1:70:BC,WPA+AES-CCM WPA+PSK WPA+TKIP,-169.148481,-159.432347
Centre d'auto expert,90:F6:52:F4:61:D4,WPA+AES-CCM WPA+PSK WPA+TKIP,-169.145638,-165.572808
DIRECT-yP-BRAVIA,92:48:9A:4C:08:00,WPA+AES-CCM WPA+PSK,-126.191815,-159.436802
dlink,94:0C:6D:AC:52:64,WPA+AES-CCM WPA+PSK,-169.144867,-73.558514
TP-LINK_E8372C,94:0C:6D:E8:37:2C,WPA+AES-CCM WPA+PSK WPA+TKIP,-169.143741,-73.530472
Abaddon,94:10:3E:0F:32:7E,WPA+AES-CCM WPA+PSK WPA+TKIP,,
alexia,94:10:3E:7F:AA:A8,WPA+AES-CCM WPA+PSK WPA+TKIP,45.600037,-73.532822
maxim,94:10:3E:8A:8A:50,WPA+AES-CCM WPA+PSK WPA+TKIP,-169.148580,-127.220158
123GEANT,94:10:3E:8B:BA:AD,WPA+AES-CCM WPA+PSK,-97.554538,-73.547104
Mansours,94:10:3E:96:73:DB,WPA+AES-CCM WPA+PSK WPA+TKIP,-138.572047,-134.931759
Belkin.54CF,94:44:52:96:14:CF,WPA+AES-CCM WPA+PSK,45.603561,-73.531006
belkin.378f,94:44:52:E2:F7:8F,WPA+AES-CCM WPA+PSK,-169.146519,-159.431257
HP-Print-E3-Deskjet 2540 series,94:57:A5:48:A6:E3,WPA+AES-CCM WPA+PSK,,
HP-Print-8E-Officejet Pro 8620,94:57:A5:98:A1:8E,WPA+AES-CCM WPA+PSK,-176.177428,-170.557785
classic,94:B4:0F:6F:DE:80,WPA+AES-CCM,-154.933750,-159.474334
inventory,94:B4:0F:6F:DE:81,WPA+AES-CCM WPA+PSK,-169.250319,-159.474373
modern,94:B4:0F:6F:DE:82,WPA+AES-CCM,-126.300629,-159.474312
classic,94:B4:0F:6F:EC:40,WPA+AES-CCM,-138.571925,-134.931633
inventory,94:B4:0F:6F:EC:41,WPA+AES-CCM WPA+PSK,-169.250247,-73.574932
modern,94:B4:0F:6F:EC:42,WPA+AES-CCM,-169.250258,-145.157731
Comwave-79A6,94:D7:23:71:79:A8,WPA+AES-CCM WPA+PSK,-169.144929,-171.171113
VoyNikkaWifi,94:FB:B2:8B:2C:ED,WPA+AES-CCM WPA+PSK WPA+TKIP,-169.249044,-73.573524
Reliance Wireless,94:FB:B2:8B:39:E5,WPA+AES-CCM WPA+PSK WPA+TKIP,-149.726417,-151.663979
None,98:01:A7:E7:9B:5C,WPA+AES-CCM WPA+PSK,-149.728224,-151.665789
BELL826,98:2C:BE:2E:32:39,WEP,-169.138755,-175.266704
MaisonHandfield,98:DE:D0:67:6C:05,WPA+AES-CCM WPA+PSK,-169.143091,-145.115189
B882-45A9,98:E7:F5:F4:45:AE,WPA+AES-CCM WPA+PSK WPA+TKIP,-178.099661,-176.435374
WhiteGiraffe,98:FC:11:3F:18:82,WPA+AES-CCM WPA+PSK WPA+TKIP,45.604534,-73.542145
montreal,98:FC:11:53:55:4A,WPA+AES-CCM WPA+PSK WPA+TKIP,-169.151864,-73.535118
BBbeha,98:FC:11:6A:92:CB,WPA+AES-CCM WPA+PSK WPA+TKIP,-175.383693,-171.745174
BBbeha-guest,98:FC:11:6A:92:CC,None,-174.754394,-172.689123
Morningstar,98:FC:11:B3:4F:D9,WPA+AES-CCM WPA+PSK,-169.250068,-163.053147
None,9C:1C:12:ED:AA:C2,WPA+AES-CCM WPA+PSK,-169.250139,-73.574776
1809ux,9C:1C:12:ED:AA:C4,WPA+AES-CCM WPA+TKIP,-169.250184,-73.574829
URBAN_GUEST_WIFI,9C:1C:12:ED:AA:C5,None,-169.250265,-127.261953
None,9C:1C:12:EE:14:22,WPA+AES-CCM WPA+PSK,-169.250096,-169.018405
1809u,9C:1C:12:EE:14:23,WPA+AES-CCM WPA+TKIP,-169.250103,-145.157509
1809ux,9C:1C:12:EE:14:24,WPA+AES-CCM WPA+TKIP,-177.840029,-176.653907
URBAN_GUEST_WIFI,9C:1C:12:EE:14:25,None,-174.756480,-172.689364
PascAlex,9C:5C:8E:46:FC:78,WPA+AES-CCM WPA+PSK,-169.143646,-127.217799
ABI-Montreal,9C:5C:8E:B2:BC:68,WPA+AES-CCM WPA+PSK,-179.379831,-178.923045
TNCAP368ACB,9C:97:26:36:8A:CB,WPA+AES-CCM WPA+PSK WPA+TKIP,-169.147296,-73.532349
HP-Print-61-Officejet Pro 8620,9C:B6:54:5D:43:61,WPA+AES-CCM WPA+PSK,-126.196200,-159.436614
NETGEAR24,9C:D3:6D:B7:A8:B0,WPA+AES-CCM WPA+PSK,45.610813,-73.546463
dlink-F54D,9C:D6:43:30:F5:4F,WPA+AES-CCM WPA+PSK WPA+TKIP,-145.279621,-168.983345
jh2 exterieur ,9C:D6:43:89:8E:52,WPA+AES-CCM WPA+PSK WPA+TKIP,-169.143376,-127.218522
WIRELESS,9C:D6:43:C4:E1:18,WPA+AES-CCM WPA+PSK WPA+TKIP,-169.142595,-145.116843
BriJo7909,9C:D6:43:C8:E7:46,WPA+AES-CCM WPA+PSK WPA+TKIP,-169.147166,-145.115080
ThatNewNew,9C:D6:43:C8:E8:84,WPA+AES-CCM WPA+PSK WPA+TKIP,-169.140847,-73.539003
Elite Forex2,9C:D6:43:CF:18:38,WPA+AES-CCM WPA+PSK WPA+TKIP,-169.252283,-127.264129
DIRECT-gcPhaser 3260,9E:93:4E:39:29:A3,WPA+AES-CCM WPA+PSK,45.611046,-73.547119
DIRECT-g6Phaser 3260,9E:93:4E:3A:A5:EB,WPA+AES-CCM WPA+PSK,45.611347,-73.547729
DIRECT-v6-BRAVIA,9E:D2:1E:53:37:9F,WPA+AES-CCM WPA+PSK,-97.566753,-73.533607
bizcocity ,A0:1B:29:D7:47:3C,WPA+AES-CCM WPA+PSK,-169.249306,-73.573805
BELL244,A0:1B:29:D7:56:FC,WPA+AES-CCM WPA+PSK,-175.286883,-171.705134
AL-TAIB GRILLADE,A0:1B:29:D8:7A:44,WPA+AES-CCM WPA+PSK,,
ImadTelecom-8040-10,A0:1B:29:DA:06:C4,WPA+AES-CCM WPA+PSK,-154.833785,-159.433425
BELL606,A0:1B:29:DA:24:3C,WPA+AES-CCM WPA+PSK,-176.071016,-177.441251
BELL598,A0:1B:29:DA:58:94,WPA+AES-CCM WPA+PSK,45.605213,-73.558464
BELL924,A0:1B:29:DA:80:B4,WPA+AES-CCM WPA+PSK,,
BELL639,A0:1B:29:DC:DF:D4,WPA+AES-CCM WPA+PSK,-169.137968,-73.545563
private,A0:1B:29:E0:22:D6,WPA+AES-CCM WPA+PSK,,
BELL244,A0:1B:29:E0:49:2E,WPA+AES-CCM WPA+PSK,-169.250745,-73.575329
BELL676,A0:1B:29:E0:6E:36,WPA+AES-CCM WPA+PSK,-169.140989,-73.538685
Gateway 608,A0:1B:29:E3:18:4E,WPA+AES-CCM WPA+PSK,,
leocoq,A0:1B:29:E3:2F:7E,WPA+AES-CCM WPA+PSK,45.496338,-73.576859
BELL966,A0:1B:29:E3:5A:36,WPA+AES-CCM WPA+PSK,-169.137684,-165.581190
BELL653,A0:1B:29:E3:BE:BE,WPA+AES-CCM WPA+PSK,-175.383693,-177.880842
BELL612,A0:1B:29:E4:07:16,WPA+AES-CCM WPA+PSK,-169.144047,-145.113407
BELL210,A0:1B:29:E5:4C:EE,WPA+AES-CCM WPA+PSK,-126.301742,-159.476766
BELL167,A0:1B:29:E5:50:0E,WPA+AES-CCM WPA+PSK,-169.149110,-127.220444
BELL738,A0:1B:29:E5:CB:BE,WPA+AES-CCM WPA+PSK,-169.145969,-159.430965
BELL193,A0:1B:29:F6:3E:DE,WPA+AES-CCM WPA+PSK,-179.370020,-175.791726
BELL042,A0:1B:29:F6:40:B6,WPA+AES-CCM WPA+PSK,,
BELL829,A0:1B:29:F6:40:C6,WPA+AES-CCM WPA+PSK,-169.137859,-73.545792
BELL247,A0:1B:29:F6:4B:76,WPA+AES-CCM WPA+PSK,45.608692,-73.541687
BELL815,A0:1B:29:F6:E5:56,WPA+AES-CCM WPA+PSK,-126.202207,-159.434484
BELL440,A0:1B:29:F9:4E:B6,WPA+AES-CCM WPA+PSK,-169.139346,-145.125152
BELL590,A0:1B:29:F9:5A:86,WPA+AES-CCM WPA+PSK,-169.151542,-73.534195
BELL019,A0:1B:29:FA:86:CE,WPA+AES-CCM WPA+PSK,-169.150552,-145.116992
BELL981,A0:1B:29:FB:8C:06,WPA+AES-CCM WPA+PSK,-126.190934,-159.438859
HP-Print-3C-Officejet Pro X476dw,A0:1D:48:75:56:3C,WPA+AES-CCM WPA+PSK,,
NETGEAR,A0:21:B7:B4:A3:BA,WPA+AES-CCM WPA+PSK,-97.561843,-73.540179
HP-Print-5E-Officejet Pro 8620,A0:2B:B8:6B:6A:5E,None,45.497471,-73.575706
None,A0:55:4F:26:B2:E0,WPA+AES-CCM,45.499321,-73.573524
NETGEAR26,A0:63:91:37:C8:23,WPA+AES-CCM WPA+PSK,-169.149126,-73.533379
NETGEAR34,A0:63:91:88:5D:4A,WPA+AES-CCM WPA+PSK,-126.188273,-159.444950
NETGEAR29,A0:63:91:B8:7C:07,WPA+AES-CCM WPA+PSK,45.605087,-73.531723
mercredi,A0:63:91:BF:A3:01,WPA+AES-CCM WPA+PSK,45.606831,-73.537384
ois2k,A0:63:91:CA:CA:AF,WPA+AES-CCM WPA+PSK,-97.666202,-73.573563
DIRECT-C1-HP ENVY 4520 series,A0:8C:FD:41:2B:C2,WPA+AES-CCM WPA+PSK,-169.151067,-145.117330
DIRECT-F2-HP OfficeJet 6960,A0:8C:FD:F9:B5:F3,WPA+AES-CCM WPA+PSK,-169.145151,-73.538948
DIRECT-A7-HP OfficeJet 6960,A0:8C:FD:F9:DF:A8,WPA+AES-CCM WPA+PSK,45.609390,-73.543228
ConcordiaUniversity,A0:CF:5B:3D:38:00,WPA+AES-CCM WPA+TKIP,,
None,A0:CF:5B:3D:38:01,WEP,,
eduroam,A0:CF:5B:3D:38:02,WPA+AES-CCM,,
ConcordiaGuest,A0:CF:5B:3D:38:03,None,,
ConcordiaGuest,A0:CF:5B:3F:44:C3,None,45.497017,-73.577316
danielle,A0:E4:CB:F4:43:7C,WPA+AES-CCM WPA+PSK,-169.151702,-73.535004
VIDEOTRON3331,A0:E4:CB:F4:55:4C,WPA+AES-CCM WPA+PSK WPA+TKIP,45.603763,-73.558777
VIDEOTRON3709,A0:E4:CB:F4:5B:34,WPA+AES-CCM WPA+PSK WPA+TKIP,-126.188603,-159.444169
VIDEOTRON4646,A0:E4:CB:F4:69:D8,WPA+AES-CCM WPA+PSK WPA+TKIP,-97.562165,-73.539401
VIDEOTRON0533,A0:E4:CB:F4:81:14,WPA+AES-CCM WPA+PSK WPA+TKIP,45.603214,-73.538948
VIDEOTRON1231,A0:E4:CB:F4:8B:FC,WPA+AES-CCM WPA+PSK WPA+TKIP,-169.138805,-145.126448
VIDEOTRON2635,A0:E4:CB:F4:A1:EC,WPA+AES-CCM WPA+PSK WPA+TKIP,-169.148770,-159.432512
VIDEOTRON3632,A0:E4:CB:F4:B1:80,WPA+AES-CCM WPA+PSK WPA+TKIP,-97.555687,-73.544329
VIDEOTRON5325,A0:E4:CB:F4:CB:F4,WPA+AES-CCM WPA+PSK WPA+TKIP,-97.568892,-73.534757
VIDEOTRON3636,A0:E4:CB:F5:7C:14,WPA+AES-CCM WPA+PSK,-169.148942,-73.533279
VIDEOTRON4174,A0:E4:CB:F5:84:7C,WPA+AES-CCM WPA+PSK,-173.055939,-175.051862
VIDEOTRON4461,A0:E4:CB:F5:88:F8,WPA+AES-CCM WPA+PSK,-169.140056,-73.540710
VIDEOTRON2216,A0:E4:CB:F5:D1:5C,WPA+AES-CCM WPA+PSK,-97.667670,-73.575045
VIDEOTRON8549,A0:E4:CB:F6:34:50,WPA+AES-CCM WPA+PSK,-138.468001,-134.888495
VIDEOTRON1601,A0:E4:CB:F6:53:F0,WPA+AES-CCM WPA+PSK,-169.146141,-73.536564
VIDEOTRON2542,A0:E4:CB:F6:62:A4,WPA+AES-CCM WPA+PSK,45.604889,-73.531082
VIDEOTRON4026,A0:E4:CB:F6:79:D4,WPA+AES-CCM WPA+PSK WPA+TKIP,-178.487910,-166.903322
VIDEOTRON5839,A0:E4:CB:F6:96:28,WPA+AES-CCM WPA+PSK WPA+TKIP,45.498047,-73.575096
VIDEOTRON2694,A0:E4:CB:F6:D2:74,WPA+AES-CCM WPA+PSK WPA+TKIP,45.596607,-73.534935
VIDEOTRON2780,A0:E4:CB:F6:D3:CC,WPA+AES-CCM WPA+PSK WPA+TKIP,-169.143157,-73.532185
VIDEOTRON3162,A0:E4:CB:F6:D9:C4,WPA+AES-CCM WPA+PSK WPA+TKIP,-169.137422,-165.581859
VIDEOTRON3567,A0:E4:CB:F6:E0:18,WPA+AES-CCM WPA+PSK,-126.189132,-159.443049
legirlyshop,A0:E4:CB:F6:EB:40,WPA+AES-CCM WPA+PSK WPA+TKIP,-97.562285,-73.531151
VIDEOTRON6351,A0:E4:CB:F7:0B:98,WPA+AES-CCM WPA+PSK WPA+TKIP,45.596504,-73.535103
VIDEOTRON7594,A0:E4:CB:F7:1F:04,WPA+AES-CCM WPA+PSK WPA+TKIP,-149.625778,-151.623230
VIDEOTRON9203,A0:E4:CB:F7:38:28,WPA+AES-CCM WPA+PSK WPA+TKIP,45.603367,-73.539284
VIDEOTRON1155,A0:E4:CB:F7:70:4C,WPA+AES-CCM WPA+PSK,-169.141755,-73.536823
VIDEOTRON2734,A0:E4:CB:F7:88:F8,WPA+AES-CCM WPA+PSK,-169.148143,-159.432098
VIDEOTRON0397,A0:E4:CB:F7:F5:74,WPA+AES-CCM WPA+PSK WPA+TKIP,-169.147580,-73.532469
VIDEOTRON3431,A0:E4:CB:F8:6A:DC,WPA+AES-CCM WPA+PSK WPA+TKIP,-169.144475,-73.530800
VIDEOTRON4477,A0:E4:CB:F8:7B:34,WPA+AES-CCM WPA+PSK WPA+TKIP,45.602421,-73.531609
VIDEOTRON3944,A0:E4:CB:F8:A1:70,WPA+AES-CCM WPA+PSK WPA+TKIP,-126.190474,-159.439852
VIDEOTRON0260,A0:E4:CB:F8:BB:F0,WPA+AES-CCM WPA+PSK,45.609264,-73.542915
VIDEOTRON0554,A0:E4:CB:F8:C0:88,WPA+AES-CCM WPA+PSK,-169.141124,-73.538364
VIDEOTRON2917,A0:E4:CB:F8:E5:74,WPA+AES-CCM WPA+PSK WPA+TKIP,-126.195517,-159.438221
VIDEOTRON4438,A0:E4:CB:F8:FD:38,WPA+AES-CCM WPA+PSK,-97.555607,-73.544517
VIDEOTRON5262,A0:E4:CB:F9:0A:18,WPA+AES-CCM WPA+PSK WPA+TKIP,-169.142449,-159.433974
caromassage,A0:E4:CB:F9:4E:2C,WPA+AES-CCM WPA+PSK,45.603451,-73.539513
VIDEOTRON2988,A0:E4:CB:F9:71:F0,WPA+AES-CCM WPA+PSK,-169.145018,-127.226344
VIDEOTRON0168,A0:E4:CB:FA:01:64,WPA+AES-CCM WPA+PSK,-169.142384,-145.117591
VIDEOTRON3945,A0:E4:CB:FA:3C:68,WPA+AES-CCM WPA+PSK WPA+TKIP,-169.139076,-73.542969
VIDEOTRON8511,A0:E4:CB:FA:83:C0,WPA+AES-CCM WPA+PSK WPA+TKIP,45.610931,-73.556541
VIDEOTRON9074,A0:E4:CB:FA:8C:8C,WPA+AES-CCM WPA+PSK WPA+TKIP,-97.560400,-73.532026
KC Reseau,A0:E4:CB:FA:8C:E8,WPA+AES-CCM WPA+PSK,-169.145627,-73.537811
VIDEOTRON9862,A0:E4:CB:FA:98:DC,WPA+AES-CCM WPA+PSK WPA+TKIP,45.611347,-73.547729
rachid-Dz,A0:E4:CB:FA:A7:70,WPA+AES-CCM WPA+PSK,-97.560814,-73.530777
VIDEOTRON1385,A0:E4:CB:FA:CA:E8,WPA+AES-CCM WPA+PSK,-169.137760,-145.128797
VIDEOTRON1981,A0:E4:CB:FA:D4:38,WPA+AES-CCM WPA+PSK WPA+TKIP,45.609543,-73.543625
VIDEOTRON3523,A0:E4:CB:FA:EC:50,WPA+AES-CCM WPA+PSK WPA+TKIP,45.605583,-73.533409
VIDEOTRON3858,A0:E4:CB:FA:F1:8C,WPA+AES-CCM WPA+PSK,-97.557706,-73.539749
VIDEOTRON4507,A0:E4:CB:FA:FB:B0,WPA+AES-CCM WPA+PSK WPA+TKIP,-149.619934,-151.624724
Nomaan,A0:E4:CB:FB:06:E8,WPA+AES-CCM WPA+PSK WPA+TKIP,-169.251703,-73.576431
Goldorak,A0:E4:CB:FB:3B:30,WPA+AES-CCM WPA+PSK WPA+TKIP,-169.141290,-73.558434
VIDEOTRON9159,A0:E4:CB:FB:44:60,WPA+AES-CCM WPA+PSK WPA+TKIP,-126.194083,-159.458149
DeezNuts,A0:E4:CB:FB:46:90,WPA+AES-CCM WPA+PSK,-97.556639,-73.542163
VIDEOTRON3700,A0:E4:CB:FB:A5:94,WPA+AES-CCM WPA+PSK WPA+TKIP,45.612606,-73.550598
Bashir ,A0:E4:CB:FB:C8:DC,WPA+AES-CCM WPA+PSK,,
VIDEOTRON8439,A0:E4:CB:FB:EF:A0,WPA+AES-CCM WPA+PSK,-169.138803,-73.543701
VIDEOTRON1201,A0:E4:CB:FC:08:08,WPA+AES-CCM WPA+PSK WPA+TKIP,-126.191938,-159.436533
VIDEOTRON1314,A0:E4:CB:FC:09:CC,WPA+AES-CCM WPA+PSK WPA+TKIP,45.605217,-73.532158
VIDEOTRON1580,A0:E4:CB:FC:0D:F4,WPA+AES-CCM WPA+PSK,-169.250435,-165.610077
VIDEOTRON4623,A0:E4:CB:FC:3D:80,WPA+AES-CCM WPA+PSK WPA+TKIP,45.604599,-73.542290
VIDEOTRON0969,A0:E4:CB:FC:6A:20,WPA+AES-CCM WPA+PSK WPA+TKIP,-169.143607,-154.061403
VIDEOTRON2716,A0:E4:CB:FC:85:6C,WPA+AES-CCM WPA+PSK WPA+TKIP,-169.141981,-73.536133
VIDEOTRON1101,A0:E4:CB:FC:96:B0,WPA+AES-CCM WPA+PSK WPA+TKIP,-138.470729,-134.890023
VIDEOTRON1135,A0:E4:CB:FC:97:38,WPA+AES-CCM WPA+PSK WPA+TKIP,,
VIDEOTRON4049,A0:E4:CB:FC:C4:C0,WPA+AES-CCM WPA+PSK WPA+TKIP,-169.142898,-73.556892
VIDEOTRON5078,A0:E4:CB:FC:D4:D4,WPA+AES-CCM WPA+PSK WPA+TKIP,-169.151782,-154.065654
casa_optout,A0:E4:CB:FC:E1:04,WPA+AES-CCM WPA+PSK WPA+TKIP,-169.145894,-73.537220
VIDEOTRON6319,A0:E4:CB:FC:E8:38,WPA+AES-CCM WPA+PSK WPA+TKIP,-169.148763,-73.533127
VIDEOTRON4067,A0:E4:CB:FD:4E:88,WPA+AES-CCM WPA+PSK,-169.145137,-73.531189
VIDEOTRON5602,A0:E4:CB:FD:66:84,WPA+AES-CCM WPA+PSK,-97.566304,-73.533338
PlanetBlue2,A0:E4:CB:FD:7E:4C,WPA+AES-CCM WPA+PSK WPA+TKIP,-169.145639,-73.531448
VIDEOTRON0551,A0:E4:CB:FD:B2:98,WPA+AES-CCM WPA+PSK WPA+TKIP,-178.767093,-176.101110
VIDEOTRON0854,A0:E4:CB:FD:D2:D4,WPA+AES-CCM WPA+PSK WPA+TKIP,45.612579,-73.550499
VIDEOTRON0909,A0:E4:CB:FD:D3:B0,WPA+AES-CCM WPA+PSK,-126.191979,-159.436426
VIDEOTRON7733,A0:E4:CB:FE:3E:50,WPA+AES-CCM WPA+PSK WPA+TKIP,-169.141389,-73.537674
VIDEOTRON0586_2.4GHz,A0:E4:CB:FE:6A:E4,WPA+AES-CCM WPA+PSK WPA+TKIP,-97.668968,-73.576553
VIDEOTRON1409,A0:E4:CB:FE:77:C0,WPA+AES-CCM WPA+PSK,-149.620537,-151.622620
VIDEOTRON0379,A0:E4:CB:FE:93:68,WPA+AES-CCM WPA+PSK WPA+TKIP,-126.300666,-159.474447
VIDEOTRON0394,A0:E4:CB:FE:93:A4,WPA+AES-CCM WPA+PSK,-126.302064,-159.475849
VIDEOTRON0654,A0:E4:CB:FE:97:B4,WPA+AES-CCM WPA+PSK WPA+TKIP,-169.138872,-154.074142
VIDEOTRON2643,A0:E4:CB:FE:B6:C8,WPA+AES-CCM WPA+PSK,-97.557594,-73.539993
VIDEOTRON3498,A0:E4:CB:FE:C4:24,WPA+AES-CCM WPA+PSK WPA+TKIP,-169.142580,-73.534088
CoiffureLabbe,A0:E4:CB:FE:C4:4C,WPA+AES-CCM WPA+PSK,-126.194125,-159.429833
LabTest,A0:F3:C1:D7:7E:84,WPA+AES-CCM WPA+PSK,-174.755668,-172.688397
casa_optout_invites,A2:E4:CB:FC:E1:04,WPA+AES-CCM WPA+PSK WPA+TKIP,-169.145922,-73.537148
sasha,A4:2B:8C:8A:99:05,WPA+AES-CCM WPA+PSK WPA+TKIP,45.602180,-73.536377
TP-LINK_6439,A4:2B:B0:C6:64:39,WPA+AES-CCM WPA+PSK,,
TP-LINK_737D,A4:2B:B0:C6:73:7D,WPA+AES-CCM WPA+PSK,-169.251669,-159.475772
HP-Print-12-Photosmart 6520,A4:5D:36:57:0D:12,WPA+AES-CCM WPA+PSK,45.606140,-73.535309
HP-Print-05-Photosmart 7520,A4:5D:36:95:5A:05,None,-169.249313,-159.473125
HP-Print-4A-Officejet 6600,A4:5D:36:B8:7D:4A,WPA+AES-CCM WPA+PSK,-169.251953,-73.576822
TNCAP36B9C7,A4:B1:E9:A6:3D:D9,WPA+AES-CCM WPA+PSK WPA+TKIP,-169.142874,-159.432451
Nautilus,A4:E4:B8:02:93:DA,WPA+AES-CCM WPA+PSK,-169.248025,-73.574493
R-CW,AC:22:0B:33:D4:A0,WPA+AES-CCM WPA+PSK,45.599197,-73.533363
com,AC:22:0B:7C:8A:10,WPA+AES-CCM WPA+PSK,-157.834761,-163.967490
bidule,AC:22:0B:7C:8A:11,WPA+AES-CCM WPA+PSK WPA+TKIP,-169.137327,-171.159979
AFG2g,AC:22:0B:85:80:A8,WPA+AES-CCM WPA+PSK,-169.251385,-73.576082
PACE174,AC:5D:10:59:E5:72,WPA+AES-CCM WPA+PSK,45.601841,-73.531914
Kolandrey,AC:5D:10:B2:4B:EA,WPA+AES-CCM WPA+PSK,-177.096504,-168.976857
None,AC:7E:8A:1B:FF:05,None,45.498882,-73.574196
BELL115,AC:81:12:EA:47:24,WPA+AES-CCM WPA+PSK,-97.562980,-73.531517
BELL087,AC:81:12:EC:A2:04,WPA+AES-CCM WPA+PSK,45.608238,-73.540550
BELL299,AC:81:12:ED:06:64,WPA+AES-CCM WPA+PSK,-169.137992,-145.128287
BELL223,AC:81:12:ED:E4:74,WPA+AES-CCM WPA+PSK,-169.145914,-165.572185
Free Wi-Fi,AC:86:74:0F:53:FA,None,-169.250408,-165.610102
None,AC:86:74:0F:53:FB,WPA+AES-CCM WPA+PSK WPA+TKIP,-169.250379,-73.575111
Free Wi-Fi,AC:86:74:11:4F:5A,None,-97.667672,-73.575053
None,AC:86:74:11:4F:5B,WPA+AES-CCM WPA+PSK WPA+TKIP,45.497837,-73.574997
None,AC:86:74:41:15:E2,WPA+AES-CCM WPA+PSK WPA+TKIP,-169.250110,-145.157523
None,AC:86:74:41:16:62,WPA+AES-CCM WPA+PSK WPA+TKIP,-169.250131,-145.157573
None,AC:86:74:48:0B:62,WPA+AES-CCM WPA+PSK WPA+TKIP,-169.250843,-73.575562
MCB_Wireless2,AC:9E:17:44:28:C0,WPA+AES-CCM WPA+PSK,-177.916938,-178.717820
MCB_Invite2,AC:9E:17:44:28:C1,WPA+AES-CCM WPA+PSK WPA+TKIP,-175.287348,-177.841306
Pantum-AP-3D9DA9,AC:A2:13:3D:9D:A9,None,-177.837960,-176.653709
Pantum-AP-B637E8,AC:A2:13:B6:37:E8,WPA+AES-CCM WPA+PSK WPA+TKIP,-169.142405,-174.592788
BMOguest,AC:A3:1E:2B:12:20,None,-179.475785,-175.835319
Bdevice,AC:A3:1E:2B:12:21,WPA+AES-CCM WPA+PSK,-126.299976,-159.473546
Bmobile,AC:A3:1E:2B:12:22,WPA+AES-CCM,-169.249687,-145.156980
BMOguest,AC:A3:1E:2B:25:E0,None,-176.177008,-177.484707
Bdevice,AC:A3:1E:2B:25:E1,WPA+AES-CCM WPA+PSK,-169.249793,-145.157073
Bmobile,AC:A3:1E:2B:25:E2,WPA+AES-CCM,-169.249680,-145.157024
BMOguest,AC:A3:1E:2B:3C:40,None,-97.666821,-73.574181
Bdevice,AC:A3:1E:2B:3C:41,WPA+AES-CCM WPA+PSK,-126.299806,-159.473514
Bmobile,AC:A3:1E:2B:3C:42,WPA+AES-CCM,-97.666810,-73.574175
HP-Print-90-LaserJet Pro M201dw,AC:D1:B8:7D:7E:90,WPA+AES-CCM WPA+PSK,45.497433,-73.575760
12,AC:E0:69:10:0E:58,WPA+AES-CCM WPA+PSK,-97.568885,-73.534820
27,AC:E0:69:10:0E:59,WPA+AES-CCM WPA+PSK,-169.151679,-145.117614
VIDEOTRON3093,AC:F1:DF:5F:50:4E,WPA+AES-CCM WPA+PSK,-169.144811,-73.558971
peelcustomshop,AC:F1:DF:60:1B:7F,WPA+AES-CCM WPA+PSK WPA+TKIP,-177.837960,-176.653709
VIDEOTRON3494,AC:F1:DF:60:84:C4,WPA+AES-CCM WPA+PSK,,
VIDEOTRON0706,AC:F1:DF:60:8B:51,WPA+AES-CCM WPA+PSK,45.609970,-73.544517
chanson199,AC:F1:DF:60:9F:7F,WPA+AES-CCM WPA+PSK,-169.147352,-73.532379
VIDEOTRON3805,AC:F1:DF:60:A4:83,WPA+AES-CCM WPA+PSK,-169.140398,-73.539965
VIDEOTRON0225,AC:F1:DF:60:B2:F0,WPA+AES-CCM WPA+PSK,-157.836973,-163.962341
VIDEOTRON7647,AC:F1:DF:60:D8:82,WPA+AES-CCM WPA+PSK,-178.863624,-176.140877
Caf\303\251&Cie,AC:F1:DF:61:56:5E,WPA+AES-CCM WPA+PSK,,
VIDEOTRON6903,AC:F1:DF:61:96:33,WPA+AES-CCM WPA+PSK,-138.461598,-134.897661
VIDEOTRON4610,AC:F1:DF:61:AA:10,WPA+AES-CCM WPA+PSK,-97.557115,-73.541061
VIDEOTRON7285,AC:F1:DF:61:AB:9C,WPA+AES-CCM WPA+PSK,-97.557926,-73.539276
VIDEOTRON2618,AC:F1:DF:61:F6:C0,WPA+AES-CCM WPA+PSK,-138.466655,-134.895977
STEPH_ROUTEUR,AC:F1:DF:62:18:3E,WPA+AES-CCM WPA+PSK,45.603573,-73.558990
VIDEOTRON5047,AC:F1:DF:62:2D:B9,WPA+AES-CCM WPA+PSK,45.605472,-73.533028
VIDEOTRON9263,AC:F1:DF:62:A5:2C,WPA+AES-CCM WPA+PSK,-126.193374,-159.431888
BECK'S,AC:F1:DF:62:A9:CD,WPA+AES-CCM WPA+PSK,-97.666702,-73.574203
VIDEOTRON5835,AC:F1:DF:62:DF:6A,WPA+AES-CCM WPA+PSK,-126.193563,-159.431211
VIDEOTRON1667,AC:F1:DF:63:0A:12,WPA+AES-CCM WPA+PSK,-169.147172,-73.532288
VIDEOTRON6045,AC:F1:DF:63:88:81,WPA+AES-CCM WPA+PSK,-97.561059,-73.530492
VIDEOTRON6703,AC:F1:DF:63:8A:4C,WPA+AES-CCM WPA+PSK,-169.252138,-73.576942
VIDEOTRON6795,AC:F1:DF:63:A2:EE,WPA+AES-CCM WPA+PSK,-179.367237,-175.799503
VIDEOTRON9041,AC:F1:DF:63:E1:7C,WPA+AES-CCM WPA+PSK,-97.558028,-73.539068
VIDEOTRON5811,AC:F1:DF:63:F1:96,WPA+AES-CCM WPA+PSK,-169.139022,-145.125941
VIDEOTRON6539,AC:F1:DF:64:08:6D,WPA+AES-CCM WPA+PSK,45.610710,-73.546242
VIDEOTRON1039,AC:F1:DF:64:42:33,WPA+AES-CCM WPA+PSK,45.496689,-73.576378
VIDEOTRON3271,AC:F1:DF:64:DC:6E,WPA+AES-CCM WPA+PSK,-169.151859,-73.535103
VIDEOTRON5565,AC:F1:DF:65:5B:BE,WPA+AES-CCM WPA+PSK,45.599789,-73.533073
VIDEOTRON2303,AC:F1:DF:65:8A:DA,WPA+AES-CCM WPA+PSK,-169.147369,-73.532391
VIDEOTRON4776,AC:F1:DF:65:8B:FD,WPA+AES-CCM WPA+PSK,-126.190474,-159.439852
VIDEOTRON7441,AC:F1:DF:65:A7:66,WPA+AES-CCM WPA+PSK,-169.144929,-174.616277
VIDEOTRON8984,AC:F1:DF:65:B3:8A,WPA+AES-CCM WPA+PSK,45.606396,-73.536224
VIDEOTRON0259,AC:F1:DF:65:CE:B7,WPA+AES-CCM WPA+PSK,-97.565712,-73.532982
VIDEOTRON8538,AC:F1:DF:65:D2:68,WPA+AES-CCM WPA+PSK,45.601868,-73.535164
VIDEOTRON8073,AC:F1:DF:66:1D:6B,WPA+AES-CCM WPA+PSK,-97.563890,-73.532003
VIDEOTRON0378,AC:F1:DF:66:3C:40,WPA+AES-CCM WPA+PSK,-126.191566,-159.437412
VIDEOTRON0960,AC:F1:DF:66:4F:B1,WPA+AES-CCM WPA+PSK,-169.144880,-73.558197
VIDEOTRON4302,AC:F1:DF:66:61:DE,WPA+AES-CCM WPA+PSK,45.603546,-73.558983
VIDEOTRON7168,AC:F1:DF:66:7A:3B,WPA+AES-CCM WPA+PSK,45.610615,-73.546020
VIDEOTRON,AC:F1:DF:66:A8:B8,WPA+AES-CCM WPA+PSK,-169.142015,-73.536037
VIDEOTRON9281,AC:F1:DF:67:60:30,WPA+AES-CCM WPA+PSK,-169.146284,-127.222919
VIDEOTRON3481,AC:F1:DF:67:84:00,WPA+AES-CCM WPA+PSK,45.596447,-73.535255
VIDEOTRON1242,AC:F1:DF:67:85:9E,WPA+AES-CCM WPA+PSK,-169.139124,-127.229950
VIDEOTRON3505,AC:F1:DF:67:8B:02,WPA+AES-CCM WPA+PSK,-169.145818,-73.531540
VIDEOTRON7715,AC:F1:DF:67:C6:EA,WPA+AES-CCM WPA+PSK,45.598061,-73.534065
VIDEOTRON3247,AC:F1:DF:67:D7:2B,WPA+AES-CCM WPA+PSK,-169.142559,-159.433549
TheCoven,AC:F1:DF:68:13:9A,WPA+AES-CCM WPA+PSK WPA+TKIP,-126.196537,-159.435566
VIDEOTRON6716,AC:F1:DF:68:1A:15,WPA+AES-CCM WPA+PSK,-152.622080,-172.652838
DANIELLE_Network,AC:F1:DF:C8:BB:A2,WPA+AES-CCM WPA+PSK WPA+TKIP,45.607185,-73.538200
rene,B0:48:7A:A2:A9:C4,WPA+AES-CCM WPA+PSK WPA+TKIP,-169.143499,-171.143920
DIRECT-1B-HP ENVY 5640 series,B0:5A:DA:6A:1A:1C,WPA+AES-CCM WPA+PSK,-97.557926,-73.539276
None,B0:A7:37:0F:92:AF,WPA+AES-CCM WPA+PSK,-97.561175,-73.530548
None,B0:A7:37:14:2B:5F,WPA+AES-CCM WPA+PSK,45.610710,-73.546242
None,B0:A7:37:1F:34:CD,WPA+AES-CCM WPA+PSK,45.603573,-73.558990
None,B0:A7:37:22:FC:0D,WPA+AES-CCM WPA+PSK,-169.138543,-73.544210
None,B0:A7:37:B3:A4:41,WPA+AES-CCM WPA+PSK,-97.567268,-73.533928
kone-mobile,B0:AA:77:A8:81:40,WPA+AES-CCM WPA+PSK,-169.252485,-73.577457
kone-office,B0:AA:77:A8:81:42,WPA+AES-CCM,45.495811,-73.577484
DCS-933L-E7C6,B0:C5:54:14:E7:C6,WPA+AES-CCM WPA+PSK,-169.251671,-159.475755
dlink-E490,B0:C5:54:D7:E4:90,WPA+AES-CCM WPA+PSK WPA+TKIP,45.605263,-73.532356
IDEXXw1,B0:C7:45:75:1B:DA,WPA+AES-CCM WPA+PSK WPA+TKIP,45.610710,-73.546242
LabStation Guest,B2:C7:45:75:1B:DA,WPA+AES-CCM WPA+PSK WPA+TKIP,45.610710,-73.546242
Morgan Web Team,B4:18:D1:E9:FD:4F,WPA+AES-CCM WPA+PSK,-169.252460,-73.577297
mrk\342\200\231s iMac,B4:18:D1:F1:3E:55,WPA+AES-CCM WPA+PSK,-169.252408,-73.577080
Linksys12153,B4:75:0E:5C:23:21,WPA+AES-CCM WPA+PSK,-126.196287,-159.436417
VIDEOTRON3603,B4:75:0E:86:85:DE,WPA+AES-CCM WPA+PSK WPA+TKIP,45.599110,-73.533424
CuivreTaureau,B4:75:0E:AF:41:F2,WPA+AES-CCM WPA+PSK WPA+TKIP,-97.563330,-73.536588
CuivreTaureau-visiteur,B4:75:0E:AF:41:F4,None,-97.563277,-73.536746
Linksys01211,B4:75:0E:AF:F3:66,WPA+AES-CCM WPA+PSK,-178.587852,-166.944648
awconcordia,B4:75:0E:C4:14:88,WPA+AES-CCM WPA+PSK WPA+TKIP,,
BronzeEscargot-visiteur,B4:75:0E:C4:25:83,None,45.606541,-73.536652
FrancavillaResidence,B4:75:0E:F8:5E:96,WPA+AES-CCM WPA+PSK WPA+TKIP,45.498791,-73.574219
ConcordiaUniversity,B4:A4:E3:58:36:30,WPA+AES-CCM WPA+TKIP,,
None,B4:A4:E3:58:36:31,WEP,,
eduroam,B4:A4:E3:58:36:32,WPA+AES-CCM,,
ConcordiaGuest,B4:A4:E3:58:36:33,None,,
ConcordiaUniversity,B4:A4:E3:58:DC:70,WPA+AES-CCM WPA+TKIP,,
None,B4:A4:E3:58:DC:71,WEP,,
eduroam,B4:A4:E3:58:DC:72,WPA+AES-CCM,,
ConcordiaGuest,B4:A4:E3:58:DC:73,None,,
HP-Print-3A-Officejet 6600,B4:B5:2F:19:EB:3A,WPA+AES-CCM WPA+PSK,-169.151581,-73.534222
zamzam_hb,B8:55:10:44:66:5C,WPA+PSK WPA+TKIP,-126.195150,-159.458196
s3cur!ty,B8:8D:12:61:6B:A5,WPA+AES-CCM WPA+PSK,-169.251727,-172.691121
None,B8:A1:75:26:A1:FF,WPA+AES-CCM WPA+PSK,-97.565485,-73.532900
dlink,B8:A3:86:4F:7E:14,WPA+AES-CCM WPA+PSK WPA+TKIP,-97.562713,-73.531380
Reseau de Gamin,B8:C7:5D:08:0A:4D,WPA+AES-CCM WPA+PSK,-152.632560,-172.649274
FAB,B8:C7:5D:0B:5A:3D,WPA+AES-CCM WPA+PSK,-178.475667,-166.912589
Berri-MM-Tabagie,B8:E6:25:22:76:09,WPA+AES-CCM WPA+PSK,,
Reseau Iinvites de Gamin,BA:C7:5D:08:0A:40,WPA+AES-CCM WPA+PSK,-169.151607,-168.978203
None,BC:67:1C:E4:98:B0,WPA+AES-CCM WPA+PSK,-157.849075,-163.954612
ASCQ-2.4Ghz,BC:EE:7B:55:37:92,WPA+AES-CCM WPA+PSK,-154.935522,-159.476259
IAVM,BC:EE:7B:97:45:CD,WPA+AES-CCM WPA+PSK WPA+TKIP,-169.252143,-73.576969
CIELO,BC:EE:7B:97:49:44,WPA+AES-CCM WPA+PSK,-169.249672,-73.574247
Bell718,BC:EE:7B:F4:9F:D8,WPA+AES-CCM WPA+PSK,-169.146237,-127.223174
restaurantferrari,BC:F6:85:41:66:27,WPA+AES-CCM WPA+PSK WPA+TKIP,-97.668929,-73.576449
eduroam,C0:25:5C:C7:0E:72,WPA+AES-CCM,,
HP-Print-F4-LaserJet 1102,C0:38:96:21:F5:F4,None,-97.561735,-73.530820
DNH,C0:3F:0E:2A:3B:80,WPA+AES-CCM WPA+PSK WPA+TKIP,-97.668738,-73.576378
homebearbs1968,C0:3F:0E:67:32:C0,WPA+AES-CCM WPA+PSK,-126.196008,-159.430820
Patricia,C0:3F:0E:87:E7:12,WPA+AES-CCM WPA+PSK,-145.289444,-168.977811
NETGEAR,C0:3F:0E:E1:85:92,WPA+AES-CCM WPA+PSK WPA+TKIP,-169.141649,-145.119875
MAISON_2.4,C0:4A:00:38:62:73,WPA+AES-CCM WPA+PSK,45.602734,-73.537811
Mazagan-Telecom 125,C0:4A:00:DE:0B:DA,WPA+AES-CCM WPA+PSK WPA+TKIP,45.603683,-73.530929
ElJayZod,C0:56:27:30:68:25,WPA+AES-CCM WPA+PSK WPA+TKIP,-126.200406,-159.433262
ElJayZod-visiteur,C0:56:27:30:68:27,None,-169.150085,-73.533913
AmbrePoisson,C0:56:27:32:3C:8C,WPA+AES-CCM WPA+PSK WPA+TKIP,-169.137814,-159.445224
Linksys15485,C0:56:27:35:2E:E7,WPA+AES-CCM WPA+PSK,,
TiJim-visiteur,C0:56:27:44:DF:DC,None,-169.138801,-73.543705
cathyol,C0:56:27:65:3A:2E,WPA+AES-CCM WPA+PSK WPA+TKIP,-126.187345,-159.447075
Linksys02828,C0:56:27:66:9C:56,WPA+AES-CCM WPA+PSK,-169.144973,-73.539345
Linksys24206,C0:56:27:73:57:38,WPA+AES-CCM WPA+PSK,-169.139951,-145.123749
VIDEOTRON9159_Ext,C0:56:27:99:31:56,WPA+AES-CCM WPA+PSK WPA+TKIP,-169.143432,-73.558788
Teksavvy_203_24,C0:56:27:C4:26:7C,WPA+AES-CCM WPA+PSK WPA+TKIP,-169.145756,-165.566523
Caserne 28,C0:56:27:C9:B7:E9,WPA+AES-CCM WPA+PSK WPA+TKIP,-179.370990,-179.228465
BELL024,C0:83:0A:53:EA:B9,WEP,-176.078987,-170.517381
2WIRE206,C0:83:0A:A7:BB:C1,WEP,45.604748,-73.543449
cocobun,C0:83:0A:AD:1C:79,WPA+AES-CCM WPA+PSK WPA+TKIP,,
LV Spa,C0:83:0A:D9:92:21,WPA+AES-CCM WPA+PSK WPA+TKIP,-169.249651,-73.574192
dlink-260E,C0:A0:BB:19:26:0E,WPA+AES-CCM WPA+PSK WPA+TKIP,-169.146150,-127.218805
C-ANOUS,C0:A0:BB:4E:2F:20,WPA+AES-CCM WPA+PSK WPA+TKIP,-126.188741,-159.443816
C-ANOUS-INVITE,C0:A0:BB:4E:2F:21,WPA+AES-CCM WPA+PSK WPA+TKIP,-169.138395,-73.544517
VIDEOTRON3746,C0:A0:BB:9F:A6:37,WPA+AES-CCM WPA+PSK,-126.196560,-159.435418
VIDEOTRON6145,C0:A0:BB:A0:1B:88,WPA+AES-CCM WPA+PSK,45.603573,-73.558990
VIDEOTRON2838,C0:A0:BB:A0:61:E4,WPA+AES-CCM WPA+PSK,-169.149730,-145.116505
VIDEOTRON6999,C0:A0:BB:A0:83:C5,WPA+AES-CCM WPA+PSK,-169.143510,-168.974726
Artim V,C0:A0:BB:A0:C9:7C,WPA+AES-CCM WPA+PSK,-178.588616,-166.945338
VIDEOTRON1820,C0:A0:BB:A1:18:A5,WPA+AES-CCM WPA+PSK,-175.933129,-177.518306
VIDEOTRON2125,C0:A0:BB:A1:28:23,WPA+AES-CCM WPA+PSK,45.610153,-73.557136
VIDEOTRON2746,C0:A0:BB:A1:44:E8,WPA+AES-CCM WPA+PSK,45.608681,-73.541634
VIDEOTRON3161,C0:A0:BB:A1:7A:10,WPA+AES-CCM WPA+PSK,-149.621617,-151.620972
VIDEOTRON9278,C0:A0:BB:A1:89:9D,WPA+AES-CCM WPA+PSK,-169.137797,-159.445280
VIDEOTRON9569,C0:A0:BB:A1:8A:60,WPA+AES-CCM WPA+PSK,45.609264,-73.542915
VIDEOTRON0846,C0:A0:BB:A2:1E:E3,WPA+AES-CCM WPA+PSK,-176.072175,-170.542069
VIDEOTRON3372,C0:A0:BB:A2:A3:EE,WPA+AES-CCM WPA+PSK,45.598930,-73.533562
VIDEOTRON5980,C0:A0:BB:A2:AA:B1,WPA+AES-CCM WPA+PSK,45.607254,-73.538406
VIDEOTRON5561,C0:A0:BB:A2:BB:B8,WPA+AES-CCM WPA+PSK,-169.137655,-73.546242
VIDEOTRON8915,C0:A0:BB:A2:C8:A2,WPA+AES-CCM WPA+PSK,-176.556692,-177.206414
VIDEOTRON0806,C0:A0:BB:A2:F9:D7,WPA+AES-CCM WPA+PSK,-169.142745,-73.533531
VIDEOTRON1471,C0:A0:BB:A2:FA:37,WPA+AES-CCM WPA+PSK,-126.196206,-159.430921
VIDEOTRON1870,C0:A0:BB:A3:10:0F,WPA+AES-CCM WPA+PSK,-169.144788,-127.246087
dlink-C9F0c9f0,C0:A0:BB:C6:C9:F0,WPA+AES-CCM WPA+PSK WPA+TKIP,-169.142754,-73.533501
Dlink,C0:A0:BB:C8:14:EE,WPA+AES-CCM WPA+PSK WPA+TKIP,45.605007,-73.543243
Manic,C0:A0:BB:E3:C0:AC,WPA+AES-CCM WPA+PSK WPA+TKIP,-152.627200,-172.650418
dlink-A76A,C0:A0:BB:E5:A7:6A,WPA+AES-CCM WPA+PSK WPA+TKIP,45.596504,-73.535103
aigle blanc,C0:A0:BB:EB:C8:F7,WPA+AES-CCM WPA+PSK WPA+TKIP,45.603340,-73.531128
cheddar,C0:A0:BB:F8:00:D4,WPA+AES-CCM WPA+PSK WPA+TKIP,45.605110,-73.558693
LESP&MART,C0:C1:C0:07:2B:06,WPA+AES-CCM WPA+PSK,-126.302581,-159.476346
ToniR,C0:C1:C0:22:B2:47,WPA+AES-CCM WPA+PSK,-169.249125,-127.260728
w2lakreyola.net,C0:C1:C0:3F:59:40,WPA+PSK WPA+TKIP,-178.091621,-171.957103
scientificatlatis,C0:C1:C0:51:CD:46,WPA+AES-CCM WPA+PSK,-149.727138,-151.664503
Reseau macwin,C0:C1:C0:7B:C4:0C,WPA+AES-CCM WPA+PSK,45.603763,-73.558777
DansLeCul,C0:C1:C0:9E:7D:92,WPA+AES-CCM WPA+PSK WPA+TKIP,-169.145303,-127.225716
DansLeCul-visiteur,C0:C1:C0:9E:7D:93,None,-169.145279,-127.225771
Cisco59585,C0:C1:C0:DD:1D:03,WPA+AES-CCM WPA+PSK,45.606831,-73.537384
C3VN,C0:C1:C0:DD:2B:13,WPA+AES-CCM WPA+PSK WPA+TKIP,-169.251699,-73.576424
admin,C0:C1:C0:DD:8C:B2,WPA+AES-CCM WPA+PSK WPA+TKIP,-169.138490,-73.544281
KaNuK,C0:C1:C0:F1:C4:F4,WPA+AES-CCM WPA+PSK WPA+TKIP,-126.189998,-159.441031
yummy,C0:C1:C0:FE:04:0C,None,45.500340,-73.574493
None,C0:C1:C0:FE:04:0E,None,-169.248025,-73.574493
RTE-Guest,C0:EA:E4:B5:A0:D4,WPA+AES-CCM WPA+PSK WPA+TKIP,-169.250244,-73.574850
RTE-Guest,C0:EA:E4:B6:7A:F0,WPA+AES-CCM WPA+PSK WPA+TKIP,-179.987872,-170.211832
NETGEAR07,C0:FF:D4:8F:5E:6C,WPA+AES-CCM WPA+PSK,-152.617748,-172.662707
NETGEAR56,C0:FF:D4:92:E7:CC,WPA+AES-CCM WPA+PSK,-169.252329,-172.691725
DNH_GUEST,C2:3F:0E:2A:3B:81,WPA+AES-CCM WPA+PSK WPA+TKIP,-169.251469,-145.159050
None,C2:56:27:65:3A:20,WPA+AES-CCM WPA+PSK,45.611347,-73.547729
Linksys24206-guest,C2:56:27:73:57:3A,None,-149.617310,-151.631436
Teksavvy_203-invit\303\251,C2:56:27:C4:26:7C,None,-149.623218,-151.621845
Nvizzio2,C2:9F:DB:1C:D5:28,WPA+AES-CCM WPA+PSK,-169.252329,-169.020871
STCMAC,C2:9F:DB:1C:D7:94,WPA+AES-CCM WPA+PSK,-169.252434,-73.577372
None,C2:9F:DB:6B:6E:70,WPA+AES-CCM WPA+PSK WPA+TKIP,45.498379,-73.574570
STCATHYS,C2:9F:DB:9D:03:AD,WPA+AES-CCM WPA+PSK,-149.729653,-151.667647
STCMAC,C2:9F:DB:B2:22:69,WPA+AES-CCM WPA+PSK,-169.252389,-159.476632
STCMAC,C2:9F:DB:B2:22:AF,WPA+AES-CCM WPA+PSK,45.495956,-73.577080
STCMAC,C2:9F:DB:B2:67:5C,WPA+AES-CCM WPA+PSK,-173.635030,-178.760149
Interpaul-B,C2:9F:DB:F1:86:BA,WPA+AES-CCM WPA+PSK WPA+TKIP,-169.252173,-159.476297
MEI (FREE/GRATUIT),C2:FF:D4:92:E7:CD,None,-179.619372,-177.248646
CIK0698,C4:09:38:4A:51:B5,WPA+AES-CCM WPA+PSK WPA+TKIP,-169.148560,-127.220078
dlink-A6B8,C4:12:F5:66:A6:B8,WPA+AES-CCM WPA+PSK WPA+TKIP,-169.143844,-73.558636
dlink-B5D2,C4:12:F5:75:B5:D2,WPA+AES-CCM WPA+PSK WPA+TKIP,-174.657615,-172.649187
dlink-F152,C4:12:F5:78:F1:52,WPA+AES-CCM WPA+PSK WPA+TKIP,-179.476143,-178.844270
dlink-F542,C4:12:F5:7C:F5:42,WPA+AES-CCM WPA+PSK WPA+TKIP,-169.146294,-159.431144
HP-Print-52-Officejet Pro 8620,C4:34:6B:10:1D:52,WPA+AES-CCM WPA+PSK,-169.145400,-73.531323
TP-LINK_5F3ED1,C4:6E:1F:5F:3E:D1,WPA+AES-CCM WPA+PSK WPA+TKIP,45.609875,-73.544281
TPLINK1,C4:6E:1F:AE:EE:E4,WPA+AES-CCM WPA+PSK WPA+TKIP,-179.308655,-179.458028
None,C4:6E:1F:F0:3D:E6,WPA+AES-CCM WPA+PSK,-126.198025,-159.431907
ConcordiaUniversity,C4:7D:4F:4C:40:C0,WPA+AES-CCM WPA+TKIP,,
None,C4:7D:4F:4C:40:C1,WEP,,
eduroam,C4:7D:4F:4C:40:C2,WPA+AES-CCM,,
ConcordiaGuest,C4:7D:4F:4C:40:C3,None,,
NETGEAR10,C4:E9:84:4A:92:10,WPA+AES-CCM WPA+PSK WPA+TKIP,-97.564932,-73.532575
DIRECT-93-HP M277 LaserJet,C6:8E:8F:5C:24:93,WPA+AES-CCM WPA+PSK,-97.666576,-73.574028
None,C6:9F:DB:6B:6E:70,WPA+AES-CCM WPA+PSK WPA+TKIP,-169.249986,-73.574570
STCMAC,C6:9F:DB:9D:03:AD,WPA+AES-CCM WPA+PSK,-97.669356,-73.577365
josorio,C8:3A:35:08:15:A0,WPA+AES-CCM WPA+PSK WPA+TKIP,-169.144180,-73.530632
Tenda,C8:3A:35:27:0D:38,None,,
VIF WIFI LM,C8:3A:35:5B:9E:48,WPA+AES-CCM WPA+PSK WPA+TKIP,45.605377,-73.558243
Salle-Conference,C8:4C:75:20:B9:D6,WPA+AES-CCM WPA+PSK,-97.668322,-73.577545
BELL655,C8:91:F9:BE:5D:BE,WPA+AES-CCM WPA+PSK,45.604256,-73.558708
BELL307,C8:91:F9:BE:EC:7E,WPA+AES-CCM WPA+PSK,45.496174,-73.577080
BELL159,C8:91:F9:C0:78:AE,WPA+AES-CCM WPA+PSK,45.604412,-73.558701
BELL031,C8:91:F9:C0:8A:66,WPA+AES-CCM WPA+PSK,-169.151620,-159.433594
BELL899,C8:91:F9:C3:83:36,WPA+AES-CCM WPA+PSK,-174.955506,-178.006921
BELL114,C8:91:F9:C3:AC:0E,WPA+AES-CCM WPA+PSK,45.496155,-73.577065
BELL502,C8:91:F9:C5:DA:EE,WPA+AES-CCM WPA+PSK,-154.935011,-159.475693
National,C8:B3:73:0F:4A:16,WPA+AES-CCM WPA+PSK WPA+TKIP,,
Network-2,C8:B3:73:0F:D5:BA,WPA+AES-CCM WPA+PSK,45.603905,-73.540596
Reseau927,C8:B3:73:15:37:4A,WPA+AES-CCM WPA+PSK,45.601189,-73.532295
Murielle,C8:B3:73:3E:19:C7,WPA+AES-CCM WPA+PSK WPA+TKIP,-169.138002,-145.128272
BruyantPoisson,C8:B3:73:45:58:34,WPA+AES-CCM WPA+PSK WPA+TKIP,45.604534,-73.530487
BruyantPoisson-visiteur,C8:B3:73:45:58:35,None,45.604534,-73.530487
rezopam,C8:BE:19:62:F6:F9,WPA+AES-CCM WPA+PSK WPA+TKIP,45.610065,-73.544746
ANNIE-PC_Network,C8:BE:19:6D:F9:13,WPA+AES-CCM WPA+PSK,-169.140923,-73.538847
Polanco,C8:BE:19:6E:49:E3,WPA+AES-CCM WPA+PSK WPA+TKIP,-179.723555,-178.329793
eddine,C8:BE:19:72:48:00,WPA+AES-CCM WPA+PSK WPA+TKIP,-169.145106,-145.121846
BELL948,C8:CD:72:D7:54:6B,WPA+PSK WPA+TKIP,45.607757,-73.539513
BELL962,C8:CD:72:DA:A0:73,WPA+AES-CCM WPA+PSK,-169.150951,-159.433854
BELL889,C8:CD:72:DA:D7:93,WPA+AES-CCM WPA+PSK,-97.563598,-73.535522
BELL020,C8:CD:72:E2:DE:87,WPA+AES-CCM WPA+PSK,-97.555416,-73.544983
BELL277,C8:CD:72:E3:05:4F,WPA+AES-CCM WPA+PSK,45.605301,-73.532516
BELL973,C8:CD:72:E3:52:0F,WPA+AES-CCM WPA+PSK,-169.138779,-173.759641
BELL548**,C8:CD:72:E3:C9:FF,WPA+AES-CCM WPA+PSK,-97.563430,-73.531749
BELL105,C8:CD:72:E4:3A:4F,WPA+AES-CCM WPA+PSK,45.605469,-73.558281
Whiskey,C8:D3:A3:53:3F:8C,WPA+AES-CCM WPA+PSK,-169.150417,-165.569133
INFLUENCEU,C8:D3:A3:55:6B:E0,WPA+AES-CCM WPA+PSK WPA+TKIP,-169.252347,-145.159860
gohabsgo,C8:D3:A3:57:9E:9E,WEP,45.599716,-73.533035
Annie,C8:D3:A3:57:E5:F2,WPA+AES-CCM WPA+PSK WPA+TKIP,45.609558,-73.543701
None,C8:D3:A3:5C:29:EB,WPA+AES-CCM WPA+PSK WPA+TKIP,,
BEN&NAN,C8:D3:A3:63:D8:D4,WPA+AES-CCM WPA+PSK WPA+TKIP,-169.139709,-145.124363
dlink-F9A2,C8:D3:A3:64:F9:A2,WPA+AES-CCM WPA+PSK WPA+TKIP,-138.473382,-134.891880
Gregory Charles Is So Sexy <3,C8:D3:A3:69:96:97,WPA+AES-CCM WPA+PSK WPA+TKIP,-169.140238,-159.439652
gauthier,C8:D3:A3:6E:8E:61,WPA+AES-CCM WPA+PSK WPA+TKIP,-169.143064,-73.532516
DRACO6,C8:D3:A3:6E:8E:A3,WPA+AES-CCM WPA+PSK WPA+TKIP,-97.562059,-73.558751
dlink-0646,C8:D3:A3:6F:06:46,WPA+AES-CCM WPA+PSK WPA+TKIP,-169.151880,-145.117948
douadidi,C8:D7:19:33:E2:CB,WPA+AES-CCM WPA+PSK WPA+TKIP,-157.843666,-163.956555
martinsavoie,C8:D7:19:CE:87:52,WPA+AES-CCM WPA+PSK WPA+TKIP,-169.145624,-73.537826
bob2,C8:D7:19:DD:76:AB,WPA+AES-CCM WPA+PSK WPA+TKIP,-169.142263,-73.535172
ConcordiaUniversity,C8:F9:F9:2B:A8:70,WPA+AES-CCM WPA+TKIP,,
None,C8:F9:F9:2B:A8:71,WEP,,
eduroam,C8:F9:F9:2B:A8:72,WPA+AES-CCM,,
ConcordiaGuest,C8:F9:F9:2B:A8:73,None,,
ConcordiaUniversity,C8:F9:F9:88:BF:D0,WPA+AES-CCM WPA+TKIP,,
None,C8:F9:F9:88:BF:D1,WEP,,
eduroam,C8:F9:F9:88:BF:D2,WPA+AES-CCM,,
ConcordiaGuest,C8:F9:F9:88:BF:D3,None,,
ConcordiaUniversity,C8:F9:F9:89:80:10,WPA+AES-CCM WPA+TKIP,,
None,C8:F9:F9:89:80:11,WEP,,
eduroam,C8:F9:F9:89:80:12,WPA+AES-CCM,,
ConcordiaGuest,C8:F9:F9:89:80:13,None,,
ConcordiaUniversity,C8:F9:F9:89:F4:A0,WPA+AES-CCM WPA+TKIP,,
None,C8:F9:F9:89:F4:A1,WEP,,
eduroam,C8:F9:F9:89:F4:A2,WPA+AES-CCM,,
ConcordiaGuest,C8:F9:F9:89:F4:A3,None,,
ConcordiaUniversity,C8:F9:F9:A0:82:60,WPA+AES-CCM WPA+TKIP,,
None,C8:F9:F9:A0:82:61,WEP,,
eduroam,C8:F9:F9:A0:82:62,WPA+AES-CCM,,
ConcordiaGuest,C8:F9:F9:A0:82:63,None,,
ConcordiaUniversity,C8:F9:F9:A0:83:00,WPA+AES-CCM WPA+TKIP,,
None,C8:F9:F9:A0:83:01,WEP,,
eduroam,C8:F9:F9:A0:83:02,WPA+AES-CCM,,
ConcordiaGuest,C8:F9:F9:A0:83:03,None,,
ConcordiaUniversity,C8:F9:F9:A0:8A:80,WPA+AES-CCM WPA+TKIP,,
None,C8:F9:F9:A0:8A:81,WEP,,
eduroam,C8:F9:F9:A0:8A:82,WPA+AES-CCM,,
ConcordiaGuest,C8:F9:F9:A0:8A:83,None,,
ConcordiaUniversity,C8:F9:F9:A0:D1:00,WPA+AES-CCM WPA+TKIP,,
None,C8:F9:F9:A0:D1:01,WEP,,
eduroam,C8:F9:F9:A0:D1:02,WPA+AES-CCM,,
ConcordiaGuest,C8:F9:F9:A0:D1:03,None,,
ConcordiaUniversity,C8:F9:F9:A0:E5:E0,WPA+AES-CCM WPA+TKIP,,
None,C8:F9:F9:A0:E5:E1,WEP,,
eduroam,C8:F9:F9:A0:E5:E2,WPA+AES-CCM,,
ConcordiaGuest,C8:F9:F9:A0:E5:E3,None,,
ConcordiaUniversity,C8:F9:F9:A0:E9:30,WPA+AES-CCM WPA+TKIP,,
None,C8:F9:F9:A0:E9:31,WEP,,
eduroam,C8:F9:F9:A0:E9:32,WPA+AES-CCM,,
ConcordiaGuest,C8:F9:F9:A0:E9:33,None,,
ConcordiaUniversity,C8:F9:F9:A0:EE:60,WPA+AES-CCM WPA+TKIP,,
None,C8:F9:F9:A0:EE:61,WEP,,
eduroam,C8:F9:F9:A0:EE:62,WPA+AES-CCM,,
ConcordiaGuest,C8:F9:F9:A0:EE:63,None,,
ConcordiaUniversity,C8:F9:F9:A1:28:D0,WPA+AES-CCM WPA+TKIP,,
None,C8:F9:F9:A1:28:D1,WEP,,
eduroam,C8:F9:F9:A1:28:D2,WPA+AES-CCM,,
ConcordiaGuest,C8:F9:F9:A1:28:D3,None,,
ConcordiaUniversity,C8:F9:F9:A1:35:60,WPA+AES-CCM WPA+TKIP,,
None,C8:F9:F9:A1:35:61,WEP,,
eduroam,C8:F9:F9:A1:35:62,WPA+AES-CCM,,
ConcordiaGuest,C8:F9:F9:A1:35:63,None,,
ConcordiaUniversity,C8:F9:F9:A6:11:40,WPA+AES-CCM WPA+TKIP,,
None,C8:F9:F9:A6:11:41,WEP,,
eduroam,C8:F9:F9:A6:11:42,WPA+AES-CCM,,
ConcordiaGuest,C8:F9:F9:A6:11:43,None,,
BELL998,CA:CD:72:D7:81:73,WEP,45.605145,-73.558907
BELL963,CA:CD:72:DA:A0:73,WEP,-169.151178,-171.147485
ADONFPAN,CC:34:29:39:12:D2,WPA+AES-CCM WPA+PSK,-169.250944,-73.577507
ConcordiaUniversity,CC:46:D6:3D:A1:20,WPA+AES-CCM,45.496716,-73.576401
eduroam,CC:46:D6:3D:A1:21,WPA+AES-CCM,-169.251661,-73.576401
ConcordiaGuest,CC:46:D6:3D:A1:22,None,-169.251661,-73.576401
HP-Print-9A-LaserJet M1217,CC:AF:78:46:32:9A,None,,
VIDEOTRON8473,CC:B2:55:4B:F8:EC,WPA+AES-CCM WPA+PSK,45.610615,-73.546020
VIDEOTRON9734,CC:B2:55:4B:FE:74,WPA+AES-CCM WPA+PSK,45.605469,-73.556892
VIDEOTRON0808,CC:B2:55:4C:78:15,WPA+AES-CCM WPA+PSK,45.602589,-73.531517
None,CC:E1:7F:13:EF:00,WPA+AES-CCM,-97.567583,-73.533908
None,CC:E1:7F:13:EF:02,WPA+AES-CCM,-97.566773,-73.533628
None,CC:E1:7F:13:EF:04,None,-169.150171,-73.534142
ciscosb,CC:EF:48:87:83:EC,None,-169.250884,-174.633714
LuxTB,D0:03:4B:D6:C0:84,WPA+AES-CCM WPA+PSK,-145.391320,-169.020790
Facunda2G,D0:17:C2:A2:B1:F8,WPA+AES-CCM WPA+PSK,-169.149541,-73.533607
comichec,D0:17:C2:E8:9F:00,WPA+AES-CCM WPA+PSK,-169.151864,-73.535120
HP-Print-C8-Officejet 4630,D0:BF:9C:A9:46:C8,WPA+AES-CCM WPA+PSK,-178.328994,-179.991316
HP-Print-EA-ENVY 5530 series,D0:BF:9C:B4:5B:EA,WPA+AES-CCM WPA+PSK,-154.827139,-159.430056
HUAWEI-FF75,D4:40:F0:C0:FF:75,WPA+AES-CCM WPA+PSK WPA+TKIP,,
Loews Lobby,D4:68:4D:05:4F:18,None,45.498009,-73.575104
Loews Guest,D4:68:4D:05:52:18,None,45.497875,-73.575020
ConcordiaUniversity,D4:6D:50:A6:68:30,WPA+AES-CCM,-178.200036,-177.968551
eduroam,D4:6D:50:A6:68:31,WPA+AES-CCM,-169.251877,-127.264140
ConcordiaGuest,D4:6D:50:A6:68:32,None,-145.390934,-169.020525
ConcordiaUniversity,D4:6D:50:A6:69:30,WPA+AES-CCM,-157.949516,-163.997926
eduroam,D4:6D:50:A6:69:31,WPA+AES-CCM,-169.251741,-73.577501
ConcordiaGuest,D4:6D:50:A6:69:32,None,-169.251917,-73.577484
HR_Guest,D4:6D:50:F2:FE:73,None,45.497646,-73.575302
HUAWEI MLA-AL10,D4:A1:48:8A:F8:49,None,-169.251393,-172.690794
HP-Print-A4-Officejet 7610,D4:C9:EF:5C:40:A4,WPA+AES-CCM WPA+PSK,-175.755552,-177.694913
NewAdMpact,D4:CA:6D:58:2C:5A,WPA+AES-CCM WPA+PSK,-169.248025,-73.574493
None,D4:D9:19:13:C9:06,None,,
None,D8:50:E6:CA:FC:00,WPA+AES-CCM WPA+PSK,-169.146993,-145.114971
ASUS9260,D8:50:E6:D0:F5:A8,WPA+AES-CCM WPA+PSK,-178.488733,-176.240861
AltimaTelecom-20319,D8:5D:4C:CD:8F:09,WPA+AES-CCM WPA+PSK WPA+TKIP,45.603516,-73.558823
None,D8:5D:4C:E5:C4:7E,WPA+PSK WPA+TKIP,45.604248,-73.558716
BELL313,D8:6C:E9:0D:C4:BA,WPA+AES-CCM WPA+PSK,45.600780,-73.532501
BELL940,D8:6C:E9:0D:DD:8A,WPA+AES-CCM WPA+PSK,-97.667705,-73.575030
BELL200,D8:6C:E9:0F:55:7A,WPA+AES-CCM WPA+PSK,45.602589,-73.531517
BELL968,D8:6C:E9:0F:7C:76,WPA+AES-CCM WPA+PSK,45.604996,-73.543297
BELL721,D8:6C:E9:0F:AD:B6,WPA+AES-CCM WPA+PSK,-169.151112,-159.433895
BELL047,D8:6C:E9:11:0E:BE,WPA+AES-CCM WPA+PSK,-169.148067,-127.219816
BELL046,D8:6C:E9:11:83:46,WPA+AES-CCM WPA+PSK,-169.151665,-173.750778
BELL202,D8:6C:E9:13:93:5B,WPA+AES-CCM WPA+PSK,45.603573,-73.558990
Altima-12349,D8:6C:E9:14:3A:AB,WPA+AES-CCM WPA+PSK WPA+TKIP,45.603214,-73.538948
BELL230,D8:6C:E9:14:A3:03,WPA+AES-CCM WPA+PSK,-97.559276,-73.535856
BELL054,D8:6C:E9:15:0E:3B,WPA+AES-CCM WPA+PSK,-169.144859,-73.531036
BELL385,D8:6C:E9:16:FE:D5,WPA+AES-CCM WPA+PSK,-126.197963,-159.431838
BELL601,D8:6C:E9:17:52:D5,WPA+AES-CCM WPA+PSK,-169.149594,-145.116443
BELL906,D8:6C:E9:1A:4A:85,WPA+AES-CCM WPA+PSK,-169.140111,-127.227682
BELL601,D8:6C:E9:1A:D6:9D,WPA+AES-CCM WPA+PSK,-169.150205,-145.116785
BELL839,D8:6C:E9:1C:03:A5,WPA+AES-CCM WPA+PSK,-152.626097,-172.653481
bell493,D8:6C:E9:1D:85:1D,WPA+PSK WPA+TKIP,-169.148586,-127.220149
BELL286,D8:6C:E9:20:D4:85,WPA+AES-CCM WPA+PSK,-169.143243,-73.531841
BELL287,D8:6C:E9:21:6D:95,WPA+AES-CCM WPA+PSK,-169.143605,-154.061386
BELL454,D8:6C:E9:21:F5:75,WPA+AES-CCM WPA+PSK,-138.461884,-134.897020
BELL818,D8:6C:E9:22:73:F5,WPA+AES-CCM WPA+PSK,-169.145622,-145.120620
BELL053,D8:6C:E9:25:25:A5,WPA+AES-CCM WPA+PSK,45.609695,-73.543930
BELL0190,D8:6C:E9:28:E6:99,WPA+AES-CCM WPA+PSK,-149.623625,-151.626563
BELL028,D8:6C:E9:29:AD:8D,WPA+AES-CCM WPA+PSK,-97.562927,-73.531492
BELL416,D8:6C:E9:29:F8:45,WPA+AES-CCM WPA+PSK,-149.619467,-151.626241
BELL845,D8:6C:E9:2B:DA:19,WPA+AES-CCM WPA+PSK,-145.288426,-168.977230
BELL022,D8:6C:E9:2C:47:E9,WPA+AES-CCM WPA+PSK,-169.143599,-145.113565
BELL470,D8:6C:E9:2E:6B:D1,WPA+AES-CCM WPA+PSK,-169.151850,-145.117868
BELL637,D8:6C:E9:2E:92:89,WPA+AES-CCM WPA+PSK,-154.825963,-159.433701
BELL596,D8:6C:E9:2E:D3:B9,WPA+AES-CCM WPA+PSK,-169.139455,-73.542099
ConcordiaUniversity,D8:B1:90:E7:AB:40,WPA+AES-CCM,-156.619976,-174.635539
ConcordiaGuest,D8:B1:90:E7:AB:42,None,-169.252053,-145.160264
Protect your wifi HACK,D8:EB:97:19:04:DB,None,,
patate2.4,D8:FE:E3:7B:C6:0C,WPA+AES-CCM WPA+PSK WPA+TKIP,-169.151114,-159.433884
DIRECT-b4-HP M252 LaserJet,DA:5D:E2:5B:FB:B4,WPA+AES-CCM WPA+PSK,-97.667011,-73.574183
Bell722,DA:6C:E9:0F:AD:B6,WPA+PSK WPA+TKIP,-169.151094,-165.569558
None,DC:3A:5E:1E:BF:EB,WPA+AES-CCM WPA+PSK,45.604980,-73.531380
None,DC:3A:5E:67:3A:1F,WPA+AES-CCM WPA+PSK,-169.146497,-73.535164
Nvizzio,DC:9F:DB:1C:D5:28,WPA+AES-CCM WPA+PSK,-154.935758,-159.476425
STCATHYS,DC:9F:DB:1C:D7:94,WPA+AES-CCM WPA+PSK,-138.574180,-134.934030
NautilusPlus,DC:9F:DB:6B:6E:70,None,-169.250139,-73.574776
ilesansfil.org-Parasuco,DC:9F:DB:6D:A8:91,None,-145.389985,-169.019442
ilesansfil.org-Parasuco,DC:9F:DB:75:7E:53,None,45.497429,-73.575737
STCATHYS,DC:9F:DB:B2:22:69,WPA+AES-CCM WPA+PSK,-145.391387,-169.021054
STCATHYS,DC:9F:DB:B2:67:5C,WPA+AES-CCM WPA+PSK,-179.989801,-175.582764
Lilium-Tech,DC:EF:09:D6:AC:C0,WPA+AES-CCM WPA+PSK,-169.137325,-127.234195
NETGEAR01-arlo_247000,DE:EF:09:A2:60:91,WPA+AES-CCM WPA+PSK,,
Moosehead,E0:0E:DA:1C:34:10,WPA+AES-CCM WPA+PSK,45.497646,-73.575302
Charlot,E0:3F:49:9B:AF:28,WPA+AES-CCM WPA+PSK,-169.151898,-73.535215
DMSC_EMP,E0:3F:49:E3:24:48,WPA+AES-CCM WPA+PSK,,
GRUE5G,E0:91:F5:FD:5C:3C,WPA+AES-CCM WPA+PSK,45.498524,-73.574234
SAC,E0:CB:4E:38:13:D9,WPA+AES-CCM WPA+PSK,-156.505037,-174.605203
COS Free WiFi,E2:55:7D:21:4A:C1,None None,-138.572291,-134.931813
OneTeam,E2:55:7D:21:4A:C6,WPA+AES-CCM WPA+AES-CCM WPA+PSK WPA+PSK,-169.250639,-159.474489
None,E2:55:7D:21:4A:C7,WPA+AES-CCM,-169.250618,-73.575117
None,E2:55:7D:21:4A:C8,WPA+AES-CCM,-169.250638,-73.575151
COS Free WiFi,E2:55:7D:25:7F:01,None None,-169.250639,-73.575161
OneTeam,E2:55:7D:25:7F:06,WPA+AES-CCM WPA+PSK,-169.250730,-73.575317
None,E2:55:7D:25:7F:07,WPA+AES-CCM,45.497818,-73.575005
COS Free WiFi,E2:55:7D:27:E2:31,None None,-138.572390,-134.931973
OneTeam,E2:55:7D:27:E2:36,WPA+AES-CCM WPA+AES-CCM WPA+PSK WPA+PSK,-149.728142,-151.665601
None,E2:55:7D:27:E2:37,WPA+AES-CCM,-169.250663,-73.575192
None,E2:55:7D:27:E2:38,WPA+AES-CCM,45.497791,-73.575043
jbloom1180_2ndFloor,E4:6F:13:2F:84:20,WPA+AES-CCM WPA+PSK WPA+TKIP,-126.299578,-159.473046
dlink-E7FC,E4:6F:13:36:E7:FC,WPA+AES-CCM WPA+PSK WPA+TKIP,-97.554194,-73.547806
Editorial,E4:6F:13:41:61:C8,WPA+AES-CCM WPA+PSK WPA+TKIP,-169.248025,-171.187387
MAX-RDC,E4:6F:13:62:67:8A,WPA+AES-CCM WPA+PSK WPA+TKIP,45.604271,-73.530586
dlink-8BD4,E4:6F:13:62:8B:D4,WPA+AES-CCM WPA+PSK WPA+TKIP,-179.369798,-175.791807
dlink-5F78,E4:6F:13:D7:5F:78,WPA+AES-CCM WPA+PSK WPA+TKIP,-169.138491,-73.544294
VIDEOTRON9082_media-EXT,E4:6F:13:D7:63:1C,WPA+AES-CCM WPA+PSK WPA+TKIP,45.610294,-73.545326
ConcordiaUniversity,E4:AA:5D:65:6E:70,WPA+AES-CCM,-169.251968,-145.160356
ConcordiaUniversity,E4:AA:5D:6B:5A:D0,WPA+AES-CCM,-176.921235,-177.116857
eduroam,E4:AA:5D:6B:5A:D1,WPA+AES-CCM,-169.251613,-159.476867
ConcordiaGuest,E4:AA:5D:6B:5A:D2,None,-169.251609,-127.264625
SEMPAITO2,E4:F4:C6:15:01:6C,WPA+AES-CCM WPA+PSK,-145.281058,-168.979829
NETGEAR71,E4:F4:C6:15:FD:39,WPA+AES-CCM WPA+PSK,-169.251688,-169.020161
InfluenceU,E4:F4:C6:1E:31:ED,WPA+AES-CCM WPA+PSK,45.495949,-73.577209
ConcordiaUniversity,E8:40:40:CC:C9:50,WPA+AES-CCM WPA+TKIP,,
None,E8:40:40:CC:C9:51,WEP,,
ConcordiaGuest,E8:40:40:CC:C9:53,None,,
SM-G920W87407,E8:50:8B:AD:C4:25,WPA+AES-CCM WPA+PSK,-169.151620,-127.221339
None,E8:65:49:A9:C2:70,WPA+AES-CCM WPA+PSK,-149.725447,-151.664808
Paris,E8:94:F6:44:00:74,WPA+AES-CCM WPA+PSK WPA+TKIP,-169.249685,-73.574196
dlink-9024,E8:CC:18:7D:90:24,WPA+AES-CCM WPA+PSK WPA+TKIP,45.608871,-73.542015
dlink-9E88,E8:CC:18:F6:9E:88,WPA+AES-CCM WPA+PSK WPA+TKIP,-169.151883,-145.117944
DMD Guest,E8:CC:18:F7:7B:9D,WPA+AES-CCM WPA+PSK WPA+TKIP,45.610294,-73.545326
C4425,E8:CD:2D:72:77:38,WPA+AES-CCM WPA+PSK,-126.188531,-159.444329
C2614,E8:CD:2D:72:78:A3,WPA+AES-CCM WPA+PSK,-169.138070,-73.545326
Mazagan-Telecom7081,E8:DE:27:EE:E9:C2,WPA+AES-CCM WPA+PSK WPA+TKIP,45.603889,-73.530800
TP-LINK_F7F960,E8:DE:27:F7:F9:60,WPA+AES-CCM WPA+PSK,-169.248025,-173.790397
Rachel_2GEXT,E8:FC:AF:8A:52:0B,WEP,-97.563797,-73.531949
BravoTelecom_14201,EC:08:6B:46:2B:BA,WPA+AES-CCM WPA+PSK,-97.554688,-73.546677
BravoTelecom_4532,EC:08:6B:46:2C:10,WPA+AES-CCM WPA+PSK,-157.841242,-163.950885
TP-LINK_56F6,EC:08:6B:4A:56:F6,WPA+AES-CCM WPA+PSK,-169.134412,-73.553955
eZ Passport Wireless,EC:08:6B:89:B9:76,WPA+AES-CCM WPA+PSK,-169.252462,-73.577446
Arrakis,EC:08:6B:B6:4F:CB,WPA+AES-CCM WPA+PSK,-149.626396,-151.623590
Bravotelecom_8758,EC:08:6B:DE:B7:BC,WPA+AES-CCM WPA+PSK,-169.137018,-73.547729
BravoTelecom_14053,EC:08:6B:DE:BA:7A,WPA+AES-CCM WPA+PSK,-176.072307,-170.541324
Mazagan-Telecom 4653,EC:08:6B:DE:C2:82,WPA+AES-CCM WPA+PSK,-149.615359,-151.635934
BM,EC:35:86:37:B7:F4,WPA+AES-CCM WPA+PSK,-157.946816,-163.994194
DIRECT-54-HP OfficeJet Pro 8710,EC:8E:B5:07:72:E3,WPA+AES-CCM WPA+PSK,-97.667530,-73.575096
DIRECT-89-HP ENVY 7640 series,EC:8E:B5:19:82:8A,WPA+AES-CCM WPA+PSK,-169.148051,-73.532747
Apple Store,EC:BD:1D:8A:A9:70,None,45.497478,-73.575676
None,EC:BD:1D:8A:A9:73,WPA+AES-CCM,45.497558,-73.575500
None,EC:BD:1D:8A:A9:79,WPA+AES-CCM WPA+PSK,-97.668049,-73.575567
Apple Store,EC:BD:1D:A3:D0:C0,None,-97.668064,-73.575597
None,EC:BD:1D:A3:D0:C1,WPA+AES-CCM WPA+PSK,45.497558,-73.575500
None,EC:BD:1D:A3:D0:C3,WPA+AES-CCM,-169.250841,-73.575573
None,EC:BD:1D:A3:D0:C9,WPA+AES-CCM WPA+PSK,45.497490,-73.575645
None,EC:BD:1D:AF:DE:A1,WPA+AES-CCM WPA+PSK,45.497558,-73.575500
Apple Store,EC:BD:1D:EF:3F:90,None,-169.250846,-73.575588
None,EC:BD:1D:EF:3F:91,WPA+AES-CCM WPA+PSK,45.497555,-73.575516
None,EC:BD:1D:EF:3F:93,WPA+AES-CCM,45.497574,-73.575478
None,EC:BD:1D:EF:3F:99,WPA+AES-CCM WPA+PSK,45.497478,-73.575676
None,EC:BD:1D:F7:F8:51,WPA+AES-CCM WPA+PSK,45.497555,-73.575516
None,EC:BD:1D:F7:F8:59,WPA+AES-CCM WPA+PSK,45.497547,-73.575523
Apple Store,EC:BD:1D:FB:33:E0,None,-175.216046,-174.984466
None,EC:BD:1D:FB:33:E1,WPA+AES-CCM WPA+PSK,-169.250806,-73.575500
None,EC:BD:1D:FB:33:E3,WPA+AES-CCM,-169.250799,-73.575489
None,EC:BD:1D:FB:33:E9,WPA+AES-CCM WPA+PSK,45.497558,-73.575500
Uniprix WiFi,F0:5C:19:CB:11:40,None,-97.666947,-73.574303
None,F0:5C:19:CB:11:41,WPA+AES-CCM WPA+PSK,-169.249992,-73.574564
BELL029,F0:82:61:3D:4C:6E,WPA+AES-CCM WPA+PSK,,
BELL250,F0:82:61:3D:7A:F6,WPA+AES-CCM WPA+PSK,-138.465838,-134.887305
BELL422,F0:82:61:3D:A9:A6,WPA+AES-CCM WPA+PSK,-169.139470,-73.542082
BELL038,F0:82:61:3D:E3:2E,WPA+AES-CCM WPA+PSK,-169.146314,-154.062446
BELL980,F0:82:61:3E:08:22,WPA+AES-CCM WPA+PSK,,
BELL658,F0:82:61:3E:4C:C2,WPA+AES-CCM WPA+PSK,-169.149734,-159.433069
HD,F0:82:61:3E:68:F2,WPA+AES-CCM WPA+PSK,45.612823,-73.551163
BELL643,F0:82:61:3E:B8:6A,WPA+AES-CCM WPA+PSK,,
maisonDeroy,F0:82:61:3F:62:3E,WPA+AES-CCM WPA+PSK,-169.145776,-73.531517
BELL044,F0:82:61:40:24:4E,WPA+AES-CCM WPA+PSK,-169.145501,-73.531380
BELL061,F0:82:61:40:E5:3E,WPA+AES-CCM WPA+PSK,-97.565207,-73.532743
BELL054,F0:82:61:41:2A:DE,WPA+AES-CCM WPA+PSK,-149.620991,-151.621133
BELL023,F0:82:61:41:FE:F6,WPA+AES-CCM WPA+PSK,,
BELL966,F0:82:61:42:36:4B,WPA+AES-CCM WPA+PSK,-169.149023,-159.432647
BELL804,F0:82:61:44:34:42,WPA+AES-CCM WPA+PSK,45.600780,-73.532501
BELL014,F0:82:61:44:60:99,WPA+AES-CCM WPA+PSK,45.605087,-73.531723
BELL637,F0:82:61:44:7A:91,WPA+AES-CCM WPA+PSK,-178.475936,-166.911946
BELL539,F0:82:61:44:7B:D9,WPA+AES-CCM WPA+PSK,-97.557594,-73.539993
BELL086,F0:82:61:46:85:C9,WPA+AES-CCM WPA+PSK,-169.143260,-73.531782
BELL415,F0:82:61:46:CC:D9,WPA+AES-CCM WPA+PSK,-169.151828,-154.065709
WiFi_24,F0:82:61:47:46:49,WPA+AES-CCM WPA+PSK,45.496300,-73.576904
BELL778,F0:82:61:47:6D:31,WPA+AES-CCM WPA+PSK,-169.149228,-127.220500
BELL860,F0:82:61:47:91:89,WPA+AES-CCM WPA+PSK,-156.506901,-174.600866
BELL253,F0:82:61:F2:E6:C6,WPA+AES-CCM WPA+PSK,,
BELL221,F0:82:61:F2:F4:AE,WPA+AES-CCM WPA+PSK,-176.179124,-170.559675
BELL077,F0:82:61:F4:B2:16,WPA+AES-CCM WPA+PSK,-169.248025,-165.609507
BELL703,F0:82:61:F4:F2:AE,WPA+AES-CCM WPA+PSK,45.604568,-73.558723
BELL595,F0:82:61:F5:67:AE,WPA+AES-CCM WPA+PSK,-169.141960,-165.571205
BELL358,F0:82:61:F6:85:5E,WPA+AES-CCM WPA+PSK,45.500340,-73.574493
jbloom1180,F0:82:61:F6:E9:0E,WPA+AES-CCM WPA+PSK,-169.249254,-154.104349
Buffalo,F0:82:61:F6:F8:CE,WPA+AES-CCM WPA+PSK,-169.251708,-159.475800
GBA,F0:82:61:F7:FB:E6,WPA+AES-CCM WPA+PSK,-176.656649,-177.247962
BELL349,F0:82:61:F8:0F:5E,WPA+AES-CCM WPA+PSK,-169.249622,-165.609224
FALCOR,F0:99:BF:07:8A:7A,WPA+AES-CCM WPA+PSK,,
None,F0:9E:63:05:C9:00,WPA+AES-CCM,-149.727909,-151.665426
None,F0:9E:63:05:C9:01,WPA+AES-CCM WPA+PSK,-154.933934,-159.474430
None,F0:9E:63:49:0A:F1,WPA+AES-CCM WPA+PSK,-97.667822,-73.575233
regal2016,F0:AB:54:1A:2E:C0,WPA+AES-CCM WPA+PSK WPA+TKIP,-169.142671,-73.533775
verano2016,F0:AB:54:73:0F:AB,WPA+AES-CCM WPA+PSK WPA+TKIP,45.605015,-73.531494
WiFi Hotspot 8829,F0:AB:54:91:94:66,WPA+AES-CCM WPA+PSK WPA+TKIP,-126.200750,-159.433488
dlink-E9FF_plus,F0:B4:29:A4:B8:7E,WPA+AES-CCM WPA+PSK WPA+TKIP,-169.143384,-73.531380
TAG Wireless,F0:D1:A9:11:F7:F8,WPA+AES-CCM WPA+PSK,-152.731783,-172.690308
ConcordiaUniversity,F4:0F:1B:96:61:10,WPA+AES-CCM,-138.573778,-134.933988
eduroam,F4:0F:1B:96:61:11,WPA+AES-CCM,-169.252422,-73.577248
ConcordiaGuest,F4:0F:1B:96:61:12,None,-169.252571,-73.577515
Altima-29233C,F4:28:53:29:23:3C,WPA+AES-CCM WPA+PSK WPA+TKIP,-179.510847,-179.928521
Altima-22336,F4:28:53:29:29:40,WPA+AES-CCM WPA+PSK WPA+TKIP,-97.563076,-73.537285
Altima-22764,F4:28:53:29:50:88,WPA+AES-CCM WPA+PSK WPA+TKIP,-126.199898,-159.432979
Altima-23329,F4:28:53:29:5F:9C,WPA+AES-CCM WPA+PSK WPA+TKIP,,
TransatTelecom642,F4:28:53:3D:88:C4,WPA+AES-CCM WPA+PSK,-97.559883,-73.533775
TransatTelecom970,F4:28:53:3D:A4:64,WPA+AES-CCM WPA+PSK,-138.470643,-134.889944
Altima-407670,F4:28:53:40:76:70,WPA+AES-CCM WPA+PSK WPA+TKIP,45.599422,-73.533279
Altima-407A64,F4:28:53:40:7A:64,WPA+AES-CCM WPA+PSK WPA+TKIP,,
Altima-4105B0,F4:28:53:41:05:B0,WPA+AES-CCM WPA+PSK WPA+TKIP,,
Altima-411184,F4:28:53:41:11:84,WPA+AES-CCM WPA+PSK WPA+TKIP,-169.144774,-145.113771
Altima-411430,F4:28:53:41:14:30,WPA+AES-CCM WPA+PSK WPA+TKIP,,
Altima-4129F0,F4:28:53:41:29:F0,WPA+AES-CCM WPA+PSK WPA+TKIP,,
Altima-6D55F6,F4:28:53:6D:55:F6,WPA+AES-CCM WPA+PSK,45.496704,-73.576401
None,F4:6D:04:7E:5C:42,WPA+AES-CCM WPA+PSK WPA+TKIP,45.496620,-73.576515
None,F4:7F:35:84:94:11,WPA+AES-CCM WPA+PSK,-177.839952,-176.653818
St Jax Team,F4:7F:35:AC:74:81,WPA+AES-CCM WPA+PSK,-97.669356,-73.576948
THIRDPARTY,F4:CF:E2:E9:DE:31,WPA+AES-CCM WPA+PSK,-169.250751,-73.575378
ADMIN-PC_Network,F4:EC:38:9D:01:6A,WPA+AES-CCM WPA+PSK,-169.142725,-73.533592
Pride,F4:F2:6D:9D:25:88,WPA+AES-CCM WPA+PSK WPA+TKIP,45.496662,-73.576431
lewarehouse_client,F4:F2:6D:CA:B0:F0,WPA+AES-CCM WPA+PSK WPA+TKIP,-169.250928,-73.575752
skynettelecom.ca ,F4:F2:6D:CD:95:EE,WPA+AES-CCM WPA+PSK,-169.143576,-145.113618
06A961-MG2900series,F8:0D:60:06:A9:61,WPA+AES-CCM WPA+PSK,-169.137564,-127.233533
Lasociete,F8:1A:67:4E:B1:E8,WPA+AES-CCM WPA+PSK WPA+TKIP,-169.250421,-73.575081
Avigilon_3e,F8:7B:8C:05:35:FC,WPA+AES-CCM WPA+PSK,-169.150541,-73.534218
OCCNetworkV_RE,F8:7B:8C:1C:02:AF,WPA+AES-CCM WPA+PSK,-169.249168,-145.156662
VIF WIFI,F8:D1:11:95:4B:19,WPA+PSK WPA+TKIP,45.600651,-73.532478
Flash WIFI,F8:D1:11:95:4E:BF,WPA+AES-CCM WPA+PSK WPA+TKIP,-169.143589,-145.113592
SECURITE ANJOU,F8:E9:03:B5:BB:BC,WPA+AES-CCM WPA+PSK WPA+TKIP,-179.400666,-179.844608
dlink-7FE6,F8:E9:03:B8:7F:E6,WPA+AES-CCM WPA+PSK WPA+TKIP,45.609730,-73.557304
ZID-0233,F8:E9:03:B9:44:28,WPA+AES-CCM WPA+PSK WPA+TKIP,-97.555614,-73.557220
dlink-A02A,F8:E9:03:BB:A0:2A,WPA+AES-CCM WPA+PSK WPA+TKIP,-169.251707,-154.107101
dlink-D984,F8:E9:03:C0:D9:84,WPA+AES-CCM WPA+PSK WPA+TKIP,-145.285278,-168.975464
M1455 Guest,F8:E9:03:C0:FA:35,None,45.500340,-73.574493
None,FA:8F:CA:32:E3:C9,None,45.599422,-73.533279
None,FA:8F:CA:38:4D:1A,None,-169.140134,-73.540546
None,FA:8F:CA:38:74:AE,None,-126.196604,-159.435254
Chromecast7091.b,FA:8F:CA:3C:0F:9F,None,-169.145860,-73.531563
None,FA:8F:CA:53:9C:20,None,45.600037,-73.532822
LA mamie.b,FA:8F:CA:53:A2:21,None,-138.461584,-134.897694
None,FA:8F:CA:54:76:63,None,-97.560236,-73.532613
None,FA:8F:CA:5B:F9:3A,None,-97.554415,-73.547346
None,FA:8F:CA:5D:ED:67,None,-169.138722,-73.543837
None,FA:8F:CA:5E:BB:D5,None,-169.142096,-145.118524
None,FA:8F:CA:63:8E:6B,None,-169.149066,-73.533344
None,FA:8F:CA:6A:1B:63,None,-169.146295,-73.531790
None,FA:8F:CA:7C:E1:C6,None,-154.934037,-159.474619
None,FA:8F:CA:7C:EA:B6,None,-97.668138,-73.575737
None,FA:8F:CA:7D:4D:09,None,-169.150302,-73.534042
None,FA:8F:CA:7D:BD:B8,None,-169.144720,-73.558994
Chromecast3999,FA:8F:CA:84:0E:68,None,-126.300973,-159.474526
None,FA:8F:CA:98:8C:37,None,-178.478815,-179.354372
HP-Print-56-ENVY 4500 series,FC:15:B4:CF:1B:56,WPA+AES-CCM WPA+PSK,-97.559668,-73.534576
DIRECT-0B-HP ENVY 4520 series,FC:3F:DB:E6:82:0C,WPA+AES-CCM WPA+PSK,45.606884,-73.537491
DIRECT-66-HP ENVY 4520 series,FC:3F:DB:E6:B3:67,WPA+AES-CCM WPA+PSK,-169.249756,-159.473663
WIFI CLIENT,FC:F5:28:D3:A3:28,WPA+AES-CCM WPA+PSK,-149.726799,-151.664275
VIDEOTRON4899,FC:F5:28:D3:D9:7C,WPA+AES-CCM WPA+PSK WPA+TKIP,45.601566,-73.532074
VIDEOTRON5264,FC:F5:28:D3:DF:30,WPA+AES-CCM WPA+PSK,-169.149885,-127.220906
VIDEOTRON5852,FC:F5:28:D3:E8:60,WPA+AES-CCM WPA+PSK WPA+TKIP,-126.200325,-159.433237
VIDEOTRON0916,FC:F5:28:D3:F9:00,WPA+AES-CCM WPA+PSK,45.605286,-73.532455
VIDEOTRON1143,FC:F5:28:D3:FC:8C,WPA+AES-CCM WPA+PSK WPA+TKIP,-97.554699,-73.546623
VIDEOTRON1509,FC:F5:28:D4:02:44,WPA+AES-CCM WPA+PSK,-169.143802,-73.530502
VIDEOTRON4058,FC:F5:28:D4:2A:18,WPA+AES-CCM WPA+PSK WPA+TKIP,-138.469653,-134.889330
VIDEOTRON5476,FC:F5:28:D4:40:40,WPA+AES-CCM WPA+PSK WPA+TKIP,-169.144885,-145.140989
VIDEOTRON5953,FC:F5:28:D4:47:B4,WPA+AES-CCM WPA+PSK WPA+TKIP,-169.143701,-73.530472